{"type":"FeatureCollection","name":"Lubuskie","crs":{"type":"name","properties":{"name":"urn:ogc:def:crs:OGC:1.3:CRS84"}},"features":[{"type":"Feature","properties":{"GID_2":"POL.5.2_1","GID_0":"POL","COUNTRY":"Poland","GID_1":"POL.5_1","NAME_1":"Lubuskie","NL_NAME_1":"NA","NAME_2":"Gorzow","VARNAME_2":"NA","NL_NAME_2":"NA","TYPE_2":"Powiat","ENGTYPE_2":"County","CC_2":"0801","HASC_2":"NA"},"geometry":{"type":"MultiPolygon","coordinates":[[[[14.6099,52.5954],[14.605,52.6035],[14.598,52.6096],[14.5816,52.6156],[14.572,52.6218],[14.564,52.6247],[14.5688,52.6298],[14.5716,52.629],[14.5745,52.6356],[14.5767,52.6364],[14.5781,52.635],[14.5772,52.6335],[14.5827,52.6324],[14.6285,52.6548],[14.6286,52.6604],[14.6383,52.6593],[14.6504,52.6533],[14.6472,52.6512],[14.6625,52.648],[14.6636,52.6463],[14.6591,52.6446],[14.6583,52.6423],[14.6697,52.6378],[14.6899,52.6358],[14.6899,52.6334],[14.6917,52.6331],[14.7152,52.6326],[14.7218,52.631],[14.722,52.6326],[14.7268,52.6339],[14.7249,52.6362],[14.729,52.6373],[14.7326,52.6405],[14.7301,52.642],[14.7434,52.6413],[14.7422,52.6432],[14.7492,52.6444],[14.7476,52.6471],[14.7491,52.6621],[14.7524,52.6689],[14.7554,52.6712],[14.7636,52.6704],[14.7651,52.6737],[14.7783,52.6822],[14.7916,52.6971],[14.7914,52.7046],[14.7965,52.7178],[14.7979,52.7265],[14.7952,52.7359],[14.7997,52.7375],[14.7894,52.752],[14.792,52.7544],[14.7912,52.7569],[14.801,52.7585],[14.8045,52.7627],[14.809,52.7649],[14.8107,52.7696],[14.8149,52.7721],[14.8135,52.773],[14.8155,52.7744],[14.8296,52.7733],[14.8395,52.7759],[14.8363,52.7774],[14.8489,52.7774],[14.8505,52.7852],[14.8485,52.7849],[14.8444,52.7903],[14.8546,52.7922],[14.8546,52.7907],[14.8653,52.792],[14.8618,52.8003],[14.8636,52.8008],[14.8616,52.8024],[14.8656,52.8037],[14.8638,52.8062],[14.8662,52.8079],[14.8652,52.8096],[14.8679,52.8122],[14.8549,52.8124],[14.8567,52.8153],[14.8545,52.8162],[14.8586,52.8176],[14.8544,52.8195],[14.8574,52.8206],[14.8537,52.822],[14.8546,52.8241],[14.851,52.8281],[14.8558,52.8307],[14.8594,52.8279],[14.8733,52.8338],[14.866,52.8406],[14.8654,52.8434],[14.8634,52.8434],[14.8657,52.8473],[14.8884,52.8463],[14.8949,52.8404],[14.8956,52.8331],[14.9019,52.8373],[14.9107,52.8381],[14.917,52.8412],[14.9159,52.8426],[14.9188,52.8434],[14.9197,52.8469],[14.9179,52.8493],[14.9137,52.8505],[14.9103,52.8552],[14.9048,52.854],[14.9029,52.8559],[14.8953,52.8553],[14.8903,52.8607],[14.894,52.8619],[14.8924,52.8637],[14.8941,52.8642],[14.893,52.8656],[14.8968,52.8724],[14.9017,52.8758],[14.9042,52.8839],[14.9095,52.8873],[14.9164,52.8879],[14.9178,52.8893],[14.9254,52.8897],[14.9261,52.8883],[14.9233,52.8829],[14.9339,52.8851],[14.935,52.8844],[14.9315,52.8818],[14.9445,52.8764],[14.9489,52.8785],[14.9546,52.8744],[14.9489,52.8715],[14.9564,52.8709],[14.9633,52.8677],[14.9688,52.8697],[14.9783,52.8662],[14.9831,52.8615],[14.98,52.8599],[14.9809,52.8548],[14.9791,52.8537],[14.9816,52.8489],[14.9881,52.8509],[14.9892,52.8482],[14.9878,52.8465],[14.9908,52.8425],[14.9987,52.8446],[15.0021,52.8472],[15.0096,52.8477],[15.0072,52.8537],[15.0087,52.8546],[15.0131,52.8546],[15.0148,52.8568],[15.0211,52.8577],[15.0281,52.8569],[15.0336,52.8607],[15.0374,52.8611],[15.037,52.8622],[15.041,52.8593],[15.0447,52.8497],[15.0491,52.8435],[15.0546,52.8432],[15.0652,52.839],[15.0684,52.837],[15.0682,52.8334],[15.0718,52.8306],[15.1576,52.8528],[15.1592,52.8572],[15.163,52.8545],[15.1665,52.8543],[15.2765,52.8827],[15.2757,52.8834],[15.2804,52.8847],[15.2788,52.8854],[15.2811,52.887],[15.2838,52.8817],[15.2875,52.8796],[15.2881,52.882],[15.2856,52.886],[15.3219,52.8958],[15.3224,52.8942],[15.3268,52.8948],[15.3326,52.899],[15.3317,52.9044],[15.3654,52.9018],[15.3671,52.9009],[15.3657,52.8996],[15.3669,52.8944],[15.3653,52.8935],[15.374,52.8875],[15.4009,52.8846],[15.4193,52.8851],[15.4234,52.8865],[15.4318,52.8812],[15.4314,52.8797],[15.4372,52.8782],[15.4382,52.8739],[15.4406,52.8719],[15.4395,52.8712],[15.4409,52.8697],[15.4403,52.8659],[15.4465,52.8612],[15.4421,52.8576],[15.4424,52.8513],[15.44,52.8496],[15.4453,52.8425],[15.4248,52.8391],[15.4204,52.8341],[15.4235,52.8252],[15.432,52.8198],[15.4329,52.8149],[15.4271,52.8133],[15.4212,52.8144],[15.4079,52.8143],[15.4076,52.8138],[15.4135,52.8103],[15.4338,52.8096],[15.4448,52.8017],[15.4477,52.8012],[15.4506,52.7978],[15.4618,52.792],[15.4659,52.7925],[15.4683,52.7908],[15.4694,52.789],[15.4605,52.7867],[15.4581,52.783],[15.4459,52.7785],[15.4498,52.7753],[15.4467,52.7723],[15.4481,52.7711],[15.4562,52.7765],[15.4741,52.7629],[15.4826,52.7597],[15.4901,52.752],[15.4951,52.7527],[15.4993,52.7513],[15.5086,52.7542],[15.5103,52.7574],[15.5227,52.7641],[15.5337,52.7659],[15.5386,52.7698],[15.5623,52.7639],[15.569,52.7641],[15.5753,52.7672],[15.5834,52.7665],[15.5852,52.7625],[15.5814,52.7593],[15.578,52.7592],[15.58,52.7581],[15.579,52.756],[15.5833,52.7485],[15.5878,52.7446],[15.5874,52.7263],[15.5931,52.7255],[15.601,52.7267],[15.6055,52.7254],[15.6062,52.7228],[15.6029,52.7169],[15.6037,52.7141],[15.5959,52.709],[15.5815,52.7041],[15.5708,52.6973],[15.5614,52.6957],[15.5368,52.6937],[15.5139,52.6961],[15.5005,52.6951],[15.472,52.6998],[15.4523,52.6995],[15.4405,52.701],[15.4346,52.7002],[15.434,52.6976],[15.4322,52.6973],[15.4307,52.7005],[15.4057,52.6933],[15.4008,52.6933],[15.4023,52.6958],[15.393,52.699],[15.3897,52.6955],[15.3877,52.689],[15.3904,52.6803],[15.3945,52.6773],[15.3901,52.6725],[15.3901,52.6705],[15.3969,52.6662],[15.4075,52.6643],[15.4089,52.6611],[15.3976,52.658],[15.3873,52.652],[15.381,52.6435],[15.371,52.6425],[15.3702,52.6403],[15.3727,52.6371],[15.371,52.6325],[15.3638,52.6215],[15.3518,52.6099],[15.3485,52.6038],[15.3481,52.5981],[15.3503,52.5915],[15.2399,52.5878],[15.2096,52.5844],[15.2094,52.5893],[15.2141,52.5944],[15.2115,52.5944],[15.211,52.6081],[15.2056,52.6081],[15.2054,52.6128],[15.2016,52.6156],[15.1984,52.6154],[15.1967,52.6261],[15.2064,52.6337],[15.1954,52.6354],[15.1741,52.6455],[15.1643,52.6469],[15.1577,52.6521],[15.1541,52.6508],[15.1501,52.6458],[15.1356,52.6431],[15.1127,52.6208],[15.1045,52.6176],[15.0804,52.6172],[15.0642,52.6211],[15.0599,52.6242],[15.0596,52.6281],[15.0565,52.6313],[15.0512,52.6329],[15.0471,52.6372],[15.0396,52.641],[15.032,52.6434],[15.0244,52.6404],[15.0089,52.6385],[15.0077,52.6407],[14.9996,52.6393],[14.9992,52.6403],[14.9353,52.6197],[14.9025,52.6182],[14.8803,52.6154],[14.8622,52.6187],[14.8612,52.6175],[14.8587,52.6191],[14.8565,52.6182],[14.8531,52.6223],[14.8502,52.6221],[14.8123,52.6088],[14.7879,52.6022],[14.7819,52.6015],[14.7604,52.6039],[14.7364,52.5975],[14.7052,52.5925],[14.6995,52.5895],[14.6563,52.5802],[14.6551,52.5783],[14.6492,52.5764],[14.6494,52.5739],[14.6473,52.5722],[14.6414,52.5757],[14.637,52.5753],[14.6174,52.5838],[14.6118,52.5891],[14.6099,52.5954]],[[15.1315,52.7757],[15.1295,52.7689],[15.1402,52.7655],[15.1382,52.7636],[15.1464,52.7623],[15.147,52.7568],[15.1495,52.7572],[15.1492,52.7485],[15.1313,52.759],[15.1258,52.7489],[15.1242,52.7501],[15.1234,52.7484],[15.1407,52.7308],[15.1381,52.7263],[15.1272,52.7235],[15.1254,52.7212],[15.1262,52.7178],[15.1307,52.7153],[15.135,52.7098],[15.1442,52.7095],[15.1516,52.7118],[15.1551,52.7075],[15.175,52.7105],[15.1777,52.7067],[15.1815,52.7084],[15.181,52.7096],[15.1843,52.7098],[15.191,52.7031],[15.1942,52.7045],[15.1964,52.7016],[15.1995,52.7029],[15.2081,52.6993],[15.2062,52.6968],[15.232,52.6891],[15.2303,52.6869],[15.25,52.6842],[15.2632,52.6902],[15.2638,52.6885],[15.2773,52.6903],[15.2881,52.6848],[15.2976,52.6918],[15.2984,52.6931],[15.2966,52.6966],[15.3018,52.6981],[15.3066,52.7099],[15.3066,52.7172],[15.3109,52.7185],[15.3081,52.7253],[15.2978,52.7225],[15.2885,52.7219],[15.276,52.7273],[15.279,52.7282],[15.2814,52.7317],[15.2961,52.7304],[15.2973,52.7343],[15.2947,52.7369],[15.2877,52.7363],[15.2856,52.7388],[15.281,52.74],[15.2869,52.747],[15.2868,52.7492],[15.2818,52.7493],[15.2822,52.7694],[15.2459,52.7735],[15.2298,52.7737],[15.2151,52.7683],[15.2158,52.7673],[15.2131,52.7664],[15.2152,52.7635],[15.2098,52.7622],[15.2088,52.7635],[15.1907,52.759],[15.1874,52.7633],[15.1685,52.7697],[15.1582,52.7698],[15.1353,52.777],[15.1341,52.7754],[15.1315,52.7757]]]]}},{"type":"Feature","properties":{"GID_2":"POL.5.1_1","GID_0":"POL","COUNTRY":"Poland","GID_1":"POL.5_1","NAME_1":"Lubuskie","NL_NAME_1":"NA","NAME_2":"GorzowWielkopolski","VARNAME_2":"NA","NL_NAME_2":"NA","TYPE_2":"Miastonaprawachpowiatu","ENGTYPE_2":"Citywithpowiatrights","CC_2":"0861","HASC_2":"NA"},"geometry":{"type":"MultiPolygon","coordinates":[[[[15.191,52.7031],[15.1843,52.7098],[15.181,52.7096],[15.1815,52.7084],[15.1777,52.7067],[15.175,52.7105],[15.1551,52.7075],[15.1516,52.7118],[15.1442,52.7095],[15.135,52.7098],[15.1307,52.7153],[15.1262,52.7178],[15.1254,52.7212],[15.1272,52.7235],[15.1381,52.7263],[15.141,52.7295],[15.1333,52.7392],[15.1234,52.7482],[15.1242,52.7501],[15.1258,52.7489],[15.1313,52.759],[15.1492,52.7485],[15.1495,52.7572],[15.147,52.7568],[15.1464,52.7623],[15.1382,52.7636],[15.1402,52.7655],[15.1292,52.7693],[15.1318,52.776],[15.137,52.7766],[15.1582,52.7698],[15.1685,52.7697],[15.1874,52.7633],[15.1907,52.759],[15.2088,52.7635],[15.2098,52.7622],[15.2152,52.7635],[15.2131,52.7664],[15.2158,52.7673],[15.2151,52.7683],[15.2298,52.7737],[15.2459,52.7735],[15.2822,52.7694],[15.2818,52.7493],[15.2868,52.7492],[15.2869,52.747],[15.281,52.74],[15.2856,52.7388],[15.2877,52.7363],[15.2947,52.7369],[15.2973,52.7343],[15.2961,52.7304],[15.2814,52.7317],[15.279,52.7282],[15.276,52.7273],[15.2885,52.7219],[15.2978,52.7225],[15.3081,52.7253],[15.3109,52.7185],[15.3066,52.7172],[15.3066,52.7099],[15.3018,52.6981],[15.2966,52.6966],[15.2984,52.6931],[15.2976,52.6918],[15.2881,52.6848],[15.2773,52.6903],[15.2638,52.6885],[15.2632,52.6902],[15.25,52.6842],[15.2303,52.6869],[15.232,52.6891],[15.2062,52.6968],[15.2081,52.6993],[15.1995,52.7029],[15.1964,52.7016],[15.1942,52.7045],[15.191,52.7031]]]]}},{"type":"Feature","properties":{"GID_2":"POL.5.3_1","GID_0":"POL","COUNTRY":"Poland","GID_1":"POL.5_1","NAME_1":"Lubuskie","NL_NAME_1":"NA","NAME_2":"KrosnoOdrzanskie","VARNAME_2":"NA","NL_NAME_2":"NA","TYPE_2":"Powiat","ENGTYPE_2":"County","CC_2":"0802","HASC_2":"NA"},"geometry":{"type":"MultiPolygon","coordinates":[[[[14.7142,52.0026],[14.7148,52.0049],[14.7252,52.0082],[14.7267,52.0139],[14.7408,52.0228],[14.7404,52.0291],[14.7483,52.0318],[14.7475,52.0368],[14.7498,52.043],[14.7457,52.0465],[14.7468,52.0505],[14.7452,52.0539],[14.7573,52.0607],[14.7591,52.0657],[14.7552,52.07],[14.7641,52.0709],[14.7684,52.0789],[14.7747,52.0813],[14.7806,52.0799],[14.7851,52.0736],[14.7902,52.0705],[14.7973,52.0707],[14.8067,52.074],[14.7899,52.0833],[14.7923,52.0862],[14.7964,52.0858],[14.8004,52.0902],[14.8058,52.0901],[14.7976,52.0924],[14.7989,52.0946],[14.8049,52.0947],[14.8033,52.0976],[14.8047,52.0987],[14.7993,52.101],[14.7978,52.1034],[14.7986,52.1052],[14.7947,52.1078],[14.8124,52.1094],[14.8139,52.1107],[14.8121,52.113],[14.8128,52.1146],[14.8159,52.1155],[14.8104,52.1197],[14.8084,52.1234],[14.81,52.1322],[14.8084,52.1349],[14.8108,52.1383],[14.8219,52.1409],[14.835,52.1493],[14.8376,52.1449],[14.8445,52.1458],[14.843,52.1478],[14.847,52.1488],[14.852,52.1459],[14.8592,52.1466],[14.8608,52.1432],[14.8706,52.1423],[14.871,52.1361],[14.8614,52.1372],[14.8644,52.1323],[14.8865,52.1378],[14.8827,52.1408],[14.8845,52.1423],[14.8828,52.1432],[14.8847,52.1448],[14.8777,52.1476],[14.8805,52.1479],[14.8846,52.1522],[14.8796,52.1552],[14.8742,52.1512],[14.8692,52.1538],[14.8888,52.1665],[14.8867,52.1697],[14.8808,52.1717],[14.8814,52.1765],[14.8833,52.1784],[14.8841,52.1765],[14.8889,52.178],[14.8894,52.1765],[14.8917,52.1765],[14.8927,52.1782],[14.8914,52.1816],[14.8963,52.1829],[14.8832,52.1945],[14.8895,52.2068],[14.8924,52.2068],[14.8933,52.2054],[14.8951,52.2074],[14.8982,52.2053],[14.8988,52.2071],[14.9006,52.2062],[14.9037,52.2078],[14.9058,52.206],[14.9072,52.2071],[14.9053,52.2081],[14.9073,52.2105],[14.91,52.2088],[14.9198,52.2092],[14.9176,52.2083],[14.9187,52.2068],[14.9231,52.2087],[14.924,52.2073],[14.921,52.2069],[14.9238,52.2046],[14.9252,52.2051],[14.9238,52.2059],[14.9319,52.2071],[14.9304,52.2083],[14.9314,52.2094],[14.9333,52.2081],[14.9377,52.2111],[14.9469,52.209],[14.9609,52.2086],[14.9823,52.2189],[15.007,52.2178],[15.009,52.2152],[15.0196,52.2158],[15.0239,52.2165],[15.0271,52.2189],[15.026,52.2238],[15.0322,52.2219],[15.0328,52.2203],[15.0462,52.2218],[15.0492,52.2247],[15.056,52.2248],[15.0566,52.2272],[15.0603,52.2274],[15.061,52.2298],[15.0599,52.2306],[15.0635,52.2322],[15.0703,52.2324],[15.07,52.2313],[15.0722,52.2317],[15.0714,52.2306],[15.0727,52.2317],[15.0772,52.229],[15.0798,52.2305],[15.0803,52.2329],[15.083,52.2324],[15.0871,52.2347],[15.087,52.2335],[15.0897,52.2328],[15.0867,52.2318],[15.0861,52.2272],[15.0913,52.2261],[15.089,52.226],[15.0903,52.2233],[15.0927,52.2228],[15.101,52.205],[15.1375,52.2124],[15.1538,52.2147],[15.1554,52.2113],[15.1978,52.2188],[15.2039,52.2058],[15.2146,52.2076],[15.2208,52.1946],[15.2534,52.2081],[15.2874,52.214],[15.2938,52.2118],[15.3048,52.2042],[15.3144,52.2026],[15.3125,52.1951],[15.3069,52.1939],[15.3061,52.1903],[15.304,52.1903],[15.3009,52.1757],[15.2968,52.1694],[15.298,52.1637],[15.2959,52.1546],[15.2917,52.1456],[15.2928,52.1432],[15.3062,52.1326],[15.3033,52.1272],[15.2963,52.1218],[15.2945,52.1159],[15.2911,52.114],[15.2904,52.1122],[15.2925,52.1092],[15.2859,52.1061],[15.2893,52.0972],[15.2874,52.0926],[15.289,52.089],[15.296,52.0833],[15.2898,52.0813],[15.2842,52.084],[15.2848,52.0821],[15.2825,52.0791],[15.2835,52.0781],[15.2804,52.0755],[15.2788,52.0756],[15.2733,52.0861],[15.268,52.0867],[15.2566,52.0848],[15.263,52.0697],[15.262,52.0688],[15.263,52.0682],[15.2614,52.0687],[15.2619,52.0668],[15.2666,52.0658],[15.2661,52.0625],[15.2707,52.0585],[15.2737,52.0445],[15.2759,52.041],[15.2758,52.0394],[15.2708,52.0394],[15.267,52.0352],[15.2761,52.0284],[15.2781,52.0216],[15.2648,52.016],[15.2608,52.0108],[15.2603,52.0052],[15.2581,52.0037],[15.2619,52.0013],[15.2714,51.9996],[15.2732,51.9976],[15.2817,51.9832],[15.2765,51.9742],[15.2786,51.972],[15.2883,51.9686],[15.2933,51.9621],[15.2832,51.9488],[15.2748,51.934],[15.2657,51.9313],[15.2502,51.9334],[15.2446,51.9287],[15.2357,51.9132],[15.2393,51.9061],[15.2322,51.8991],[15.2039,51.9],[15.1978,51.8965],[15.1771,51.8915],[15.1647,51.882],[15.1563,51.8827],[15.1556,51.8799],[15.1531,51.8781],[15.139,51.8743],[15.1186,51.8661],[15.1061,51.8628],[15.0841,51.8609],[15.0771,51.8618],[15.0705,51.8646],[15.0692,51.8663],[15.0693,51.8728],[15.0513,51.8777],[15.0314,51.8805],[15.015,51.888],[14.9994,51.8838],[14.9804,51.8821],[14.9736,51.8825],[14.9716,51.8844],[14.9725,51.8857],[14.9677,51.8858],[14.9665,51.8871],[14.9499,51.889],[14.9389,51.8937],[14.9329,51.8929],[14.9187,51.8873],[14.9272,51.8789],[14.9066,51.8729],[14.8897,51.8709],[14.8821,51.8716],[14.8596,51.8817],[14.8572,51.8812],[14.8488,51.8756],[14.851,51.8726],[14.854,51.8727],[14.8514,51.8717],[14.8513,51.8671],[14.8584,51.8497],[14.8557,51.8489],[14.8482,51.8505],[14.8457,51.8492],[14.8425,51.8509],[14.8401,51.8493],[14.8292,51.8521],[14.828,51.854],[14.8192,51.8489],[14.8176,51.8495],[14.8179,51.8484],[14.7984,51.8478],[14.7858,51.8499],[14.7817,51.8563],[14.7693,51.857],[14.7623,51.8597],[14.7639,51.8536],[14.753,51.8525],[14.7513,51.8505],[14.756,51.8486],[14.7565,51.8468],[14.7541,51.8471],[14.7551,51.8453],[14.7613,51.8429],[14.7713,51.8425],[14.7764,51.8392],[14.7763,51.8379],[14.7515,51.8359],[14.7236,51.8382],[14.7234,51.8355],[14.732,51.8257],[14.7324,51.8225],[14.7306,51.82],[14.7322,51.8175],[14.7309,51.8155],[14.7354,51.813],[14.7366,51.81],[14.7202,51.8109],[14.7135,51.815],[14.693,51.8105],[14.6864,51.8027],[14.6831,51.7928],[14.6739,51.7859],[14.6687,51.785],[14.663,51.7884],[14.6499,51.7866],[14.6451,51.7958],[14.6361,51.7977],[14.634,51.801],[14.6228,51.8005],[14.6159,51.802],[14.6136,51.8041],[14.6067,51.804],[14.6008,51.8092],[14.6006,51.8129],[14.5972,51.8173],[14.5904,51.8204],[14.5896,51.8265],[14.5931,51.8306],[14.591,51.8335],[14.5921,51.8359],[14.5906,51.8387],[14.5963,51.8422],[14.6013,51.8397],[14.605,51.8402],[14.6061,51.8419],[14.6034,51.8462],[14.6041,51.8479],[14.6071,51.8481],[14.6096,51.845],[14.6119,51.8451],[14.6122,51.8473],[14.6071,51.8522],[14.6116,51.8574],[14.6245,51.8582],[14.6346,51.8654],[14.6442,51.8674],[14.6468,51.8723],[14.6526,51.8744],[14.6525,51.8789],[14.6546,51.8834],[14.6618,51.887],[14.6631,51.8905],[14.6744,51.8896],[14.6745,51.8944],[14.6805,51.8951],[14.6853,51.8985],[14.6936,51.9013],[14.6945,51.9034],[14.6913,51.9081],[14.6997,51.9143],[14.7024,51.9212],[14.7055,51.9236],[14.7034,51.9309],[14.7072,51.9359],[14.7136,51.9373],[14.7194,51.942],[14.7213,51.9522],[14.718,51.9559],[14.714,51.957],[14.708,51.9646],[14.7069,51.9735],[14.7048,51.9761],[14.707,51.9796],[14.7117,51.9797],[14.7162,51.9824],[14.7174,51.9886],[14.7214,51.9938],[14.7197,51.9988],[14.7142,52.0026]]]]}},{"type":"Feature","properties":{"GID_2":"POL.5.4_1","GID_0":"POL","COUNTRY":"Poland","GID_1":"POL.5_1","NAME_1":"Lubuskie","NL_NAME_1":"NA","NAME_2":"Miedzyrzecz","VARNAME_2":"NA","NL_NAME_2":"NA","TYPE_2":"Powiat","ENGTYPE_2":"County","CC_2":"0803","HASC_2":"NA"},"geometry":{"type":"MultiPolygon","coordinates":[[[[15.7783,52.6373],[15.7929,52.6371],[15.7959,52.6358],[15.7941,52.6274],[15.7962,52.6251],[15.8006,52.6238],[15.7961,52.6213],[15.7863,52.6219],[15.7846,52.6185],[15.7959,52.6085],[15.7959,52.6058],[15.8061,52.6046],[15.8067,52.5973],[15.8124,52.5934],[15.8203,52.5919],[15.8205,52.5897],[15.8292,52.5886],[15.8319,52.5876],[15.8314,52.5862],[15.836,52.5872],[15.8283,52.5829],[15.8303,52.5776],[15.8259,52.5759],[15.8265,52.5733],[15.824,52.5709],[15.8246,52.5671],[15.8324,52.5662],[15.8431,52.5596],[15.8425,52.555],[15.8562,52.5489],[15.8585,52.5444],[15.8487,52.5367],[15.8348,52.5293],[15.8433,52.5248],[15.8502,52.5168],[15.863,52.5104],[15.8772,52.5107],[15.8758,52.5065],[15.8696,52.5042],[15.8726,52.502],[15.8676,52.5026],[15.8705,52.5008],[15.8704,52.4986],[15.8734,52.4971],[15.8725,52.4963],[15.8784,52.4955],[15.8789,52.4931],[15.8857,52.4896],[15.8837,52.4892],[15.8853,52.4861],[15.8837,52.4851],[15.8893,52.4749],[15.8912,52.4753],[15.8916,52.4732],[15.8903,52.473],[15.8929,52.4682],[15.8903,52.4648],[15.8861,52.4648],[15.8789,52.4725],[15.8769,52.4719],[15.8788,52.4699],[15.8776,52.4695],[15.8797,52.4654],[15.8838,52.4657],[15.8877,52.4613],[15.8927,52.4605],[15.8932,52.456],[15.8966,52.4516],[15.896,52.449],[15.8987,52.4493],[15.8982,52.4474],[15.8753,52.4427],[15.8779,52.4373],[15.8752,52.4373],[15.8736,52.4353],[15.8683,52.4351],[15.8617,52.4403],[15.8574,52.4398],[15.8565,52.4375],[15.8544,52.4372],[15.8544,52.436],[15.8563,52.4361],[15.8564,52.4326],[15.8519,52.4316],[15.8441,52.4318],[15.8409,52.4339],[15.8314,52.4352],[15.8315,52.4372],[15.8344,52.4383],[15.8317,52.4395],[15.8333,52.4446],[15.8271,52.4546],[15.8258,52.4544],[15.8267,52.4514],[15.8251,52.4501],[15.8207,52.451],[15.8219,52.4486],[15.8103,52.4444],[15.8094,52.4428],[15.8134,52.4418],[15.8125,52.441],[15.8082,52.442],[15.8069,52.4447],[15.8041,52.4436],[15.8065,52.439],[15.8065,52.4351],[15.8094,52.4361],[15.8112,52.4344],[15.8106,52.4325],[15.8187,52.4291],[15.8157,52.4287],[15.8158,52.4272],[15.8211,52.4245],[15.8261,52.4266],[15.8279,52.4256],[15.8245,52.4222],[15.8274,52.4216],[15.8311,52.4165],[15.8395,52.413],[15.8395,52.4115],[15.8376,52.411],[15.8436,52.4029],[15.8498,52.4017],[15.8513,52.4035],[15.8548,52.4022],[15.8598,52.4029],[15.8702,52.3965],[15.8839,52.394],[15.8962,52.3942],[15.9003,52.3909],[15.8991,52.3881],[15.9009,52.3862],[15.8998,52.385],[15.9006,52.3827],[15.8966,52.3807],[15.8881,52.372],[15.8908,52.3712],[15.8904,52.367],[15.8882,52.3666],[15.8903,52.3534],[15.8813,52.3522],[15.8813,52.3425],[15.8882,52.3365],[15.888,52.3338],[15.8828,52.33],[15.8825,52.3268],[15.8837,52.3243],[15.8877,52.3227],[15.8875,52.3185],[15.8899,52.3176],[15.89,52.3111],[15.8919,52.3103],[15.8886,52.3073],[15.8856,52.3071],[15.8842,52.3112],[15.8818,52.3088],[15.8838,52.3043],[15.8786,52.2981],[15.8782,52.2943],[15.8808,52.2904],[15.8783,52.2896],[15.8551,52.2848],[15.8266,52.2837],[15.8301,52.2879],[15.8377,52.289],[15.8504,52.2941],[15.8494,52.2977],[15.8521,52.3008],[15.8489,52.3043],[15.851,52.3055],[15.8501,52.3064],[15.8553,52.3071],[15.8501,52.3086],[15.8514,52.3098],[15.8474,52.3088],[15.8386,52.3137],[15.8345,52.312],[15.8302,52.3205],[15.7966,52.3184],[15.7971,52.3172],[15.7599,52.3064],[15.7662,52.3041],[15.7329,52.2928],[15.725,52.2906],[15.7196,52.2931],[15.7111,52.2897],[15.7038,52.2933],[15.7004,52.2902],[15.6963,52.2973],[15.6617,52.3065],[15.6509,52.3108],[15.6483,52.313],[15.6507,52.3165],[15.6394,52.323],[15.6325,52.3234],[15.6262,52.3208],[15.6224,52.3427],[15.6037,52.3442],[15.5973,52.343],[15.5848,52.3452],[15.5709,52.3421],[15.5654,52.345],[15.569,52.3465],[15.5675,52.3479],[15.5685,52.3493],[15.5749,52.3487],[15.5738,52.3513],[15.5674,52.3494],[15.5648,52.3502],[15.5644,52.3517],[15.554,52.3542],[15.5535,52.3529],[15.5421,52.3552],[15.5228,52.3559],[15.4978,52.3592],[15.4961,52.3632],[15.4937,52.3636],[15.4922,52.3661],[15.455,52.3605],[15.455,52.3677],[15.4513,52.3696],[15.4418,52.3681],[15.4358,52.3756],[15.4506,52.386],[15.446,52.3862],[15.4468,52.3871],[15.4387,52.3898],[15.4419,52.3949],[15.4359,52.3993],[15.4289,52.401],[15.4217,52.4054],[15.4217,52.4079],[15.416,52.4099],[15.4191,52.4192],[15.4087,52.4218],[15.3921,52.4191],[15.3788,52.4188],[15.3717,52.4204],[15.3722,52.4182],[15.3694,52.4157],[15.3657,52.416],[15.3676,52.4174],[15.3658,52.4175],[15.3613,52.416],[15.3486,52.4177],[15.3511,52.4215],[15.35,52.4231],[15.3338,52.4263],[15.337,52.4363],[15.3219,52.4408],[15.3208,52.4442],[15.3227,52.444],[15.3174,52.4481],[15.3221,52.455],[15.2987,52.4618],[15.3042,52.4733],[15.2803,52.4785],[15.2799,52.481],[15.2782,52.4807],[15.2759,52.4829],[15.2694,52.4828],[15.2687,52.4845],[15.2658,52.4852],[15.2659,52.4916],[15.2675,52.4903],[15.2708,52.4927],[15.2848,52.4945],[15.2907,52.4981],[15.2902,52.5019],[15.2753,52.5083],[15.2749,52.5277],[15.2767,52.5282],[15.2771,52.5304],[15.2763,52.541],[15.3078,52.542],[15.3049,52.5443],[15.3102,52.5439],[15.306,52.5901],[15.3503,52.5915],[15.3481,52.5981],[15.3485,52.6038],[15.3518,52.6099],[15.3638,52.6215],[15.371,52.6325],[15.3727,52.6371],[15.3702,52.6403],[15.371,52.6425],[15.381,52.6435],[15.3873,52.652],[15.3976,52.658],[15.4089,52.6611],[15.4075,52.6643],[15.3969,52.6662],[15.3901,52.6705],[15.3901,52.6725],[15.3945,52.6773],[15.3904,52.6803],[15.3877,52.689],[15.3897,52.6955],[15.393,52.699],[15.4023,52.6958],[15.4008,52.6933],[15.4057,52.6933],[15.4307,52.7005],[15.4322,52.6973],[15.434,52.6976],[15.4346,52.7002],[15.4405,52.701],[15.4523,52.6995],[15.472,52.6998],[15.5005,52.6951],[15.5139,52.6961],[15.5308,52.694],[15.5453,52.6941],[15.5708,52.6973],[15.5788,52.7027],[15.5946,52.7083],[15.6037,52.7141],[15.6134,52.7059],[15.6248,52.7024],[15.6367,52.7012],[15.6719,52.703],[15.7026,52.7091],[15.7359,52.7132],[15.7797,52.7004],[15.7933,52.7069],[15.8003,52.6953],[15.8037,52.6938],[15.8078,52.6846],[15.8129,52.6792],[15.814,52.6678],[15.7931,52.665],[15.7861,52.6677],[15.7819,52.6617],[15.7829,52.6528],[15.7807,52.6499],[15.7782,52.6496],[15.7799,52.6442],[15.7771,52.6434],[15.7786,52.6413],[15.7763,52.6379],[15.7783,52.6373]]]]}},{"type":"Feature","properties":{"GID_2":"POL.5.5_1","GID_0":"POL","COUNTRY":"Poland","GID_1":"POL.5_1","NAME_1":"Lubuskie","NL_NAME_1":"NA","NAME_2":"NowaSol","VARNAME_2":"NA","NL_NAME_2":"NA","TYPE_2":"Powiat","ENGTYPE_2":"County","CC_2":"0804","HASC_2":"NA"},"geometry":{"type":"MultiPolygon","coordinates":[[[[15.8192,51.6684],[15.8167,51.6674],[15.8052,51.6698],[15.8031,51.6685],[15.8017,51.6635],[15.7951,51.6634],[15.7943,51.6608],[15.7862,51.6591],[15.7752,51.6607],[15.7563,51.6597],[15.7542,51.6585],[15.7562,51.6558],[15.7532,51.6533],[15.7435,51.6533],[15.7429,51.6516],[15.738,51.6524],[15.7315,51.6486],[15.729,51.645],[15.7141,51.6515],[15.7065,51.6502],[15.7064,51.6516],[15.7015,51.6528],[15.7049,51.656],[15.701,51.659],[15.694,51.6603],[15.6922,51.6584],[15.6844,51.6562],[15.6782,51.6596],[15.6818,51.6633],[15.6785,51.6657],[15.6747,51.6666],[15.6696,51.6644],[15.6601,51.67],[15.6474,51.6721],[15.6472,51.6699],[15.6269,51.6689],[15.6224,51.67],[15.6204,51.6724],[15.6148,51.6716],[15.6105,51.6688],[15.6004,51.67],[15.5983,51.6727],[15.5989,51.6792],[15.5946,51.6807],[15.579,51.6943],[15.5637,51.6919],[15.5494,51.6868],[15.5441,51.6865],[15.5427,51.6882],[15.526,51.6833],[15.5194,51.6834],[15.5181,51.6917],[15.5131,51.6977],[15.5191,51.7058],[15.5204,51.716],[15.5194,51.7213],[15.5123,51.7236],[15.5042,51.7236],[15.5021,51.7319],[15.5027,51.7382],[15.4962,51.7395],[15.492,51.7431],[15.4845,51.7444],[15.485,51.7482],[15.4913,51.748],[15.4889,51.7508],[15.4944,51.7503],[15.4847,51.7565],[15.4817,51.7568],[15.4803,51.7607],[15.4765,51.7616],[15.4726,51.7683],[15.4635,51.7746],[15.4469,51.7728],[15.4432,51.7776],[15.4422,51.7817],[15.4593,51.7836],[15.4617,51.7861],[15.4681,51.7871],[15.4575,51.7908],[15.4502,51.7974],[15.4521,51.7983],[15.4565,51.807],[15.4675,51.8145],[15.4683,51.8276],[15.4659,51.8274],[15.4686,51.8281],[15.4743,51.8276],[15.4853,51.8218],[15.4986,51.8225],[15.5084,51.8201],[15.5292,51.8234],[15.5285,51.825],[15.5307,51.8248],[15.5292,51.8293],[15.525,51.8309],[15.5207,51.8391],[15.5215,51.8402],[15.5183,51.8435],[15.5208,51.8464],[15.5253,51.845],[15.5245,51.8439],[15.5306,51.8439],[15.5412,51.8406],[15.5569,51.8383],[15.5629,51.8382],[15.5645,51.84],[15.5736,51.8375],[15.574,51.8421],[15.5769,51.842],[15.5771,51.8442],[15.5828,51.8427],[15.5842,51.8455],[15.5945,51.8446],[15.5992,51.8521],[15.6188,51.8504],[15.622,51.8506],[15.6222,51.852],[15.6242,51.8528],[15.6244,51.8508],[15.6295,51.8504],[15.6294,51.8481],[15.6326,51.8456],[15.6469,51.8472],[15.6469,51.8516],[15.644,51.8513],[15.6373,51.8563],[15.6372,51.8598],[15.641,51.8605],[15.6402,51.8645],[15.6368,51.865],[15.6368,51.8688],[15.644,51.8671],[15.6454,51.87],[15.6488,51.8707],[15.6524,51.8754],[15.6362,51.8782],[15.6355,51.8824],[15.6399,51.8863],[15.6481,51.889],[15.6451,51.8934],[15.636,51.8963],[15.639,51.9025],[15.6373,51.9051],[15.6651,51.9032],[15.6843,51.897],[15.6911,51.8976],[15.7072,51.892],[15.7214,51.9005],[15.7329,51.8999],[15.734,51.9021],[15.7401,51.9038],[15.7559,51.9015],[15.7546,51.9027],[15.7616,51.9044],[15.7662,51.901],[15.7586,51.8946],[15.7601,51.8911],[15.7838,51.8877],[15.7877,51.8858],[15.8015,51.8881],[15.8002,51.8898],[15.8053,51.8939],[15.8091,51.896],[15.8128,51.8951],[15.8155,51.9],[15.8118,51.9019],[15.8173,51.9061],[15.83,51.9069],[15.839,51.9123],[15.8495,51.9136],[15.8503,51.9168],[15.8532,51.9187],[15.8679,51.9217],[15.8659,51.928],[15.8635,51.9296],[15.8583,51.9319],[15.8485,51.9317],[15.8434,51.9355],[15.846,51.9391],[15.8498,51.9386],[15.8523,51.9416],[15.862,51.94],[15.8618,51.9439],[15.8674,51.9446],[15.8751,51.949],[15.8764,51.9508],[15.8733,51.9537],[15.8714,51.9601],[15.8922,51.9549],[15.8996,51.9591],[15.904,51.9596],[15.908,51.9633],[15.9035,51.9668],[15.9017,51.976],[15.905,51.9758],[15.9061,51.9728],[15.9119,51.9728],[15.9135,51.9747],[15.9336,51.9799],[15.9324,51.9854],[15.9247,51.9908],[15.9235,51.9967],[15.9211,51.9982],[15.9197,52.0075],[15.9176,52.01],[15.9192,52.016],[15.9253,52.0199],[15.9234,52.0216],[15.9209,52.02],[15.9138,52.0198],[15.9148,52.0217],[15.9125,52.0218],[15.9125,52.0234],[15.9097,52.0249],[15.9104,52.0274],[15.9131,52.0272],[15.9119,52.0298],[15.9098,52.0317],[15.9033,52.0329],[15.901,52.037],[15.9081,52.0394],[15.9127,52.036],[15.9283,52.0362],[15.9304,52.0355],[15.9323,52.0314],[15.9369,52.031],[15.9381,52.0292],[15.9426,52.0299],[15.9424,52.0325],[15.9465,52.0336],[15.9536,52.0304],[15.9512,52.028],[15.954,52.0283],[15.9537,52.0264],[15.966,52.0267],[15.965,52.0178],[15.9684,52.0115],[15.9692,52.0026],[15.9719,51.9997],[15.9762,51.9981],[15.9797,51.9996],[15.9815,51.9977],[15.9839,51.9977],[15.9836,51.9952],[15.9898,51.9965],[15.9868,51.9989],[15.9855,52.0039],[15.988,52.0039],[16.0057,51.9931],[16.0094,51.9845],[16.0085,51.9829],[16.0106,51.9814],[16.0078,51.9793],[16.0079,51.9755],[16.0083,51.971],[16.0117,51.9685],[16.0112,51.9652],[16.0024,51.9589],[15.9968,51.9472],[15.9714,51.9417],[15.9586,51.9436],[15.9451,51.9374],[15.948,51.9341],[15.9547,51.9335],[15.9556,51.9313],[15.9592,51.9311],[15.9624,51.9284],[15.9715,51.9263],[15.9674,51.9245],[15.9678,51.9231],[15.9705,51.9227],[15.9713,51.9202],[15.9569,51.9219],[15.9556,51.9207],[15.957,51.9192],[15.971,51.9165],[15.9762,51.9119],[15.9815,51.9114],[15.9869,51.9084],[15.9872,51.9067],[15.9918,51.9036],[15.9926,51.8969],[15.9945,51.8954],[15.9927,51.8915],[15.985,51.8933],[15.9782,51.891],[15.974,51.8828],[15.9803,51.8748],[15.975,51.8702],[15.9665,51.8719],[15.9685,51.8693],[15.9644,51.8701],[15.9654,51.8687],[15.9632,51.868],[15.9614,51.87],[15.9588,51.8691],[15.9488,51.8713],[15.9512,51.8755],[15.9539,51.8748],[15.9551,51.8785],[15.9528,51.8794],[15.9509,51.8781],[15.9457,51.88],[15.9428,51.8757],[15.9365,51.8767],[15.9299,51.8744],[15.9259,51.8753],[15.9278,51.8706],[15.9256,51.8699],[15.9039,51.8669],[15.9054,51.8613],[15.912,51.857],[15.9034,51.8541],[15.8772,51.8514],[15.8715,51.853],[15.8671,51.8597],[15.8654,51.8599],[15.8611,51.8517],[15.8544,51.855],[15.8492,51.8556],[15.8501,51.8534],[15.8394,51.8519],[15.84,51.8504],[15.8358,51.8497],[15.8352,51.8519],[15.8251,51.8462],[15.8384,51.8352],[15.841,51.8292],[15.852,51.8259],[15.8805,51.8236],[15.883,51.8177],[15.8786,51.8119],[15.8839,51.7989],[15.8912,51.798],[15.8923,51.7999],[15.8926,51.7977],[15.9016,51.7976],[15.9213,51.7991],[15.928,51.8011],[15.9507,51.8007],[15.9543,51.7924],[15.9521,51.7897],[15.9582,51.79],[15.9626,51.7872],[15.9681,51.7879],[15.97,51.7847],[15.9718,51.7846],[15.9719,51.7825],[15.9773,51.7816],[15.9823,51.7785],[15.9941,51.779],[15.9984,51.7772],[16.0043,51.7798],[16.0086,51.7757],[16.007,51.7739],[16.0083,51.7735],[15.989,51.7692],[15.98,51.7737],[15.9771,51.7681],[15.9687,51.7684],[15.9766,51.7481],[15.9737,51.7463],[15.9801,51.7453],[15.9735,51.7439],[15.9677,51.7452],[15.9608,51.7436],[15.9603,51.741],[15.9615,51.7405],[15.9592,51.7395],[15.964,51.7373],[15.9632,51.7337],[15.9545,51.7362],[15.9521,51.7339],[15.9465,51.7365],[15.9439,51.7355],[15.9297,51.7377],[15.9266,51.7296],[15.9219,51.7297],[15.9124,51.7255],[15.9041,51.7296],[15.8947,51.7303],[15.8824,51.7199],[15.8769,51.719],[15.8718,51.7207],[15.8695,51.7197],[15.8682,51.7066],[15.8651,51.707],[15.8659,51.7022],[15.8626,51.7018],[15.8656,51.6926],[15.8623,51.6925],[15.8687,51.6911],[15.8685,51.6888],[15.8645,51.6903],[15.8549,51.6888],[15.8525,51.6839],[15.8425,51.6816],[15.8448,51.6754],[15.8192,51.6684]]]]}},{"type":"Feature","properties":{"GID_2":"POL.5.6_1","GID_0":"POL","COUNTRY":"Poland","GID_1":"POL.5_1","NAME_1":"Lubuskie","NL_NAME_1":"NA","NAME_2":"Slubice","VARNAME_2":"NA","NL_NAME_2":"NA","TYPE_2":"Powiat","ENGTYPE_2":"County","CC_2":"0805","HASC_2":"NA"},"geometry":{"type":"MultiPolygon","coordinates":[[[[14.871,52.2962],[14.8686,52.2906],[14.8714,52.2896],[14.8734,52.2848],[14.877,52.2813],[14.8805,52.2798],[14.889,52.2829],[14.8905,52.2797],[14.899,52.2812],[14.9024,52.2743],[14.9095,52.2742],[14.9112,52.2646],[14.9171,52.2657],[14.919,52.2605],[14.9169,52.2529],[14.9015,52.2571],[14.8918,52.2529],[14.8869,52.2549],[14.8843,52.253],[14.8889,52.2472],[14.902,52.2411],[14.8972,52.2402],[14.9018,52.2316],[14.9042,52.2308],[14.903,52.2292],[14.9133,52.2099],[14.91,52.2088],[14.9071,52.2104],[14.9053,52.2081],[14.9072,52.2071],[14.9058,52.206],[14.9037,52.2078],[14.9006,52.2062],[14.8988,52.2071],[14.8982,52.2053],[14.8951,52.2074],[14.8933,52.2054],[14.8924,52.2068],[14.8895,52.2068],[14.8851,52.2],[14.8832,52.1945],[14.8963,52.1829],[14.8914,52.1816],[14.8927,52.1782],[14.8917,52.1765],[14.8894,52.1765],[14.8889,52.178],[14.8841,52.1765],[14.8833,52.1784],[14.8814,52.1765],[14.8808,52.1717],[14.8867,52.1697],[14.8888,52.1665],[14.8692,52.1538],[14.8742,52.1512],[14.8796,52.1552],[14.8846,52.1522],[14.8805,52.1479],[14.8777,52.1476],[14.8847,52.1448],[14.8828,52.1432],[14.8845,52.1423],[14.8827,52.1408],[14.8865,52.1378],[14.8644,52.1323],[14.8614,52.1372],[14.871,52.1361],[14.8706,52.1423],[14.8608,52.1432],[14.8592,52.1466],[14.852,52.1459],[14.847,52.1488],[14.843,52.1478],[14.8445,52.1458],[14.8376,52.1449],[14.835,52.1493],[14.8219,52.1409],[14.8108,52.1383],[14.8084,52.1349],[14.81,52.1322],[14.8084,52.1234],[14.8104,52.1197],[14.8159,52.1155],[14.8128,52.1146],[14.8121,52.113],[14.8139,52.1107],[14.8124,52.1094],[14.7946,52.1077],[14.7986,52.1052],[14.7978,52.1034],[14.7993,52.101],[14.8047,52.0987],[14.8033,52.0976],[14.8049,52.0947],[14.7989,52.0946],[14.7976,52.0924],[14.8058,52.0901],[14.8004,52.0902],[14.7964,52.0858],[14.7923,52.0862],[14.7899,52.0833],[14.8067,52.074],[14.7961,52.0705],[14.7882,52.0714],[14.7806,52.0799],[14.7747,52.0813],[14.7684,52.0789],[14.7641,52.0709],[14.7552,52.07],[14.7511,52.0728],[14.7461,52.0813],[14.7375,52.0873],[14.7207,52.0946],[14.7004,52.0981],[14.6878,52.1073],[14.6816,52.1167],[14.6842,52.1242],[14.6791,52.1435],[14.6822,52.1481],[14.7031,52.1643],[14.7052,52.1679],[14.7053,52.1735],[14.7012,52.1803],[14.6881,52.1893],[14.6852,52.1941],[14.6885,52.1989],[14.7026,52.2061],[14.7084,52.2117],[14.716,52.2355],[14.7062,52.2419],[14.7009,52.2504],[14.6927,52.2557],[14.6625,52.2618],[14.6414,52.2637],[14.6171,52.2715],[14.5965,52.2729],[14.5916,52.2759],[14.5875,52.2835],[14.576,52.2884],[14.5741,52.2922],[14.5748,52.2956],[14.5842,52.3024],[14.5849,52.3065],[14.5782,52.3132],[14.5781,52.3184],[14.5762,52.3215],[14.5616,52.3279],[14.561,52.331],[14.5633,52.3364],[14.5625,52.3398],[14.5544,52.3487],[14.5521,52.3537],[14.5532,52.3606],[14.5521,52.3741],[14.5344,52.395],[14.5361,52.4014],[14.5466,52.4129],[14.5442,52.426],[14.5495,52.4336],[14.5594,52.439],[14.5793,52.4417],[14.5862,52.4488],[14.5941,52.4527],[14.5999,52.4589],[14.6088,52.4639],[14.6109,52.4668],[14.6134,52.4772],[14.6265,52.4838],[14.6345,52.4923],[14.6354,52.4964],[14.6317,52.5018],[14.6127,52.5104],[14.6102,52.5196],[14.6039,52.5313],[14.6065,52.5374],[14.6133,52.544],[14.6168,52.5554],[14.6385,52.5675],[14.6397,52.5716],[14.637,52.5753],[14.6414,52.5757],[14.6576,52.5666],[14.7148,52.5459],[14.7609,52.543],[14.7737,52.5439],[14.7805,52.5481],[14.7891,52.5438],[14.8131,52.5391],[14.8101,52.531],[14.8055,52.5253],[14.8093,52.5224],[14.8122,52.5112],[14.8166,52.5072],[14.8236,52.5072],[14.8456,52.5135],[14.8763,52.5118],[14.8821,52.5163],[14.8922,52.5186],[14.901,52.5248],[14.929,52.5299],[14.9424,52.5252],[14.9616,52.5266],[14.9819,52.5235],[14.9943,52.5198],[14.9941,52.5162],[14.9906,52.5138],[14.9722,52.5061],[14.9689,52.4977],[14.9711,52.492],[14.9906,52.4909],[14.9879,52.4802],[14.9855,52.4782],[14.9877,52.4726],[14.9878,52.4655],[14.9902,52.4618],[14.9941,52.4602],[14.9939,52.4589],[14.9975,52.4564],[15.0335,52.4544],[15.0407,52.4519],[15.044,52.4412],[15.0363,52.4401],[15.034,52.4373],[15.031,52.4374],[15.0299,52.4349],[15.0337,52.4339],[15.0287,52.4342],[15.0277,52.4324],[15.0245,52.4323],[15.0247,52.4293],[15.0274,52.4257],[15.0268,52.4239],[15.0298,52.4228],[15.0354,52.413],[15.0312,52.3993],[15.0273,52.3922],[15.0245,52.3911],[15.0092,52.3934],[14.9831,52.3906],[14.9794,52.4007],[14.9817,52.4032],[14.9465,52.4096],[14.9337,52.4032],[14.9261,52.3969],[14.9241,52.3916],[14.9188,52.3858],[14.9181,52.3828],[14.921,52.3762],[14.9193,52.3712],[14.9205,52.3674],[14.9183,52.3649],[14.9152,52.3643],[14.9195,52.3615],[14.917,52.3602],[14.8967,52.3616],[14.892,52.3661],[14.8891,52.3664],[14.8752,52.3623],[14.8779,52.3592],[14.8739,52.3582],[14.8773,52.3568],[14.8748,52.3418],[14.8807,52.342],[14.88,52.338],[14.8834,52.337],[14.8826,52.3332],[14.906,52.3268],[14.9001,52.317],[14.886,52.3142],[14.8802,52.3111],[14.871,52.2962]]]]}},{"type":"Feature","properties":{"GID_2":"POL.5.7_1","GID_0":"POL","COUNTRY":"Poland","GID_1":"POL.5_1","NAME_1":"Lubuskie","NL_NAME_1":"NA","NAME_2":"Strzelce-Drezdenko","VARNAME_2":"NA","NL_NAME_2":"NA","TYPE_2":"Powiat","ENGTYPE_2":"County","CC_2":"0806","HASC_2":"NA"},"geometry":{"type":"MultiPolygon","coordinates":[[[[15.5829,52.7665],[15.5753,52.7672],[15.569,52.7641],[15.5623,52.7639],[15.5386,52.7698],[15.5337,52.7659],[15.5227,52.7641],[15.5103,52.7574],[15.5086,52.7542],[15.4993,52.7513],[15.4951,52.7527],[15.4901,52.752],[15.4826,52.7597],[15.4741,52.7629],[15.4562,52.7765],[15.4481,52.7711],[15.4467,52.7723],[15.4498,52.7753],[15.4459,52.7785],[15.4581,52.783],[15.4605,52.7867],[15.4694,52.789],[15.4683,52.7908],[15.4659,52.7925],[15.4618,52.792],[15.4506,52.7978],[15.4477,52.8012],[15.4448,52.8017],[15.4338,52.8096],[15.4135,52.8103],[15.4076,52.8138],[15.4271,52.8133],[15.4329,52.8149],[15.432,52.8198],[15.4235,52.8252],[15.4204,52.8341],[15.4248,52.8391],[15.4453,52.8425],[15.44,52.8496],[15.4424,52.8513],[15.4421,52.8576],[15.4465,52.8612],[15.4403,52.8659],[15.4409,52.8697],[15.4395,52.8712],[15.4406,52.8719],[15.4382,52.8739],[15.4367,52.8787],[15.4314,52.8797],[15.4318,52.8812],[15.4234,52.8865],[15.4193,52.8851],[15.4009,52.8846],[15.374,52.8875],[15.3653,52.8935],[15.3669,52.8944],[15.3657,52.8996],[15.3671,52.9009],[15.3654,52.9018],[15.3352,52.9051],[15.3226,52.9028],[15.3196,52.9094],[15.3079,52.9193],[15.3051,52.9239],[15.2914,52.9336],[15.283,52.9462],[15.2842,52.9548],[15.2878,52.958],[15.3333,52.9482],[15.3507,52.9431],[15.3517,52.9416],[15.3631,52.9442],[15.3612,52.9459],[15.362,52.9481],[15.3659,52.9478],[15.3659,52.9456],[15.3693,52.947],[15.381,52.9591],[15.3908,52.9628],[15.3864,52.965],[15.3883,52.9716],[15.4052,52.9745],[15.412,52.9803],[15.4433,52.9898],[15.4537,52.9872],[15.4652,52.9887],[15.4755,52.9938],[15.501,53.0007],[15.5016,52.9997],[15.5244,53.0037],[15.5252,53.0063],[15.5328,53.0057],[15.5407,53.0084],[15.5398,53.0094],[15.5469,53.0145],[15.5552,53.0113],[15.5566,53.0066],[15.5606,53.0043],[15.5619,52.9992],[15.5722,52.9869],[15.5805,52.9889],[15.5842,52.9865],[15.588,52.9811],[15.6024,52.985],[15.6064,52.9848],[15.6109,52.9822],[15.6155,52.9843],[15.6334,52.9764],[15.6517,52.9839],[15.6611,52.99],[15.6753,52.9932],[15.6817,52.9973],[15.6893,52.9959],[15.6919,52.9982],[15.695,52.9976],[15.694,52.9958],[15.6987,52.9933],[15.7044,52.9957],[15.7083,52.9905],[15.7191,52.9886],[15.7211,52.9866],[15.7305,52.9898],[15.7434,52.9914],[15.7565,52.9962],[15.7594,52.9967],[15.7606,52.9951],[15.7634,53.0005],[15.7648,52.9989],[15.7691,52.9995],[15.7728,53.0033],[15.7717,53.0067],[15.7757,53.0128],[15.774,53.0144],[15.778,53.0151],[15.7771,53.0173],[15.7674,53.0204],[15.7627,53.0267],[15.7729,53.0267],[15.7735,53.0288],[15.778,53.0298],[15.7788,53.0334],[15.7816,53.0335],[15.7851,53.0399],[15.7902,53.041],[15.7879,53.0428],[15.8087,53.0454],[15.803,53.0474],[15.8042,53.0505],[15.802,53.0526],[15.7944,53.0534],[15.7898,53.0574],[15.7789,53.058],[15.7798,53.0602],[15.7828,53.0611],[15.7915,53.0592],[15.8216,53.0652],[15.8135,53.0805],[15.8094,53.0808],[15.8125,53.0824],[15.8115,53.0844],[15.8335,53.0876],[15.86,53.0937],[15.8482,53.1152],[15.8753,53.1211],[15.8804,53.1187],[15.9118,53.124],[15.9129,53.12],[15.9164,53.1193],[15.9793,53.1103],[15.9814,53.1157],[15.985,53.1142],[15.9841,53.111],[15.9818,53.1096],[15.9819,53.1061],[15.9792,53.1033],[15.9808,53.1016],[15.9818,53.1026],[15.984,53.1018],[15.9809,53.0973],[15.9859,53.096],[15.9858,53.0921],[15.9888,53.093],[15.9926,53.0917],[15.9983,53.087],[15.9967,53.0829],[15.9924,53.0808],[15.9954,53.0783],[15.9941,53.0775],[15.9947,53.074],[15.9873,53.0692],[15.9863,53.0649],[15.9848,53.0643],[15.9869,53.0626],[15.9854,53.0603],[15.9897,53.0563],[15.989,53.0548],[15.9866,53.055],[15.9869,53.0534],[15.9831,53.0555],[15.9815,53.0543],[15.9802,53.0564],[15.9754,53.0549],[15.9725,53.0569],[15.9746,53.0537],[15.9728,53.0492],[15.9665,53.0463],[15.9671,53.044],[15.9651,53.0419],[15.9554,53.0403],[15.9545,53.0383],[15.9558,53.0383],[15.9542,53.0377],[15.9565,53.0376],[15.9517,53.0346],[15.9523,53.0327],[15.9571,53.0319],[15.9556,53.0298],[15.9572,53.0268],[15.9557,53.0252],[15.9579,53.0229],[15.9558,53.0223],[15.9564,53.02],[15.9546,53.0199],[15.9558,53.0186],[15.9546,53.0173],[15.9587,53.0143],[15.954,53.013],[15.9567,53.0116],[15.9558,53.0081],[15.9534,53.0069],[15.9537,53.0016],[15.9494,52.9985],[15.95,52.9952],[15.9537,52.9936],[15.951,52.9912],[15.9554,52.9886],[15.9513,52.9856],[15.9547,52.9844],[15.9552,52.9823],[15.9515,52.9808],[15.9541,52.9803],[15.9536,52.9781],[15.9564,52.976],[15.946,52.9733],[15.9486,52.9726],[15.9462,52.9711],[15.9517,52.972],[15.9531,52.9698],[15.9541,52.9714],[15.9614,52.9708],[15.9616,52.9672],[15.9592,52.9671],[15.96,52.965],[15.9587,52.9643],[15.962,52.9632],[15.9596,52.9597],[15.9618,52.9584],[15.9605,52.9561],[15.9644,52.954],[15.9668,52.9498],[15.9696,52.9493],[15.9666,52.9475],[15.9693,52.9466],[15.9735,52.941],[15.9788,52.9372],[15.9778,52.9357],[15.9798,52.9337],[15.9722,52.9289],[15.9778,52.9221],[15.9768,52.9206],[15.9802,52.9136],[15.9795,52.909],[15.9763,52.91],[15.9721,52.9048],[15.9746,52.9019],[15.9673,52.9],[15.9739,52.8948],[15.9719,52.8926],[15.9749,52.8909],[15.9756,52.8868],[15.978,52.8861],[15.976,52.8838],[15.9766,52.882],[15.9798,52.8807],[15.9793,52.8776],[15.9773,52.8769],[15.9756,52.873],[15.9633,52.8741],[15.9614,52.8693],[15.9686,52.8683],[15.9697,52.8658],[15.9715,52.8669],[15.9741,52.859],[15.9711,52.8572],[15.9664,52.8582],[15.9631,52.8571],[15.9694,52.8537],[15.9548,52.8561],[15.9479,52.855],[15.9463,52.8542],[15.9518,52.8431],[15.9229,52.831],[15.9187,52.8411],[15.9146,52.84],[15.9121,52.8376],[15.908,52.8378],[15.9062,52.837],[15.9062,52.8353],[15.9029,52.8359],[15.9012,52.8346],[15.9003,52.8331],[15.9045,52.8266],[15.8945,52.8258],[15.8971,52.8207],[15.8952,52.819],[15.8965,52.8153],[15.8932,52.8126],[15.9023,52.8065],[15.9112,52.8067],[15.9118,52.8037],[15.9256,52.802],[15.9319,52.8039],[15.934,52.8041],[15.9353,52.8033],[15.9328,52.8021],[15.9346,52.8014],[15.9348,52.793],[15.9384,52.7862],[15.9261,52.784],[15.9257,52.7822],[15.9272,52.7784],[15.9334,52.7743],[15.9379,52.769],[15.9384,52.7675],[15.9365,52.7658],[15.9417,52.7592],[15.9489,52.7558],[15.9472,52.7556],[15.9455,52.7515],[15.9485,52.7445],[15.9473,52.7348],[15.9449,52.7292],[15.9202,52.7233],[15.9054,52.7142],[15.8858,52.715],[15.865,52.7103],[15.8458,52.7092],[15.8373,52.7063],[15.8123,52.7097],[15.7953,52.7085],[15.7913,52.705],[15.7808,52.7004],[15.7562,52.7064],[15.7377,52.7133],[15.7026,52.7091],[15.6719,52.703],[15.6512,52.7012],[15.63,52.7016],[15.6134,52.7059],[15.6045,52.7126],[15.6027,52.7159],[15.6062,52.7228],[15.6055,52.7254],[15.601,52.7267],[15.5931,52.7255],[15.5874,52.7263],[15.5878,52.7446],[15.5833,52.7485],[15.579,52.756],[15.58,52.7581],[15.578,52.7592],[15.5814,52.7593],[15.5852,52.7625],[15.5829,52.7665]]]]}},{"type":"Feature","properties":{"GID_2":"POL.5.8_1","GID_0":"POL","COUNTRY":"Poland","GID_1":"POL.5_1","NAME_1":"Lubuskie","NL_NAME_1":"NA","NAME_2":"Sulecin","VARNAME_2":"NA","NL_NAME_2":"NA","TYPE_2":"Powiat","ENGTYPE_2":"County","CC_2":"0807","HASC_2":"NA"},"geometry":{"type":"MultiPolygon","coordinates":[[[[15.0909,52.2267],[15.0861,52.2272],[15.0867,52.2318],[15.0897,52.2328],[15.087,52.2335],[15.0871,52.2347],[15.083,52.2324],[15.0803,52.2329],[15.0798,52.2305],[15.0772,52.229],[15.0759,52.2307],[15.0727,52.2317],[15.0714,52.2306],[15.072,52.2319],[15.0675,52.2328],[15.0599,52.2306],[15.061,52.2298],[15.0603,52.2274],[15.0566,52.2272],[15.056,52.2248],[15.0492,52.2247],[15.0462,52.2218],[15.0328,52.2203],[15.0322,52.2219],[15.026,52.2238],[15.0271,52.2189],[15.023,52.2163],[15.009,52.2152],[15.007,52.2178],[14.9823,52.2189],[14.9609,52.2086],[14.9469,52.209],[14.9377,52.2111],[14.9333,52.2081],[14.9314,52.2094],[14.9304,52.2083],[14.9319,52.2071],[14.9256,52.2064],[14.9233,52.2047],[14.921,52.2069],[14.924,52.2073],[14.9234,52.2085],[14.9187,52.2068],[14.9176,52.2083],[14.9199,52.2092],[14.9133,52.2099],[14.903,52.2292],[14.9042,52.2308],[14.9018,52.2316],[14.8972,52.2402],[14.902,52.2411],[14.8889,52.2472],[14.8843,52.253],[14.8869,52.2549],[14.8918,52.2529],[14.9015,52.2571],[14.9169,52.2529],[14.919,52.2605],[14.9171,52.2657],[14.9112,52.2646],[14.9095,52.2742],[14.9024,52.2743],[14.899,52.2812],[14.8905,52.2797],[14.889,52.2829],[14.8805,52.2798],[14.877,52.2813],[14.8734,52.2848],[14.8714,52.2896],[14.8686,52.2906],[14.8732,52.3011],[14.8802,52.3111],[14.886,52.3142],[14.9001,52.317],[14.906,52.3268],[14.8826,52.3332],[14.8834,52.337],[14.88,52.338],[14.8807,52.342],[14.8748,52.3418],[14.8773,52.3568],[14.8739,52.3582],[14.8779,52.3592],[14.8752,52.3623],[14.8891,52.3664],[14.892,52.3661],[14.8967,52.3616],[14.917,52.3602],[14.9195,52.3615],[14.9152,52.3643],[14.9183,52.3649],[14.9205,52.3674],[14.9193,52.3712],[14.921,52.3762],[14.9181,52.3828],[14.9188,52.3858],[14.9241,52.3916],[14.9261,52.3969],[14.9337,52.4032],[14.9465,52.4096],[14.9817,52.4032],[14.9794,52.4007],[14.9831,52.3906],[15.0092,52.3934],[15.0245,52.3911],[15.0273,52.3922],[15.0312,52.3993],[15.0354,52.413],[15.0298,52.4228],[15.0268,52.4239],[15.0274,52.4257],[15.0247,52.4293],[15.0245,52.4323],[15.0277,52.4324],[15.0287,52.4342],[15.0337,52.4339],[15.0299,52.4349],[15.031,52.4374],[15.034,52.4373],[15.0363,52.4401],[15.044,52.4412],[15.0407,52.4519],[15.0335,52.4544],[14.9975,52.4564],[14.9939,52.4589],[14.9941,52.4602],[14.9902,52.4618],[14.9878,52.4655],[14.9877,52.4726],[14.9855,52.4782],[14.9879,52.4802],[14.9906,52.4909],[14.9711,52.492],[14.9689,52.4977],[14.9722,52.5061],[14.9906,52.5138],[14.9941,52.5162],[14.9943,52.5198],[14.9819,52.5235],[14.9616,52.5266],[14.9424,52.5252],[14.929,52.5299],[14.901,52.5248],[14.8922,52.5186],[14.8821,52.5163],[14.8763,52.5118],[14.8456,52.5135],[14.8236,52.5072],[14.8166,52.5072],[14.8122,52.5112],[14.8093,52.5224],[14.8055,52.5253],[14.8101,52.531],[14.8131,52.5391],[14.7891,52.5438],[14.7805,52.5481],[14.7737,52.5439],[14.7609,52.543],[14.7148,52.5459],[14.6554,52.5676],[14.6473,52.5722],[14.6494,52.5739],[14.6492,52.5764],[14.6551,52.5783],[14.6563,52.5802],[14.6995,52.5895],[14.7052,52.5925],[14.7364,52.5975],[14.7586,52.6035],[14.7879,52.6022],[14.8123,52.6088],[14.8502,52.6221],[14.8531,52.6223],[14.8565,52.6182],[14.8587,52.6191],[14.8612,52.6175],[14.8622,52.6187],[14.8803,52.6154],[14.9025,52.6182],[14.9353,52.6197],[14.9992,52.6403],[14.9996,52.6393],[15.0077,52.6407],[15.0089,52.6385],[15.0244,52.6404],[15.032,52.6434],[15.0396,52.641],[15.0471,52.6372],[15.0512,52.6329],[15.0565,52.6313],[15.0596,52.6281],[15.0599,52.6242],[15.0642,52.6211],[15.0804,52.6172],[15.1045,52.6176],[15.1127,52.6208],[15.1356,52.6431],[15.1501,52.6458],[15.1541,52.6508],[15.1577,52.6521],[15.1643,52.6469],[15.1741,52.6455],[15.1954,52.6354],[15.2064,52.6337],[15.1967,52.6261],[15.1984,52.6154],[15.2016,52.6156],[15.2054,52.6128],[15.2056,52.6081],[15.211,52.6081],[15.2115,52.5944],[15.2141,52.5944],[15.2094,52.5893],[15.2096,52.5844],[15.2387,52.5877],[15.306,52.5901],[15.3102,52.5439],[15.3049,52.5443],[15.3078,52.542],[15.2763,52.541],[15.2771,52.5304],[15.2767,52.5282],[15.2749,52.5277],[15.2753,52.5083],[15.2902,52.5019],[15.2907,52.4981],[15.2848,52.4945],[15.2708,52.4927],[15.2675,52.4903],[15.2659,52.4916],[15.2658,52.4852],[15.2687,52.4845],[15.2694,52.4828],[15.2759,52.4829],[15.2782,52.4807],[15.2799,52.481],[15.2803,52.4785],[15.3042,52.4733],[15.2987,52.4618],[15.3221,52.455],[15.3174,52.4481],[15.3227,52.444],[15.3208,52.4442],[15.3219,52.4408],[15.337,52.4363],[15.3338,52.4263],[15.35,52.4231],[15.3511,52.4215],[15.3486,52.4177],[15.3613,52.416],[15.3658,52.4175],[15.3676,52.4174],[15.3657,52.416],[15.3694,52.4157],[15.3722,52.4182],[15.3717,52.4204],[15.3788,52.4188],[15.3921,52.4191],[15.4087,52.4218],[15.4191,52.4192],[15.416,52.4099],[15.4217,52.4079],[15.4217,52.4054],[15.4289,52.401],[15.4359,52.3993],[15.4419,52.3949],[15.4387,52.3898],[15.4468,52.3871],[15.446,52.3862],[15.4506,52.386],[15.4358,52.3756],[15.4277,52.3755],[15.4049,52.3705],[15.3913,52.3766],[15.3575,52.3797],[15.3497,52.3788],[15.3449,52.3659],[15.3295,52.3703],[15.3213,52.3705],[15.3206,52.372],[15.3167,52.3718],[15.3173,52.3728],[15.3124,52.3725],[15.3114,52.3709],[15.3059,52.371],[15.3047,52.3748],[15.3062,52.3777],[15.2998,52.3786],[15.2997,52.3758],[15.2883,52.3761],[15.2837,52.3721],[15.2672,52.3736],[15.2574,52.3716],[15.2574,52.3641],[15.2475,52.3478],[15.2458,52.3483],[15.2406,52.3416],[15.2279,52.3417],[15.2296,52.3328],[15.2324,52.3324],[15.2357,52.3282],[15.2353,52.3263],[15.2389,52.3238],[15.2427,52.3117],[15.2249,52.3102],[15.2088,52.3114],[15.2065,52.3097],[15.2022,52.3098],[15.1999,52.297],[15.2126,52.2933],[15.2276,52.2851],[15.2136,52.2805],[15.2075,52.2757],[15.2089,52.2753],[15.2055,52.2722],[15.1943,52.268],[15.1924,52.2643],[15.1898,52.2629],[15.1892,52.2598],[15.1796,52.2549],[15.1739,52.2561],[15.1724,52.2576],[15.1746,52.2602],[15.1741,52.2623],[15.1679,52.2661],[15.1633,52.2622],[15.1462,52.255],[15.1452,52.2539],[15.1485,52.2499],[15.1579,52.2449],[15.158,52.2435],[15.155,52.242],[15.1549,52.2377],[15.1519,52.237],[15.1493,52.2338],[15.1395,52.234],[15.1372,52.2325],[15.1376,52.2309],[15.136,52.2303],[15.1348,52.2318],[15.1317,52.2302],[15.1286,52.2304],[15.1212,52.235],[15.1099,52.2341],[15.1054,52.2319],[15.0963,52.2309],[15.0975,52.229],[15.0947,52.228],[15.0947,52.2264],[15.0909,52.2267]]]]}},{"type":"Feature","properties":{"GID_2":"POL.5.9_1","GID_0":"POL","COUNTRY":"Poland","GID_1":"POL.5_1","NAME_1":"Lubuskie","NL_NAME_1":"NA","NAME_2":"Swiebodzin","VARNAME_2":"NA","NL_NAME_2":"NA","TYPE_2":"Powiat","ENGTYPE_2":"County","CC_2":"0808","HASC_2":"NA"},"geometry":{"type":"MultiPolygon","coordinates":[[[[15.3062,52.1326],[15.2928,52.1432],[15.2917,52.1456],[15.2959,52.1546],[15.298,52.1637],[15.2968,52.1694],[15.3009,52.1757],[15.304,52.1903],[15.3061,52.1903],[15.3069,52.1939],[15.3125,52.1951],[15.3144,52.2026],[15.3048,52.2042],[15.2916,52.2131],[15.283,52.2136],[15.2534,52.2081],[15.2208,52.1946],[15.2146,52.2076],[15.2039,52.2058],[15.1978,52.2188],[15.1554,52.2113],[15.1538,52.2147],[15.1375,52.2124],[15.101,52.205],[15.0927,52.2228],[15.0903,52.2233],[15.089,52.226],[15.0947,52.2264],[15.0947,52.228],[15.0975,52.229],[15.0963,52.2309],[15.1054,52.2319],[15.1099,52.2341],[15.1212,52.235],[15.1286,52.2304],[15.1317,52.2302],[15.1348,52.2318],[15.136,52.2303],[15.1376,52.2309],[15.1372,52.2325],[15.1395,52.234],[15.1493,52.2338],[15.1519,52.237],[15.1549,52.2377],[15.155,52.242],[15.158,52.2435],[15.1579,52.2449],[15.1485,52.2499],[15.1452,52.2539],[15.1462,52.255],[15.1633,52.2622],[15.1679,52.2661],[15.1741,52.2623],[15.1746,52.2602],[15.1724,52.2576],[15.1739,52.2561],[15.1796,52.2549],[15.1892,52.2598],[15.1898,52.2629],[15.1924,52.2643],[15.1943,52.268],[15.2055,52.2722],[15.2089,52.2753],[15.2075,52.2757],[15.2136,52.2805],[15.2262,52.2839],[15.2278,52.2853],[15.2232,52.2881],[15.2046,52.2966],[15.1999,52.297],[15.2022,52.3098],[15.2065,52.3097],[15.2088,52.3114],[15.2249,52.3102],[15.2427,52.3117],[15.2389,52.3238],[15.2353,52.3263],[15.2357,52.3282],[15.2324,52.3324],[15.2296,52.3328],[15.2279,52.3417],[15.2406,52.3416],[15.2425,52.3428],[15.2559,52.3605],[15.2574,52.3641],[15.2574,52.3716],[15.2601,52.3724],[15.2672,52.3736],[15.2837,52.3721],[15.2883,52.3761],[15.2997,52.3758],[15.2998,52.3786],[15.3062,52.3777],[15.3047,52.3748],[15.3059,52.371],[15.3114,52.3709],[15.3124,52.3725],[15.3173,52.3728],[15.3167,52.3718],[15.3206,52.372],[15.3213,52.3705],[15.3295,52.3703],[15.3449,52.3659],[15.3495,52.3756],[15.3491,52.3787],[15.354,52.3795],[15.3913,52.3766],[15.4049,52.3705],[15.4353,52.3759],[15.4418,52.3681],[15.4513,52.3696],[15.455,52.3677],[15.455,52.3605],[15.4922,52.3661],[15.4937,52.3636],[15.4961,52.3632],[15.4978,52.3592],[15.5228,52.3559],[15.5421,52.3552],[15.5535,52.3529],[15.554,52.3542],[15.5644,52.3517],[15.5648,52.3502],[15.5674,52.3494],[15.5738,52.3513],[15.5749,52.3487],[15.5685,52.3493],[15.5675,52.3479],[15.569,52.3465],[15.5654,52.345],[15.5709,52.3421],[15.5848,52.3452],[15.5973,52.343],[15.6037,52.3442],[15.6224,52.3427],[15.6262,52.3208],[15.6325,52.3234],[15.6394,52.323],[15.6507,52.3165],[15.6483,52.313],[15.6509,52.3108],[15.6617,52.3065],[15.6963,52.2973],[15.7004,52.2902],[15.7038,52.2933],[15.7111,52.2897],[15.7196,52.2931],[15.725,52.2906],[15.7329,52.2928],[15.7662,52.3041],[15.7599,52.3064],[15.7971,52.3172],[15.7966,52.3184],[15.8302,52.3205],[15.8345,52.312],[15.8386,52.3137],[15.8474,52.3088],[15.8514,52.3098],[15.8501,52.3086],[15.8553,52.3071],[15.8501,52.3064],[15.851,52.3055],[15.8489,52.3043],[15.8521,52.3008],[15.8494,52.2977],[15.8504,52.2941],[15.8377,52.289],[15.8301,52.2879],[15.8266,52.2837],[15.8551,52.2848],[15.8808,52.2904],[15.881,52.2884],[15.8797,52.2881],[15.8814,52.2842],[15.8705,52.2808],[15.87,52.2779],[15.8712,52.2775],[15.866,52.2721],[15.8592,52.2673],[15.857,52.2679],[15.8524,52.2621],[15.8549,52.2611],[15.8513,52.2556],[15.8576,52.2481],[15.8588,52.2335],[15.8608,52.2276],[15.8495,52.2133],[15.8253,52.2072],[15.812,52.2098],[15.8078,52.2151],[15.8041,52.2149],[15.8005,52.2138],[15.8031,52.21],[15.7904,52.2048],[15.7879,52.2021],[15.7713,52.1935],[15.7367,52.1918],[15.7373,52.1845],[15.7316,52.174],[15.7252,52.1681],[15.7214,52.169],[15.7012,52.1665],[15.7009,52.1729],[15.6989,52.173],[15.699,52.1743],[15.6903,52.1738],[15.6899,52.1656],[15.6713,52.161],[15.6671,52.1646],[15.6631,52.1769],[15.6612,52.1765],[15.657,52.1827],[15.6404,52.1811],[15.6414,52.1787],[15.6314,52.1769],[15.6344,52.1717],[15.6069,52.1641],[15.614,52.1556],[15.6055,52.1539],[15.5929,52.1423],[15.5909,52.1375],[15.5584,52.1269],[15.5555,52.1249],[15.557,52.1234],[15.5511,52.1225],[15.5453,52.1246],[15.5457,52.1214],[15.5401,52.1209],[15.5402,52.1259],[15.5263,52.1246],[15.5095,52.1165],[15.5023,52.1105],[15.4893,52.1081],[15.4805,52.1009],[15.4571,52.1081],[15.4531,52.1087],[15.4526,52.1073],[15.4378,52.1105],[15.4264,52.1049],[15.4268,52.1031],[15.4197,52.1019],[15.4152,52.0975],[15.4059,52.095],[15.399,52.1026],[15.4029,52.106],[15.4038,52.11],[15.413,52.1163],[15.3651,52.1146],[15.3456,52.1201],[15.3274,52.1222],[15.325,52.1253],[15.326,52.1268],[15.314,52.1311],[15.306,52.1313],[15.3062,52.1326]]]]}},{"type":"Feature","properties":{"GID_2":"POL.5.10_1","GID_0":"POL","COUNTRY":"Poland","GID_1":"POL.5_1","NAME_1":"Lubuskie","NL_NAME_1":"NA","NAME_2":"Wschowa","VARNAME_2":"NA","NL_NAME_2":"NA","TYPE_2":"Powiat","ENGTYPE_2":"County","CC_2":"0812","HASC_2":"NA"},"geometry":{"type":"MultiPolygon","coordinates":[[[[16.2235,51.6959],[16.2278,51.6987],[16.219,51.71],[16.2175,51.7146],[16.2023,51.7145],[16.2016,51.7172],[16.1997,51.7181],[16.1949,51.7156],[16.1854,51.716],[16.1819,51.7129],[16.1831,51.7115],[16.1735,51.7122],[16.1723,51.7092],[16.16,51.7117],[16.1612,51.7155],[16.1582,51.716],[16.1586,51.718],[16.1617,51.7183],[16.1778,51.764],[16.1729,51.7638],[16.1605,51.7589],[16.1517,51.7601],[16.1335,51.7583],[16.134,51.7652],[16.1183,51.7657],[16.1164,51.7636],[16.1008,51.7674],[16.0996,51.7662],[16.0959,51.7671],[16.0913,51.7684],[16.0921,51.7702],[16.0786,51.7728],[16.0778,51.777],[16.0727,51.7777],[16.07,51.7826],[16.0538,51.7817],[16.0435,51.7838],[16.0399,51.7807],[16.0352,51.7817],[16.034,51.785],[16.0349,51.7954],[16.029,51.8024],[16.0092,51.8021],[16.0039,51.8005],[16.0014,51.8036],[15.9962,51.8012],[15.9948,51.8048],[15.9792,51.8023],[15.9826,51.7998],[15.9773,51.7959],[15.9685,51.7949],[15.966,51.7915],[15.9681,51.7879],[15.9626,51.7872],[15.9582,51.79],[15.9521,51.7897],[15.9543,51.7924],[15.9507,51.8007],[15.928,51.8011],[15.9213,51.7991],[15.9016,51.7976],[15.8926,51.7977],[15.8923,51.7999],[15.8912,51.798],[15.8839,51.7989],[15.8786,51.8119],[15.883,51.8177],[15.8805,51.8236],[15.852,51.8259],[15.841,51.8292],[15.8384,51.8352],[15.8251,51.8462],[15.8352,51.8519],[15.8358,51.8497],[15.84,51.8504],[15.8394,51.8519],[15.8501,51.8534],[15.8492,51.8556],[15.8544,51.855],[15.8611,51.8517],[15.8654,51.8599],[15.8671,51.8597],[15.8715,51.853],[15.8772,51.8514],[15.9034,51.8541],[15.912,51.857],[15.9054,51.8613],[15.9039,51.8669],[15.9256,51.8699],[15.9278,51.8706],[15.9259,51.8753],[15.9299,51.8744],[15.9365,51.8767],[15.9428,51.8757],[15.9457,51.88],[15.9509,51.8781],[15.9528,51.8794],[15.9551,51.8785],[15.9539,51.8748],[15.9512,51.8755],[15.9488,51.8732],[15.9496,51.871],[15.9588,51.8691],[15.9614,51.87],[15.9632,51.868],[15.9654,51.8687],[15.9644,51.8701],[15.9685,51.8693],[15.9665,51.8719],[15.975,51.8702],[15.9803,51.8748],[15.9736,51.8818],[15.9775,51.8902],[15.985,51.8933],[15.9927,51.8915],[15.9945,51.8954],[15.9926,51.8969],[15.9918,51.9036],[15.9872,51.9067],[15.9869,51.9084],[15.9815,51.9114],[15.9762,51.9119],[15.971,51.9165],[15.957,51.9192],[15.9556,51.9207],[15.9569,51.9219],[15.9713,51.9202],[15.9705,51.9227],[15.9678,51.9231],[15.9674,51.9245],[15.9715,51.9263],[15.9624,51.9284],[15.9592,51.9311],[15.9556,51.9313],[15.9547,51.9335],[15.948,51.9341],[15.9451,51.9374],[15.9586,51.9436],[15.9714,51.9417],[15.9968,51.9472],[16.0024,51.9589],[16.0112,51.9652],[16.0117,51.9685],[16.0083,51.971],[16.0079,51.9755],[16.0078,51.9793],[16.0102,51.9814],[16.0375,51.978],[16.0606,51.9772],[16.0775,51.9825],[16.106,51.9968],[16.1229,51.9931],[16.1212,51.9919],[16.1243,51.9847],[16.1278,51.9809],[16.1278,51.9773],[16.1303,51.979],[16.1334,51.9723],[16.131,51.9718],[16.1325,51.9666],[16.1346,51.967],[16.1373,51.9544],[16.1238,51.9514],[16.1306,51.9437],[16.1257,51.942],[16.131,51.9404],[16.1262,51.9339],[16.1269,51.9316],[16.1341,51.9319],[16.1382,51.9255],[16.1362,51.9251],[16.1355,51.9229],[16.1268,51.9217],[16.1253,51.9198],[16.1324,51.92],[16.1331,51.917],[16.1251,51.9162],[16.1183,51.9134],[16.1087,51.9036],[16.1035,51.9051],[16.0997,51.9031],[16.1017,51.8962],[16.0982,51.8959],[16.0989,51.8935],[16.1029,51.893],[16.1064,51.8959],[16.1231,51.8965],[16.1435,51.895],[16.1529,51.8923],[16.1616,51.8924],[16.1617,51.8901],[16.1723,51.8834],[16.1813,51.8832],[16.1879,51.8813],[16.1881,51.8829],[16.1857,51.8847],[16.1929,51.8851],[16.1936,51.8798],[16.2001,51.8719],[16.2147,51.8698],[16.2236,51.8749],[16.2293,51.876],[16.2354,51.8821],[16.2396,51.8838],[16.2458,51.8915],[16.2455,51.8965],[16.2486,51.8988],[16.2481,51.9007],[16.2537,51.8994],[16.2541,51.9017],[16.2558,51.9022],[16.2574,51.8975],[16.2588,51.8973],[16.2592,51.8989],[16.2691,51.898],[16.2699,51.8958],[16.2727,51.8951],[16.2791,51.8977],[16.2778,51.8995],[16.2789,51.9],[16.2869,51.9003],[16.2919,51.8952],[16.299,51.8936],[16.3128,51.8864],[16.3204,51.8869],[16.3515,51.8807],[16.3461,51.875],[16.3379,51.876],[16.3351,51.8711],[16.3417,51.8696],[16.3576,51.8575],[16.3726,51.8539],[16.3871,51.8464],[16.3795,51.8389],[16.4005,51.8378],[16.3987,51.8353],[16.4007,51.8306],[16.3952,51.8238],[16.394,51.8198],[16.4008,51.8142],[16.4022,51.8108],[16.4019,51.8048],[16.3883,51.7933],[16.3886,51.7912],[16.3937,51.7865],[16.4018,51.7899],[16.4048,51.7864],[16.4098,51.7843],[16.4162,51.7849],[16.4168,51.7827],[16.4086,51.78],[16.411,51.7788],[16.4082,51.7729],[16.3983,51.7706],[16.3952,51.7672],[16.3833,51.7704],[16.3771,51.7672],[16.3795,51.7658],[16.3759,51.7598],[16.378,51.753],[16.3754,51.7502],[16.3726,51.7497],[16.3707,51.745],[16.3656,51.7415],[16.3617,51.7415],[16.3616,51.7359],[16.367,51.7334],[16.3663,51.7322],[16.3693,51.7288],[16.3589,51.7207],[16.3599,51.7195],[16.3559,51.716],[16.3505,51.7158],[16.3508,51.7144],[16.3479,51.7125],[16.3501,51.7108],[16.3469,51.7089],[16.34,51.7088],[16.3382,51.7059],[16.3265,51.7021],[16.3173,51.7026],[16.3027,51.6985],[16.3022,51.6954],[16.2973,51.6946],[16.2996,51.69],[16.2764,51.6883],[16.2765,51.6872],[16.2691,51.6845],[16.2679,51.6774],[16.276,51.6724],[16.2713,51.6684],[16.2697,51.6634],[16.2654,51.6725],[16.2554,51.6793],[16.2521,51.6859],[16.2374,51.6885],[16.2235,51.6959]]]]}},{"type":"Feature","properties":{"GID_2":"POL.5.11_1","GID_0":"POL","COUNTRY":"Poland","GID_1":"POL.5_1","NAME_1":"Lubuskie","NL_NAME_1":"NA","NAME_2":"Zagan","VARNAME_2":"NA","NL_NAME_2":"NA","TYPE_2":"Powiat","ENGTYPE_2":"County","CC_2":"0810","HASC_2":"NA"},"geometry":{"type":"MultiPolygon","coordinates":[[[[15.121,51.434],[15.1186,51.4317],[15.1109,51.4298],[15.1118,51.4284],[15.1095,51.4278],[15.0954,51.4254],[15.0927,51.4295],[15.0862,51.4255],[15.0889,51.4294],[15.0658,51.435],[15.0473,51.4364],[15.0488,51.482],[14.9929,51.4827],[14.9884,51.4873],[14.9879,51.4961],[15.0002,51.4961],[15.0,51.4894],[15.0109,51.4893],[15.0117,51.5064],[15.0146,51.5089],[15.0176,51.5084],[15.0195,51.512],[15.0174,51.5128],[15.0184,51.5157],[15.0252,51.5138],[15.0265,51.516],[15.0166,51.5234],[15.0138,51.5206],[15.0118,51.5211],[15.026,51.5319],[15.0245,51.534],[15.0202,51.5368],[15.0155,51.5376],[15.0138,51.5364],[15.0024,51.537],[15.0032,51.5396],[15.0173,51.5412],[15.0193,51.5443],[15.0179,51.5474],[15.0255,51.5481],[15.0295,51.5502],[15.0513,51.5468],[15.0525,51.5489],[15.0581,51.5497],[15.0584,51.5559],[15.0609,51.556],[15.0622,51.5617],[15.1112,51.5455],[15.1201,51.5463],[15.1232,51.5484],[15.146,51.5493],[15.1568,51.5529],[15.1701,51.5499],[15.1805,51.5607],[15.1797,51.5647],[15.1747,51.5662],[15.1731,51.5709],[15.168,51.5713],[15.1679,51.5729],[15.1721,51.573],[15.1678,51.5737],[15.169,51.5773],[15.1668,51.5766],[15.1657,51.5778],[15.1676,51.5787],[15.1675,51.58],[15.165,51.5803],[15.1671,51.5818],[15.1657,51.5827],[15.168,51.5834],[15.1673,51.5852],[15.172,51.5857],[15.1715,51.5869],[15.1936,51.5814],[15.1999,51.5848],[15.2169,51.5842],[15.2359,51.5906],[15.2392,51.5978],[15.255,51.6047],[15.2603,51.6107],[15.2603,51.6154],[15.2636,51.6191],[15.2605,51.6255],[15.2621,51.6257],[15.2621,51.6455],[15.2666,51.645],[15.2674,51.6569],[15.272,51.6576],[15.2735,51.66],[15.2702,51.6688],[15.2612,51.6692],[15.2521,51.6748],[15.2526,51.6782],[15.251,51.6811],[15.2547,51.6853],[15.2489,51.6861],[15.2409,51.6961],[15.2336,51.6984],[15.2397,51.6993],[15.2409,51.7012],[15.2521,51.7057],[15.2439,51.7135],[15.2411,51.7235],[15.2378,51.7269],[15.233,51.7406],[15.2465,51.7415],[15.2481,51.7431],[15.245,51.7474],[15.2501,51.7525],[15.2559,51.7489],[15.2669,51.7479],[15.2713,51.7532],[15.2696,51.7609],[15.2871,51.7596],[15.2854,51.7572],[15.2981,51.7544],[15.2963,51.7523],[15.2982,51.7521],[15.3038,51.7585],[15.3081,51.7583],[15.3104,51.7573],[15.3098,51.7528],[15.3127,51.7501],[15.3102,51.7455],[15.3106,51.742],[15.3268,51.7439],[15.3357,51.7416],[15.3363,51.745],[15.3457,51.7365],[15.3523,51.7376],[15.3556,51.7366],[15.3559,51.7403],[15.3631,51.7392],[15.3811,51.7456],[15.3838,51.7518],[15.3977,51.7545],[15.4057,51.7502],[15.413,51.7532],[15.4143,51.7541],[15.4042,51.7593],[15.3998,51.7633],[15.3963,51.7673],[15.3966,51.7694],[15.4113,51.7727],[15.4225,51.7767],[15.4186,51.7772],[15.4252,51.7794],[15.4422,51.7817],[15.4432,51.7776],[15.4469,51.7728],[15.4635,51.7746],[15.4726,51.7683],[15.4765,51.7616],[15.4803,51.7607],[15.4817,51.7568],[15.4847,51.7565],[15.4944,51.7503],[15.4889,51.7508],[15.4913,51.748],[15.485,51.7482],[15.4845,51.7444],[15.492,51.7431],[15.4962,51.7395],[15.5027,51.7382],[15.5021,51.7319],[15.5042,51.7236],[15.5123,51.7236],[15.5194,51.7213],[15.5204,51.716],[15.5191,51.7058],[15.5131,51.6977],[15.5181,51.6917],[15.5194,51.6834],[15.526,51.6833],[15.5427,51.6882],[15.5441,51.6865],[15.5494,51.6868],[15.5637,51.6919],[15.579,51.6943],[15.5946,51.6807],[15.5989,51.6792],[15.5983,51.6727],[15.6004,51.67],[15.6105,51.6688],[15.6148,51.6716],[15.6204,51.6724],[15.6224,51.67],[15.6269,51.6689],[15.6472,51.6699],[15.6474,51.6721],[15.6601,51.67],[15.6696,51.6644],[15.6747,51.6666],[15.6785,51.6657],[15.6818,51.6633],[15.6782,51.6596],[15.6844,51.6562],[15.6922,51.6584],[15.694,51.6603],[15.701,51.659],[15.7049,51.656],[15.7015,51.6528],[15.7064,51.6516],[15.7065,51.6502],[15.7141,51.6515],[15.729,51.645],[15.7315,51.6486],[15.738,51.6524],[15.7429,51.6516],[15.7435,51.6533],[15.7532,51.6533],[15.7562,51.6558],[15.7542,51.6585],[15.7563,51.6597],[15.7752,51.6607],[15.7862,51.6591],[15.7943,51.6608],[15.7951,51.6634],[15.8017,51.6635],[15.8031,51.6685],[15.8052,51.6698],[15.8167,51.6674],[15.8343,51.6722],[15.8413,51.6675],[15.8497,51.6652],[15.8451,51.6642],[15.8428,51.6613],[15.8515,51.6602],[15.8561,51.6574],[15.8556,51.6516],[15.8572,51.6504],[15.8376,51.645],[15.83,51.637],[15.834,51.6222],[15.8228,51.6131],[15.8216,51.6072],[15.8182,51.6029],[15.8158,51.6029],[15.8236,51.5727],[15.8077,51.5734],[15.7698,51.5697],[15.7425,51.5557],[15.7236,51.5521],[15.7038,51.5571],[15.7064,51.5545],[15.706,51.5529],[15.7028,51.5519],[15.7032,51.5464],[15.7123,51.5466],[15.7126,51.5347],[15.7114,51.533],[15.7125,51.532],[15.7108,51.5296],[15.712,51.5259],[15.7107,51.5235],[15.7141,51.5216],[15.714,51.5174],[15.7006,51.5174],[15.6993,51.5158],[15.701,51.5125],[15.6789,51.5124],[15.6788,51.5056],[15.6733,51.5057],[15.6731,51.4989],[15.6676,51.499],[15.6673,51.4888],[15.6592,51.4881],[15.6637,51.4849],[15.6642,51.4827],[15.656,51.4724],[15.6523,51.473],[15.6488,51.4767],[15.647,51.476],[15.6459,51.4791],[15.6347,51.4789],[15.6345,51.4721],[15.629,51.4722],[15.6289,51.4706],[15.6241,51.472],[15.6234,51.4635],[15.6168,51.4602],[15.5998,51.4457],[15.5971,51.4515],[15.5928,51.452],[15.5916,51.451],[15.5924,51.4494],[15.5909,51.4489],[15.588,51.4506],[15.586,51.4498],[15.5861,51.4518],[15.5809,51.4531],[15.583,51.4558],[15.5878,51.4568],[15.5873,51.4602],[15.5928,51.4624],[15.5903,51.4645],[15.5935,51.466],[15.5959,51.4696],[15.4877,51.5276],[15.4883,51.5224],[15.4856,51.5215],[15.4854,51.5222],[15.4841,51.5235],[15.4858,51.5136],[15.4823,51.513],[15.4692,51.5146],[15.4706,51.5182],[15.4625,51.5223],[15.4576,51.5211],[15.4501,51.526],[15.437,51.5273],[15.4349,51.525],[15.4176,51.5229],[15.4058,51.5196],[15.4011,51.5272],[15.3965,51.531],[15.3935,51.5302],[15.3943,51.5291],[15.3852,51.5279],[15.3847,51.5184],[15.3818,51.5161],[15.3825,51.5149],[15.3799,51.5141],[15.3824,51.5124],[15.3778,51.5107],[15.3773,51.5088],[15.3742,51.5097],[15.3712,51.5079],[15.3691,51.4964],[15.367,51.494],[15.3715,51.4884],[15.3693,51.4858],[15.3706,51.4801],[15.3756,51.4791],[15.3782,51.4818],[15.3801,51.4811],[15.3802,51.4739],[15.3821,51.4721],[15.3788,51.47],[15.3725,51.4697],[15.3469,51.4716],[15.3394,51.4741],[15.3337,51.4516],[15.3433,51.4469],[15.3284,51.4296],[15.3284,51.422],[15.3245,51.4184],[15.3337,51.4099],[15.3274,51.4077],[15.3217,51.4083],[15.3152,51.4177],[15.2983,51.4201],[15.2928,51.4231],[15.2892,51.4293],[15.2897,51.4314],[15.2755,51.4298],[15.2726,51.4328],[15.272,51.4384],[15.262,51.444],[15.2549,51.4454],[15.252,51.449],[15.2435,51.4463],[15.2182,51.4444],[15.21,51.4441],[15.2009,51.446],[15.2001,51.448],[15.2014,51.4488],[15.1999,51.4493],[15.2027,51.4535],[15.2014,51.4558],[15.2037,51.4585],[15.2019,51.4633],[15.1974,51.4623],[15.187,51.464],[15.1648,51.4508],[15.1531,51.446],[15.1506,51.4424],[15.1297,51.4379],[15.1276,51.4357],[15.121,51.434]]]]}},{"type":"Feature","properties":{"GID_2":"POL.5.12_1","GID_0":"POL","COUNTRY":"Poland","GID_1":"POL.5_1","NAME_1":"Lubuskie","NL_NAME_1":"NA","NAME_2":"Zary","VARNAME_2":"NA","NL_NAME_2":"NA","TYPE_2":"Powiat","ENGTYPE_2":"County","CC_2":"0811","HASC_2":"NA"},"geometry":{"type":"MultiPolygon","coordinates":[[[[14.9641,51.4342],[14.9708,51.4327],[14.9736,51.4365],[14.9742,51.4419],[14.966,51.4468],[14.9627,51.4532],[14.9559,51.4585],[14.9564,51.4634],[14.9483,51.4718],[14.9261,51.4735],[14.9247,51.4804],[14.9158,51.4838],[14.907,51.484],[14.8978,51.4821],[14.8915,51.4844],[14.8875,51.4879],[14.8716,51.4847],[14.8655,51.4904],[14.8516,51.4896],[14.8444,51.4948],[14.8396,51.4962],[14.8378,51.499],[14.8351,51.4994],[14.8324,51.5038],[14.8194,51.5076],[14.8118,51.5061],[14.8054,51.5142],[14.7987,51.5154],[14.796,51.5179],[14.7877,51.5171],[14.7837,51.5185],[14.7653,51.519],[14.761,51.5232],[14.7518,51.5218],[14.7431,51.5253],[14.7367,51.5256],[14.7291,51.5314],[14.7291,51.5357],[14.7263,51.539],[14.7314,51.5444],[14.7293,51.5497],[14.7236,51.5539],[14.7164,51.5552],[14.7112,51.5627],[14.7269,51.575],[14.7304,51.5841],[14.7325,51.586],[14.7421,51.593],[14.7514,51.5953],[14.7533,51.5992],[14.761,51.6025],[14.7649,51.607],[14.7656,51.6117],[14.7632,51.6191],[14.7533,51.628],[14.7561,51.6331],[14.7541,51.6408],[14.7559,51.6457],[14.751,51.6523],[14.755,51.6559],[14.7578,51.661],[14.7533,51.6641],[14.7527,51.6685],[14.7491,51.6708],[14.7474,51.6757],[14.7398,51.6773],[14.737,51.6794],[14.7395,51.6834],[14.7368,51.6882],[14.7287,51.6886],[14.7014,51.7048],[14.6909,51.7083],[14.6802,51.7175],[14.6777,51.7227],[14.6681,51.7258],[14.6617,51.737],[14.6562,51.7413],[14.66,51.7488],[14.6572,51.7519],[14.6576,51.7535],[14.6641,51.7567],[14.6616,51.7588],[14.6525,51.7603],[14.6505,51.7621],[14.6509,51.7644],[14.6546,51.7674],[14.6551,51.7736],[14.6527,51.7796],[14.6536,51.7843],[14.6499,51.7866],[14.663,51.7884],[14.6687,51.785],[14.6752,51.7865],[14.6831,51.7928],[14.6864,51.8027],[14.693,51.8105],[14.7135,51.815],[14.7202,51.8109],[14.7366,51.81],[14.7354,51.813],[14.7309,51.8155],[14.7322,51.8175],[14.7306,51.82],[14.7324,51.8225],[14.732,51.8257],[14.7234,51.8355],[14.7236,51.8382],[14.7515,51.8359],[14.7752,51.8371],[14.7766,51.839],[14.7729,51.8417],[14.7585,51.8437],[14.7544,51.846],[14.7541,51.8471],[14.7565,51.8468],[14.756,51.8486],[14.7513,51.8505],[14.753,51.8525],[14.7639,51.8536],[14.7623,51.8597],[14.7693,51.857],[14.7817,51.8563],[14.7858,51.8499],[14.7984,51.8478],[14.8179,51.8484],[14.8176,51.8495],[14.8192,51.8489],[14.828,51.854],[14.8292,51.8521],[14.8401,51.8493],[14.8425,51.8509],[14.8457,51.8492],[14.8482,51.8505],[14.8557,51.8489],[14.8584,51.8497],[14.8513,51.8671],[14.8514,51.8717],[14.854,51.8727],[14.851,51.8726],[14.8488,51.8756],[14.8572,51.8812],[14.8596,51.8817],[14.8821,51.8716],[14.8897,51.8709],[14.9066,51.8729],[14.9272,51.8789],[14.9187,51.8873],[14.9389,51.8937],[14.9508,51.8888],[14.9725,51.8857],[14.9716,51.8844],[14.9747,51.8824],[14.9994,51.8838],[15.015,51.888],[15.0314,51.8805],[15.0513,51.8777],[15.0693,51.8728],[15.0696,51.8658],[15.0771,51.8618],[15.0841,51.8609],[15.1064,51.8629],[15.0948,51.8523],[15.0865,51.8481],[15.0774,51.839],[15.1532,51.8465],[15.1703,51.8071],[15.1432,51.8044],[15.1521,51.7841],[15.1413,51.7852],[15.1432,51.7838],[15.1415,51.7804],[15.1433,51.7802],[15.1435,51.7775],[15.1421,51.7767],[15.1297,51.7806],[15.1278,51.7786],[15.1197,51.7776],[15.1186,51.775],[15.107,51.7764],[15.1187,51.7709],[15.126,51.7704],[15.1354,51.7669],[15.1359,51.7581],[15.1486,51.7547],[15.1513,51.7526],[15.1738,51.755],[15.1735,51.7572],[15.1789,51.7572],[15.188,51.7671],[15.1974,51.7842],[15.2069,51.7815],[15.2123,51.7818],[15.2145,51.7837],[15.2194,51.7798],[15.2241,51.7791],[15.2177,51.7756],[15.218,51.774],[15.2233,51.7666],[15.227,51.7571],[15.2279,51.749],[15.2326,51.7427],[15.2364,51.73],[15.2411,51.7235],[15.2439,51.7135],[15.2521,51.7057],[15.2409,51.7012],[15.2397,51.6993],[15.2336,51.6984],[15.2409,51.6961],[15.2489,51.6861],[15.2547,51.6853],[15.251,51.6811],[15.2526,51.6782],[15.2521,51.6748],[15.2612,51.6692],[15.2702,51.6688],[15.2735,51.66],[15.272,51.6576],[15.2674,51.6569],[15.2666,51.645],[15.2621,51.6455],[15.2621,51.6257],[15.2605,51.6255],[15.2636,51.6192],[15.2603,51.6154],[15.2599,51.6102],[15.2521,51.6027],[15.2392,51.5978],[15.2359,51.5906],[15.2169,51.5842],[15.1999,51.5848],[15.1936,51.5814],[15.1715,51.5869],[15.172,51.5857],[15.1673,51.5852],[15.168,51.5834],[15.1657,51.5827],[15.1671,51.5818],[15.165,51.5803],[15.1675,51.58],[15.1676,51.5787],[15.1657,51.5778],[15.1668,51.5766],[15.169,51.5773],[15.1678,51.5737],[15.1721,51.573],[15.1679,51.5729],[15.168,51.5713],[15.1731,51.5709],[15.1747,51.5662],[15.1797,51.5647],[15.1805,51.5607],[15.1701,51.5499],[15.1568,51.5529],[15.146,51.5493],[15.1232,51.5484],[15.1201,51.5463],[15.1112,51.5455],[15.0622,51.5617],[15.0609,51.556],[15.0584,51.5559],[15.0581,51.5497],[15.0525,51.5489],[15.0513,51.5468],[15.0295,51.5502],[15.0255,51.5481],[15.0179,51.5474],[15.0193,51.5443],[15.0173,51.5412],[15.0032,51.5396],[15.0024,51.537],[15.0138,51.5364],[15.0155,51.5376],[15.0202,51.5368],[15.0245,51.534],[15.026,51.5319],[15.0118,51.5211],[15.0138,51.5206],[15.0166,51.5234],[15.0265,51.516],[15.0252,51.5138],[15.0184,51.5157],[15.0174,51.5128],[15.0195,51.512],[15.0176,51.5084],[15.0146,51.5089],[15.0117,51.5064],[15.0109,51.4893],[15.0,51.4894],[15.0002,51.4961],[14.9879,51.4961],[14.9884,51.4873],[14.9929,51.4827],[15.0488,51.482],[15.0473,51.4364],[15.0658,51.435],[15.0889,51.4294],[15.0851,51.4252],[15.0851,51.4205],[15.0828,51.4187],[15.083,51.4079],[15.078,51.4018],[15.0712,51.397],[15.0179,51.3935],[15.0182,51.3866],[15.0134,51.3843],[15.009,51.3742],[15.0128,51.3679],[15.0124,51.3634],[14.9742,51.364],[14.978,51.3664],[14.9778,51.3696],[14.9812,51.3709],[14.9836,51.3741],[14.9745,51.3784],[14.9693,51.3791],[14.9692,51.382],[14.9647,51.3868],[14.9659,51.3914],[14.9635,51.3941],[14.9582,51.3957],[14.9627,51.3977],[14.9692,51.3981],[14.9678,51.4027],[14.9586,51.4103],[14.9645,51.4122],[14.967,51.4162],[14.9642,51.4234],[14.9661,51.4268],[14.9601,51.4291],[14.9586,51.4312],[14.9641,51.4342]]]]}},{"type":"Feature","properties":{"GID_2":"POL.5.14_1","GID_0":"POL","COUNTRY":"Poland","GID_1":"POL.5_1","NAME_1":"Lubuskie","NL_NAME_1":"NA","NAME_2":"ZielonaGora","VARNAME_2":"NA","NL_NAME_2":"NA","TYPE_2":"Powiat","ENGTYPE_2":"County","CC_2":"0809","HASC_2":"NA"},"geometry":{"type":"MultiPolygon","coordinates":[[[[15.630094904458598,51.914120382165606],[15.630121455938704,51.91410102171137],[15.6301,51.9141],[15.630094904458598,51.914120382165606]]],[[[15.630094904458598,51.914120382165606],[15.6293,51.9147],[15.6293,51.9173],[15.630094904458598,51.914120382165606]]],[[[15.1086,51.8634],[15.1531,51.8781],[15.1556,51.8799],[15.1563,51.8827],[15.1647,51.882],[15.1771,51.8915],[15.1978,51.8965],[15.2039,51.9],[15.2322,51.8991],[15.2393,51.9061],[15.2357,51.9132],[15.2468,51.9308],[15.2502,51.9334],[15.2694,51.9316],[15.2758,51.9354],[15.2832,51.9488],[15.2933,51.9621],[15.2883,51.9686],[15.2786,51.972],[15.2765,51.9742],[15.2817,51.9832],[15.2732,51.9976],[15.2714,51.9996],[15.2619,52.0013],[15.2581,52.0037],[15.2603,52.0052],[15.2608,52.0108],[15.2648,52.016],[15.2781,52.0216],[15.2761,52.0284],[15.267,52.0352],[15.2708,52.0394],[15.2758,52.0394],[15.2759,52.041],[15.2737,52.0445],[15.2707,52.0585],[15.2661,52.0625],[15.2666,52.0658],[15.2619,52.0668],[15.2614,52.0687],[15.263,52.0682],[15.262,52.0688],[15.263,52.0697],[15.2566,52.0848],[15.268,52.0867],[15.2733,52.0861],[15.2788,52.0756],[15.2804,52.0755],[15.2835,52.0781],[15.2825,52.0791],[15.2848,52.0821],[15.2842,52.084],[15.2898,52.0813],[15.296,52.0833],[15.289,52.089],[15.2874,52.0926],[15.2893,52.0972],[15.2859,52.1061],[15.2925,52.1092],[15.2904,52.1122],[15.2911,52.114],[15.2945,52.1159],[15.2963,52.1218],[15.3033,52.1272],[15.3059,52.1313],[15.3185,52.13],[15.3179,52.1291],[15.326,52.1268],[15.325,52.1253],[15.3287,52.1219],[15.3456,52.1201],[15.3651,52.1146],[15.413,52.1163],[15.4038,52.11],[15.4029,52.106],[15.399,52.1026],[15.4059,52.095],[15.4152,52.0975],[15.4197,52.1019],[15.4268,52.1031],[15.4264,52.1049],[15.4378,52.1105],[15.4526,52.1073],[15.4531,52.1087],[15.4571,52.1081],[15.4805,52.1009],[15.4893,52.1081],[15.5023,52.1105],[15.5095,52.1165],[15.5263,52.1246],[15.5402,52.1259],[15.5401,52.1209],[15.5457,52.1214],[15.5453,52.1246],[15.5511,52.1225],[15.557,52.1234],[15.5555,52.1249],[15.5584,52.1269],[15.5909,52.1375],[15.5929,52.1423],[15.6055,52.1539],[15.614,52.1556],[15.6069,52.1641],[15.6344,52.1717],[15.6314,52.1769],[15.6414,52.1787],[15.6404,52.1811],[15.657,52.1827],[15.6612,52.1765],[15.6631,52.1769],[15.6671,52.1646],[15.6713,52.161],[15.6899,52.1656],[15.6903,52.1738],[15.699,52.1743],[15.6989,52.173],[15.7009,52.1729],[15.7012,52.1665],[15.7214,52.169],[15.7252,52.1681],[15.7316,52.174],[15.7373,52.1845],[15.7367,52.1918],[15.7713,52.1935],[15.7879,52.2021],[15.7904,52.2048],[15.8031,52.21],[15.8005,52.2138],[15.8041,52.2149],[15.8078,52.2151],[15.812,52.2098],[15.8253,52.2072],[15.851,52.2137],[15.855,52.2049],[15.8613,52.1978],[15.8581,52.1877],[15.8621,52.1774],[15.8581,52.1741],[15.8584,52.169],[15.8666,52.168],[15.8687,52.1658],[15.8729,52.1668],[15.8766,52.1659],[15.8759,52.1644],[15.8831,52.1628],[15.8816,52.1619],[15.881,52.1562],[15.8836,52.1549],[15.875,52.1305],[15.8672,52.1292],[15.8617,52.1244],[15.8568,52.124],[15.8541,52.1202],[15.8551,52.1188],[15.8537,52.1176],[15.8554,52.1169],[15.8495,52.1135],[15.8333,52.1111],[15.8341,52.1085],[15.8366,52.1083],[15.8452,52.0984],[15.848,52.099],[15.8528,52.0951],[15.8603,52.0865],[15.867,52.0857],[15.8778,52.088],[15.8913,52.0835],[15.898,52.0784],[15.8979,52.0768],[15.9244,52.0675],[15.9266,52.0766],[15.9324,52.0836],[15.9324,52.0876],[15.9461,52.0877],[15.9675,52.0819],[15.9722,52.0775],[15.9698,52.0754],[15.9756,52.0742],[15.9828,52.0699],[15.986,52.07],[15.9887,52.0669],[15.9872,52.0647],[15.9894,52.0639],[15.9877,52.0621],[15.995,52.0587],[15.9998,52.06],[16.0055,52.0543],[15.9917,52.0503],[15.9891,52.0434],[15.9944,52.0352],[15.9643,52.0339],[15.9667,52.0296],[15.966,52.0267],[15.963,52.0261],[15.9537,52.0264],[15.954,52.0283],[15.9512,52.028],[15.9536,52.0304],[15.9465,52.0336],[15.9424,52.0325],[15.9426,52.0299],[15.9381,52.0292],[15.9369,52.031],[15.9323,52.0314],[15.9304,52.0355],[15.9283,52.0362],[15.9127,52.036],[15.9081,52.0394],[15.901,52.037],[15.9033,52.0329],[15.9098,52.0317],[15.9119,52.0298],[15.9131,52.0272],[15.9104,52.0274],[15.9097,52.0249],[15.9125,52.0234],[15.9125,52.0218],[15.9148,52.0217],[15.9138,52.0198],[15.9209,52.02],[15.9234,52.0216],[15.9253,52.0199],[15.9192,52.016],[15.9176,52.01],[15.9197,52.0075],[15.9211,51.9982],[15.9235,51.9967],[15.9247,51.9908],[15.9324,51.9854],[15.9336,51.9799],[15.9135,51.9747],[15.9119,51.9728],[15.9061,51.9728],[15.905,51.9758],[15.9017,51.976],[15.9035,51.9668],[15.908,51.9633],[15.904,51.9596],[15.8996,51.9591],[15.8922,51.9549],[15.8714,51.9601],[15.8733,51.9537],[15.8764,51.9508],[15.8751,51.949],[15.8674,51.9446],[15.8618,51.9439],[15.862,51.94],[15.8523,51.9416],[15.8498,51.9386],[15.846,51.9391],[15.8434,51.9355],[15.8485,51.9317],[15.8583,51.9319],[15.8635,51.9296],[15.8659,51.928],[15.8679,51.9217],[15.8532,51.9187],[15.8503,51.9168],[15.8495,51.9136],[15.839,51.9123],[15.83,51.9069],[15.8173,51.9061],[15.8118,51.9019],[15.8155,51.9],[15.8128,51.8951],[15.8091,51.896],[15.8053,51.8939],[15.8002,51.8898],[15.8015,51.8881],[15.7877,51.8858],[15.7846,51.8875],[15.7593,51.8915],[15.7592,51.8954],[15.7662,51.901],[15.7616,51.9044],[15.7546,51.9027],[15.7559,51.9015],[15.7401,51.9038],[15.734,51.9021],[15.7329,51.8999],[15.7214,51.9005],[15.7072,51.892],[15.6911,51.8976],[15.6843,51.897],[15.6651,51.9032],[15.638,51.9051],[15.6341,51.9112],[15.630121455938704,51.91410102171137],[15.6322,51.9142],[15.6312,51.9166],[15.6329,51.9161],[15.6328,51.9173],[15.6394,51.9193],[15.6328,51.9252],[15.6414,51.9279],[15.6341,51.9332],[15.6337,51.9377],[15.6369,51.9378],[15.6377,51.9336],[15.6403,51.9312],[15.6423,51.9315],[15.6434,51.9294],[15.6478,51.9303],[15.649,51.9323],[15.6521,51.9329],[15.6489,51.9331],[15.6489,51.9354],[15.6461,51.9361],[15.6456,51.9386],[15.6455,51.9397],[15.652,51.9408],[15.6511,51.9429],[15.6467,51.9444],[15.6504,51.9465],[15.6412,51.9478],[15.642,51.9467],[15.6386,51.9464],[15.6357,51.9489],[15.6308,51.9476],[15.6327,51.9495],[15.6287,51.952],[15.6259,51.9504],[15.6221,51.9517],[15.6186,51.9482],[15.6066,51.9478],[15.6035,51.955],[15.6055,51.9644],[15.6086,51.9692],[15.6133,51.9715],[15.6217,51.9717],[15.6227,51.9706],[15.6276,51.974],[15.6226,51.9767],[15.6239,51.9793],[15.6192,51.9801],[15.6215,51.9827],[15.6283,51.982],[15.6349,51.984],[15.6329,51.9849],[15.6352,51.9903],[15.6322,51.9924],[15.6324,51.9955],[15.63,51.9958],[15.6302,51.9982],[15.6354,52.0028],[15.6365,52.006],[15.6102,52.0064],[15.6046,52.0102],[15.6028,52.0155],[15.604,52.0171],[15.5922,52.0242],[15.5864,52.0236],[15.5841,52.0249],[15.5846,52.0301],[15.5878,52.0303],[15.5854,52.0328],[15.5667,52.0351],[15.5347,52.0348],[15.5337,52.0339],[15.5361,52.0322],[15.5359,52.0271],[15.5373,52.0253],[15.5265,52.0272],[15.5216,52.0248],[15.5238,52.0231],[15.519,52.0192],[15.5208,52.0189],[15.5201,52.0168],[15.5163,52.0176],[15.5128,52.0154],[15.5124,52.0118],[15.5155,52.0099],[15.4898,52.0126],[15.4754,52.0169],[15.4607,52.0154],[15.4604,52.017],[15.4524,52.0185],[15.4389,52.0152],[15.4341,52.0113],[15.4349,52.0091],[15.4414,52.009],[15.4436,52.0034],[15.4464,52.0009],[15.4453,51.9984],[15.4492,51.9952],[15.444,51.9942],[15.4462,51.9918],[15.4448,51.9888],[15.4372,51.9869],[15.4377,51.9848],[15.4288,51.9858],[15.4264,51.9841],[15.425,51.9821],[15.4307,51.9818],[15.433,51.9793],[15.4328,51.9769],[15.4252,51.9752],[15.4266,51.9728],[15.4237,51.9706],[15.4237,51.9682],[15.4143,51.962],[15.4119,51.9558],[15.4059,51.9496],[15.4113,51.9481],[15.4392,51.947],[15.4451,51.9419],[15.4494,51.941],[15.4498,51.9386],[15.4541,51.9359],[15.4588,51.9297],[15.4616,51.9225],[15.4667,51.9165],[15.4732,51.9128],[15.4766,51.9015],[15.4665,51.9051],[15.4581,51.9062],[15.4492,51.9046],[15.435,51.8983],[15.4282,51.8934],[15.4303,51.8929],[15.4214,51.884],[15.42,51.8801],[15.4215,51.8799],[15.4206,51.8731],[15.4256,51.8714],[15.4261,51.8696],[15.4228,51.8671],[15.4248,51.866],[15.4239,51.855],[15.3984,51.8512],[15.3907,51.8516],[15.3909,51.8487],[15.403,51.8488],[15.403,51.8469],[15.4083,51.8474],[15.4082,51.8488],[15.4294,51.8486],[15.4289,51.8462],[15.4228,51.8455],[15.4256,51.8456],[15.4273,51.8431],[15.4327,51.8436],[15.4384,51.8404],[15.4438,51.8406],[15.4428,51.8383],[15.4448,51.8359],[15.4426,51.8304],[15.4683,51.8276],[15.4675,51.8145],[15.4565,51.807],[15.4521,51.7983],[15.4502,51.7974],[15.4575,51.7908],[15.4681,51.7871],[15.4617,51.7861],[15.4593,51.7836],[15.426,51.7796],[15.4186,51.7772],[15.4225,51.7767],[15.4113,51.7727],[15.3966,51.7694],[15.3963,51.7673],[15.4042,51.7593],[15.4143,51.7541],[15.4057,51.7502],[15.3977,51.7545],[15.3838,51.7518],[15.3811,51.7456],[15.3631,51.7392],[15.3559,51.7403],[15.3556,51.7366],[15.3523,51.7376],[15.3457,51.7365],[15.3363,51.745],[15.3357,51.7416],[15.3268,51.7439],[15.3106,51.742],[15.3102,51.7455],[15.3127,51.7501],[15.3098,51.7528],[15.3101,51.7575],[15.3038,51.7585],[15.2982,51.7521],[15.2963,51.7523],[15.2981,51.7544],[15.2854,51.7572],[15.2871,51.7596],[15.275,51.7614],[15.2696,51.7609],[15.2713,51.7532],[15.2669,51.7479],[15.2559,51.7489],[15.2501,51.7525],[15.245,51.7474],[15.2481,51.7431],[15.2465,51.7415],[15.233,51.7406],[15.2279,51.749],[15.227,51.7571],[15.2233,51.7666],[15.218,51.774],[15.2177,51.7756],[15.2241,51.7791],[15.2194,51.7798],[15.2145,51.7837],[15.2123,51.7818],[15.2069,51.7815],[15.1974,51.7842],[15.188,51.7671],[15.1789,51.7572],[15.1735,51.7572],[15.1738,51.755],[15.1513,51.7526],[15.1486,51.7547],[15.1359,51.7581],[15.1354,51.7669],[15.126,51.7704],[15.1187,51.7709],[15.107,51.7764],[15.1186,51.775],[15.1197,51.7776],[15.1278,51.7786],[15.1297,51.7806],[15.1421,51.7767],[15.1435,51.7775],[15.1433,51.7802],[15.1415,51.7804],[15.1432,51.7838],[15.1413,51.7852],[15.1521,51.7841],[15.1432,51.8044],[15.1703,51.8071],[15.1532,51.8465],[15.0774,51.839],[15.0865,51.8481],[15.0948,51.8523],[15.1031,51.8611],[15.1086,51.8634]]]]}},{"type":"Feature","properties":{"GID_2":"POL.5.13_1","GID_0":"POL","COUNTRY":"Poland","GID_1":"POL.5_1","NAME_1":"Lubuskie","NL_NAME_1":"NA","NAME_2":"ZielonaGora","VARNAME_2":"NA","NL_NAME_2":"NA","TYPE_2":"Miastonaprawachpowiatu","ENGTYPE_2":"Citywithpowiatrights","CC_2":"0862","HASC_2":"NA"},"geometry":{"type":"MultiPolygon","coordinates":[[[[15.5686,51.8385],[15.5645,51.84],[15.5629,51.8382],[15.5569,51.8383],[15.5412,51.8406],[15.5306,51.8439],[15.5245,51.8439],[15.5253,51.845],[15.5208,51.8464],[15.5185,51.843],[15.5215,51.8402],[15.5207,51.8391],[15.525,51.8309],[15.5292,51.8293],[15.5307,51.8248],[15.5201,51.8215],[15.5084,51.8201],[15.4986,51.8225],[15.4853,51.8218],[15.4721,51.828],[15.461,51.8277],[15.4435,51.83],[15.4427,51.8325],[15.4448,51.8359],[15.4428,51.8383],[15.4438,51.8406],[15.4384,51.8404],[15.4327,51.8436],[15.4273,51.8431],[15.4256,51.8456],[15.4228,51.8455],[15.4289,51.8462],[15.4294,51.8486],[15.4082,51.8488],[15.4083,51.8474],[15.403,51.8469],[15.403,51.8488],[15.3909,51.8487],[15.3907,51.8516],[15.3984,51.8512],[15.4239,51.855],[15.4248,51.866],[15.4228,51.8671],[15.4261,51.8696],[15.4256,51.8714],[15.4206,51.8731],[15.4215,51.8799],[15.42,51.8801],[15.4214,51.884],[15.4303,51.8929],[15.4282,51.8934],[15.435,51.8983],[15.4492,51.9046],[15.4581,51.9062],[15.4665,51.9051],[15.4766,51.9015],[15.4732,51.9128],[15.4667,51.9165],[15.4616,51.9225],[15.4588,51.9297],[15.4541,51.9359],[15.4498,51.9386],[15.4494,51.941],[15.4451,51.9419],[15.4392,51.947],[15.4113,51.9481],[15.4059,51.9496],[15.4119,51.9558],[15.4143,51.962],[15.4237,51.9682],[15.4237,51.9706],[15.4266,51.9728],[15.4252,51.9752],[15.4328,51.9769],[15.433,51.9793],[15.4307,51.9818],[15.425,51.9821],[15.4264,51.9841],[15.4288,51.9858],[15.4377,51.9848],[15.4372,51.9869],[15.4448,51.9888],[15.4462,51.9918],[15.444,51.9942],[15.4492,51.9952],[15.4453,51.9984],[15.4464,52.0009],[15.4436,52.0034],[15.4414,52.009],[15.4349,52.0091],[15.4341,52.0113],[15.4389,52.0152],[15.4524,52.0185],[15.4604,52.017],[15.4607,52.0154],[15.4754,52.0169],[15.4898,52.0126],[15.5155,52.0099],[15.5124,52.0118],[15.5128,52.0154],[15.5163,52.0176],[15.5201,52.0168],[15.5208,52.0189],[15.519,52.0192],[15.5238,52.0231],[15.5216,52.0248],[15.5265,52.0272],[15.5373,52.0253],[15.5359,52.0271],[15.5361,52.0322],[15.5337,52.0339],[15.5347,52.0348],[15.5667,52.0351],[15.5814,52.0339],[15.5876,52.0319],[15.5876,52.0298],[15.5846,52.0301],[15.5841,52.0249],[15.5864,52.0236],[15.5922,52.0242],[15.604,52.0171],[15.6028,52.0155],[15.6046,52.0102],[15.6102,52.0064],[15.6365,52.006],[15.6354,52.0028],[15.6302,51.9982],[15.63,51.9958],[15.6324,51.9955],[15.6322,51.9924],[15.6352,51.9903],[15.6329,51.9849],[15.6349,51.984],[15.6283,51.982],[15.6215,51.9827],[15.6192,51.9801],[15.6239,51.9793],[15.6226,51.9767],[15.6276,51.974],[15.6227,51.9706],[15.6217,51.9717],[15.6133,51.9715],[15.6086,51.9692],[15.6055,51.9644],[15.6035,51.955],[15.6066,51.9478],[15.6186,51.9482],[15.6221,51.9517],[15.6259,51.9504],[15.6287,51.952],[15.6327,51.9495],[15.6308,51.9476],[15.6357,51.9489],[15.6386,51.9464],[15.642,51.9467],[15.6412,51.9478],[15.6504,51.9465],[15.6467,51.9444],[15.6511,51.9429],[15.652,51.9408],[15.6455,51.9397],[15.6456,51.9386],[15.6461,51.9361],[15.6489,51.9354],[15.6489,51.9331],[15.6521,51.9329],[15.6434,51.9294],[15.6423,51.9315],[15.6403,51.9312],[15.6377,51.9336],[15.6369,51.9378],[15.6337,51.9377],[15.6341,51.9332],[15.6414,51.9279],[15.6328,51.9252],[15.6394,51.9193],[15.6328,51.9173],[15.6329,51.9161],[15.6312,51.9166],[15.6322,51.9142],[15.630121455938704,51.91410102171137],[15.6341,51.9112],[15.639,51.9025],[15.636,51.8963],[15.6451,51.8934],[15.6481,51.889],[15.6399,51.8863],[15.6355,51.8824],[15.6362,51.8782],[15.6524,51.8754],[15.6488,51.8707],[15.6454,51.87],[15.644,51.8671],[15.6368,51.8688],[15.6368,51.865],[15.6402,51.8645],[15.641,51.8605],[15.6372,51.8598],[15.6373,51.8563],[15.644,51.8513],[15.6469,51.8516],[15.6469,51.8472],[15.6326,51.8456],[15.6294,51.8481],[15.6295,51.8504],[15.6244,51.8508],[15.6242,51.8528],[15.622,51.8506],[15.6188,51.8504],[15.5992,51.8521],[15.5945,51.8446],[15.5842,51.8455],[15.5828,51.8427],[15.5771,51.8442],[15.5769,51.842],[15.574,51.8421],[15.5736,51.8375],[15.5686,51.8385]],[[15.630094904458598,51.914120382165606],[15.6301,51.9141],[15.630121455938704,51.91410102171137],[15.630094904458598,51.914120382165606]],[[15.630094904458598,51.914120382165606],[15.6293,51.9173],[15.6293,51.9147],[15.630094904458598,51.914120382165606]]]]}}]}