{"type":"FeatureCollection","name":"Opolskie","crs":{"type":"name","properties":{"name":"urn:ogc:def:crs:OGC:1.3:CRS84"}},"features":[{"type":"Feature","properties":{"GID_2":"POL.8.1_1","GID_0":"POL","COUNTRY":"Poland","GID_1":"POL.8_1","NAME_1":"Opolskie","NL_NAME_1":"NA","NAME_2":"Brzeg","VARNAME_2":"NA","NL_NAME_2":"NA","TYPE_2":"Powiat","ENGTYPE_2":"County","CC_2":"1601","HASC_2":"NA"},"geometry":{"type":"MultiPolygon","coordinates":[[[[17.2337,50.614],[17.236,50.6132],[17.2448,50.6197],[17.2419,50.6242],[17.2427,50.628],[17.234,50.6322],[17.2302,50.6405],[17.235,50.6455],[17.2354,50.6496],[17.2389,50.6508],[17.2362,50.654],[17.2325,50.6551],[17.238,50.6577],[17.239,50.6608],[17.2375,50.6645],[17.2396,50.6716],[17.2347,50.6811],[17.2472,50.6821],[17.252,50.6867],[17.2559,50.6867],[17.2591,50.6905],[17.2202,50.7014],[17.2223,50.7067],[17.2208,50.7137],[17.2257,50.7156],[17.2291,50.7147],[17.2288,50.7173],[17.2389,50.7154],[17.2405,50.7184],[17.2478,50.7194],[17.2521,50.7177],[17.2619,50.7305],[17.2632,50.7299],[17.2643,50.7343],[17.2625,50.7391],[17.271,50.7408],[17.2756,50.7446],[17.2855,50.7431],[17.2943,50.7376],[17.3012,50.743],[17.2914,50.7465],[17.2976,50.7533],[17.2795,50.7609],[17.2684,50.7679],[17.2695,50.7705],[17.2624,50.7722],[17.2539,50.772],[17.2562,50.7746],[17.2712,50.7805],[17.2709,50.7854],[17.2738,50.7881],[17.2849,50.7923],[17.2859,50.7949],[17.3063,50.7882],[17.3331,50.787],[17.3451,50.7843],[17.3462,50.7879],[17.352,50.7904],[17.3547,50.7948],[17.3502,50.7997],[17.3491,50.8051],[17.3502,50.8076],[17.3398,50.8082],[17.3282,50.8181],[17.3183,50.8211],[17.3371,50.8256],[17.3432,50.8287],[17.3404,50.8353],[17.3304,50.8446],[17.3282,50.8506],[17.3346,50.8522],[17.3472,50.852],[17.365,50.8595],[17.3843,50.8621],[17.3851,50.8756],[17.3951,50.8755],[17.3958,50.8804],[17.3939,50.8878],[17.3979,50.8893],[17.3679,50.898],[17.3524,50.9007],[17.3599,50.9061],[17.3579,50.9071],[17.3672,50.9137],[17.3658,50.9145],[17.3704,50.9182],[17.3685,50.9214],[17.3694,50.9257],[17.3804,50.9249],[17.4002,50.9201],[17.4026,50.9187],[17.4043,50.9128],[17.4081,50.9105],[17.4173,50.9126],[17.4272,50.9106],[17.4291,50.9147],[17.4364,50.917],[17.4315,50.9183],[17.4317,50.9211],[17.4297,50.9237],[17.4307,50.9262],[17.4347,50.928],[17.4379,50.9361],[17.4396,50.937],[17.4354,50.9432],[17.4319,50.9436],[17.431,50.9459],[17.4338,50.9543],[17.4314,50.9671],[17.45,50.9717],[17.464,50.9783],[17.4691,50.9719],[17.5016,50.9756],[17.5046,50.9731],[17.5028,50.972],[17.5049,50.9697],[17.5094,50.9694],[17.5131,50.9724],[17.5149,50.9797],[17.5047,50.985],[17.4954,50.985],[17.4907,50.9882],[17.4992,50.9927],[17.5043,50.9886],[17.5099,50.988],[17.5181,50.9872],[17.5349,50.9901],[17.5363,50.9889],[17.5425,50.9912],[17.5407,50.9921],[17.5437,50.9998],[17.5478,50.9985],[17.549,50.9944],[17.5565,50.9919],[17.56,50.9925],[17.5621,50.9878],[17.5562,50.9867],[17.5581,50.982],[17.5683,50.9769],[17.575,50.978],[17.5752,50.9749],[17.5716,50.9753],[17.5753,50.9735],[17.5812,50.9743],[17.5883,50.9784],[17.5918,50.9915],[17.6018,50.9848],[17.6089,50.9829],[17.6217,50.9824],[17.6344,50.9781],[17.6372,50.9778],[17.6402,50.9829],[17.6459,50.9801],[17.6472,50.9826],[17.6525,50.9847],[17.6648,50.9789],[17.6626,50.9758],[17.6659,50.9745],[17.6542,50.9632],[17.6604,50.9553],[17.6686,50.9523],[17.6733,50.9423],[17.6768,50.9424],[17.6763,50.9389],[17.6666,50.928],[17.6744,50.9289],[17.6789,50.9275],[17.6858,50.9245],[17.692,50.919],[17.6835,50.9176],[17.6869,50.9149],[17.6835,50.9129],[17.687,50.9091],[17.6937,50.908],[17.6898,50.9029],[17.6926,50.9017],[17.6868,50.8975],[17.6781,50.9023],[17.674,50.8975],[17.6681,50.9008],[17.6658,50.8976],[17.6597,50.8993],[17.661,50.8967],[17.6578,50.8976],[17.6539,50.8921],[17.6501,50.8923],[17.6507,50.891],[17.6529,50.8914],[17.6468,50.8829],[17.6499,50.8802],[17.6364,50.8777],[17.6434,50.8614],[17.6282,50.8634],[17.6215,50.8622],[17.6242,50.8649],[17.6126,50.867],[17.6104,50.8661],[17.6101,50.8629],[17.6058,50.8631],[17.601,50.86],[17.6112,50.8551],[17.6072,50.855],[17.6025,50.8574],[17.5927,50.8541],[17.6067,50.8474],[17.6069,50.8437],[17.6018,50.8338],[17.6036,50.8305],[17.6142,50.8237],[17.6428,50.8183],[17.6562,50.8206],[17.6587,50.8197],[17.6595,50.8115],[17.6708,50.8099],[17.6755,50.8054],[17.6856,50.8016],[17.6919,50.7963],[17.7004,50.7952],[17.713,50.7968],[17.7229,50.7883],[17.7426,50.7843],[17.7506,50.78],[17.7582,50.7806],[17.763,50.7787],[17.7635,50.776],[17.7616,50.7762],[17.7604,50.7739],[17.7531,50.7761],[17.7559,50.7716],[17.7543,50.7723],[17.7554,50.7689],[17.7524,50.7666],[17.7543,50.7645],[17.7468,50.7653],[17.7447,50.7673],[17.7429,50.7667],[17.7415,50.7617],[17.7332,50.7631],[17.7325,50.7615],[17.7356,50.761],[17.7333,50.7571],[17.7405,50.7549],[17.7351,50.7519],[17.738,50.7482],[17.7378,50.7441],[17.7396,50.7414],[17.738,50.7368],[17.732,50.7388],[17.727,50.7371],[17.7311,50.7355],[17.7329,50.7333],[17.7318,50.7325],[17.745,50.7263],[17.7418,50.7215],[17.7396,50.7201],[17.7352,50.7219],[17.7355,50.7189],[17.7313,50.72],[17.7321,50.7216],[17.7306,50.7235],[17.727,50.7243],[17.7244,50.7206],[17.7123,50.7221],[17.7059,50.7145],[17.7037,50.7156],[17.702,50.7143],[17.6953,50.7182],[17.695,50.7198],[17.6767,50.7286],[17.6692,50.7228],[17.6632,50.7122],[17.6642,50.7112],[17.6623,50.7108],[17.6676,50.7084],[17.6617,50.7091],[17.6623,50.7031],[17.6645,50.7012],[17.6606,50.7009],[17.6589,50.6986],[17.6603,50.698],[17.6575,50.6953],[17.6698,50.6911],[17.6688,50.6876],[17.665,50.6842],[17.655,50.6873],[17.6504,50.6855],[17.6471,50.6861],[17.6448,50.6816],[17.6308,50.6905],[17.6139,50.7046],[17.6153,50.7079],[17.6066,50.7108],[17.6093,50.714],[17.6152,50.716],[17.6146,50.72],[17.5813,50.7126],[17.5397,50.7207],[17.5367,50.7278],[17.538,50.7321],[17.5243,50.731],[17.5161,50.7291],[17.5123,50.7263],[17.513,50.722],[17.5042,50.7136],[17.5017,50.704],[17.5035,50.7016],[17.5038,50.6962],[17.4984,50.6912],[17.4993,50.6857],[17.4907,50.6718],[17.4916,50.666],[17.4858,50.6607],[17.4828,50.6543],[17.4832,50.6499],[17.4782,50.6451],[17.4824,50.6432],[17.4835,50.6386],[17.4763,50.6364],[17.4795,50.6331],[17.4786,50.6276],[17.4743,50.6238],[17.472,50.6192],[17.4665,50.6176],[17.4662,50.6144],[17.4641,50.6161],[17.4573,50.6164],[17.4381,50.6116],[17.4194,50.611],[17.4092,50.6072],[17.4109,50.6132],[17.4105,50.6207],[17.4155,50.6333],[17.4121,50.6374],[17.4092,50.6372],[17.4095,50.6393],[17.3998,50.64],[17.3984,50.6446],[17.3951,50.645],[17.4035,50.6467],[17.4209,50.6551],[17.4162,50.656],[17.4145,50.6539],[17.3987,50.6568],[17.4056,50.6611],[17.4042,50.6614],[17.4054,50.6639],[17.424,50.6605],[17.4247,50.6624],[17.4261,50.6619],[17.4242,50.6578],[17.427,50.6594],[17.4271,50.6612],[17.4261,50.662],[17.4215,50.6639],[17.4187,50.6674],[17.4091,50.6678],[17.4055,50.6656],[17.374,50.6695],[17.3723,50.6672],[17.3697,50.6675],[17.3667,50.6551],[17.3615,50.6521],[17.3628,50.6513],[17.3624,50.6464],[17.3601,50.6461],[17.3596,50.6414],[17.3515,50.6434],[17.3483,50.6421],[17.3486,50.6406],[17.3464,50.6397],[17.3472,50.6386],[17.3385,50.6367],[17.3318,50.6312],[17.3295,50.6247],[17.3353,50.6146],[17.3295,50.6157],[17.321,50.6141],[17.3184,50.6112],[17.3059,50.6082],[17.3028,50.6039],[17.2948,50.6021],[17.2844,50.6038],[17.2845,50.6027],[17.2739,50.6023],[17.2703,50.5996],[17.2705,50.5973],[17.274,50.5957],[17.2756,50.5913],[17.2795,50.5917],[17.2779,50.5835],[17.2768,50.5846],[17.2602,50.5836],[17.248,50.5858],[17.2511,50.5834],[17.2493,50.5835],[17.2505,50.5822],[17.246,50.5816],[17.2451,50.5838],[17.2431,50.5839],[17.2432,50.5799],[17.2419,50.5788],[17.2148,50.5829],[17.2175,50.5832],[17.2199,50.5861],[17.2065,50.5861],[17.2131,50.5934],[17.2165,50.6046],[17.2248,50.6095],[17.229,50.609],[17.2308,50.613],[17.2299,50.6136],[17.2337,50.614]]]]}},{"type":"Feature","properties":{"GID_2":"POL.8.2_1","GID_0":"POL","COUNTRY":"Poland","GID_1":"POL.8_1","NAME_1":"Opolskie","NL_NAME_1":"NA","NAME_2":"Glubczyce","VARNAME_2":"NA","NL_NAME_2":"NA","TYPE_2":"Powiat","ENGTYPE_2":"County","CC_2":"1602","HASC_2":"NA"},"geometry":{"type":"MultiPolygon","coordinates":[[[[17.7704,50.0395],[17.7733,50.0424],[17.7706,50.0439],[17.7721,50.0464],[17.7714,50.0486],[17.7689,50.0491],[17.7691,50.0515],[17.7665,50.0513],[17.761,50.0544],[17.7642,50.0559],[17.7624,50.0564],[17.762,50.0647],[17.7566,50.0653],[17.7589,50.0678],[17.7562,50.0671],[17.7568,50.0685],[17.7524,50.0697],[17.7508,50.0731],[17.7525,50.0742],[17.7492,50.076],[17.7499,50.0776],[17.7474,50.0789],[17.7472,50.0825],[17.7402,50.0823],[17.7396,50.0958],[17.7326,50.0957],[17.7325,50.098],[17.7309,50.0972],[17.7254,50.1009],[17.7252,50.1045],[17.7204,50.1044],[17.7051,50.1144],[17.6968,50.117],[17.6833,50.1173],[17.681,50.1126],[17.6759,50.1125],[17.6762,50.108],[17.6637,50.1077],[17.6503,50.1108],[17.6476,50.1139],[17.6486,50.1162],[17.6465,50.1166],[17.6438,50.1227],[17.6448,50.1247],[17.6403,50.1307],[17.6117,50.1398],[17.6115,50.1426],[17.6091,50.1426],[17.6057,50.1491],[17.5927,50.16],[17.6012,50.1696],[17.6044,50.1709],[17.6197,50.1712],[17.6256,50.1692],[17.6451,50.1704],[17.6448,50.1749],[17.6658,50.1754],[17.6663,50.1785],[17.6716,50.18],[17.7075,50.1808],[17.707,50.1904],[17.7107,50.192],[17.7116,50.1961],[17.7103,50.1989],[17.7135,50.199],[17.7134,50.2012],[17.7164,50.2017],[17.7165,50.2036],[17.7273,50.2038],[17.7275,50.1993],[17.7415,50.1996],[17.7414,50.2021],[17.7481,50.2053],[17.7585,50.2066],[17.7575,50.2106],[17.76,50.2166],[17.7566,50.2215],[17.7614,50.2226],[17.761,50.2301],[17.7646,50.2338],[17.765,50.2364],[17.7377,50.2492],[17.7323,50.2533],[17.731,50.2715],[17.738,50.2717],[17.7375,50.2807],[17.7445,50.2808],[17.7441,50.2899],[17.7511,50.29],[17.7507,50.2976],[17.7542,50.3017],[17.7584,50.3018],[17.7614,50.2998],[17.7692,50.3013],[17.7803,50.3074],[17.7869,50.3034],[17.7881,50.3055],[17.7968,50.3081],[17.792,50.316],[17.8008,50.3153],[17.8094,50.3171],[17.8114,50.3223],[17.8155,50.3244],[17.8259,50.3233],[17.8255,50.3203],[17.8175,50.3193],[17.8162,50.3175],[17.8176,50.314],[17.8224,50.3096],[17.8202,50.3085],[17.8259,50.3015],[17.8256,50.2993],[17.8366,50.2893],[17.8241,50.2832],[17.849,50.2777],[17.8601,50.2792],[17.8618,50.2777],[17.8697,50.2794],[17.8709,50.2833],[17.8813,50.2864],[17.8847,50.2865],[17.8857,50.2839],[17.8906,50.2832],[17.895,50.2879],[17.8978,50.2865],[17.8929,50.284],[17.895,50.2799],[17.9008,50.2811],[17.9045,50.2744],[17.9119,50.2774],[17.9134,50.2689],[17.9192,50.265],[17.9181,50.2646],[17.9228,50.2589],[17.9252,50.235],[17.9205,50.2332],[17.9239,50.2293],[17.9183,50.2273],[17.9223,50.2244],[17.9208,50.2219],[17.9213,50.2172],[17.9267,50.2106],[17.9606,50.2189],[17.9604,50.217],[17.969,50.2183],[17.9636,50.2133],[17.9786,50.2049],[17.9765,50.1947],[17.972,50.1857],[17.9814,50.1834],[17.9992,50.1841],[18.0311,50.1738],[18.0356,50.1709],[18.0405,50.1734],[18.0386,50.175],[18.0419,50.1774],[18.045,50.1747],[18.0518,50.1802],[18.0598,50.1747],[18.0579,50.1733],[18.063,50.1698],[18.0614,50.1683],[18.0641,50.1678],[18.0612,50.165],[18.0564,50.1638],[18.0588,50.163],[18.0566,50.1607],[18.0661,50.157],[18.0557,50.1449],[18.0535,50.1457],[18.0502,50.1381],[18.0547,50.1336],[18.0681,50.1298],[18.0671,50.1239],[18.0619,50.1192],[18.0607,50.1159],[18.0726,50.1094],[18.0663,50.1065],[18.0592,50.0965],[18.0572,50.0872],[18.0425,50.0739],[18.0412,50.0697],[18.035,50.0658],[18.0202,50.0609],[18.012,50.0547],[18.005,50.0529],[18.0066,50.0447],[18.0059,50.0404],[18.0041,50.039],[18.0088,50.0313],[18.0174,50.0312],[18.0222,50.0361],[18.0246,50.0366],[18.0247,50.0388],[18.0444,50.0366],[18.049,50.0274],[18.0467,50.0268],[18.0475,50.0247],[18.0429,50.022],[18.047,50.0194],[18.0459,50.0192],[18.0463,50.0159],[18.0425,50.0157],[18.0409,50.0136],[18.0457,50.0103],[18.0455,50.0051],[18.0371,50.0086],[18.0353,50.011],[18.0084,50.0111],[18.0082,50.0156],[18.0055,50.0155],[18.0046,50.0184],[17.9991,50.0158],[17.9874,50.0152],[17.9871,50.0107],[17.9806,50.0105],[17.9808,50.006],[17.9684,50.0089],[17.9619,50.005],[17.954,50.0051],[17.9301,49.9866],[17.9228,49.9788],[17.902,49.9774],[17.8895,49.9801],[17.8685,49.9725],[17.8615,49.9806],[17.8567,49.9799],[17.8545,49.9828],[17.8513,49.9826],[17.8504,49.9868],[17.8428,49.9868],[17.8383,49.9901],[17.8377,49.9924],[17.834,49.9898],[17.8327,49.9917],[17.8264,49.994],[17.8369,50.0036],[17.8277,50.0113],[17.8042,50.0124],[17.7953,50.0143],[17.795,50.0177],[17.7921,50.0192],[17.7887,50.0173],[17.7852,50.0202],[17.7781,50.0201],[17.7775,50.0335],[17.7729,50.0356],[17.7704,50.0349],[17.7704,50.0395]]]]}},{"type":"Feature","properties":{"GID_2":"POL.8.3_1","GID_0":"POL","COUNTRY":"Poland","GID_1":"POL.8_1","NAME_1":"Opolskie","NL_NAME_1":"NA","NAME_2":"Kedzierzyn-Kozle","VARNAME_2":"NA","NL_NAME_2":"NA","TYPE_2":"Powiat","ENGTYPE_2":"County","CC_2":"1603","HASC_2":"NA"},"geometry":{"type":"MultiPolygon","coordinates":[[[[18.2598,50.2225],[18.2516,50.2227],[18.2489,50.2169],[18.2422,50.2163],[18.2356,50.2131],[18.2379,50.2084],[18.2356,50.2011],[18.2416,50.1971],[18.2494,50.1978],[18.2506,50.1943],[18.249,50.1926],[18.2053,50.1903],[18.1851,50.1868],[18.186,50.181],[18.1828,50.181],[18.1727,50.1866],[18.1624,50.1891],[18.1455,50.1795],[18.142,50.181],[18.1379,50.1796],[18.1336,50.1844],[18.1205,50.1792],[18.1229,50.1748],[18.1103,50.1672],[18.1038,50.1708],[18.1009,50.1756],[18.101,50.1776],[18.1034,50.1787],[18.1015,50.1809],[18.1008,50.1776],[18.0833,50.1757],[18.0833,50.1746],[18.0785,50.1743],[18.0711,50.1706],[18.067,50.1728],[18.0649,50.1718],[18.0636,50.174],[18.0622,50.1734],[18.062,50.1757],[18.0599,50.1746],[18.0518,50.1802],[18.045,50.1747],[18.0419,50.1774],[18.0386,50.175],[18.0405,50.1734],[18.0356,50.1709],[18.0311,50.1738],[17.9992,50.1841],[17.981,50.1835],[17.972,50.1857],[17.9765,50.1947],[17.9786,50.2049],[17.9636,50.2133],[17.969,50.2183],[17.9604,50.217],[17.9606,50.2189],[17.9267,50.2106],[17.9216,50.2166],[17.9208,50.2219],[17.9223,50.2244],[17.9183,50.2273],[17.9239,50.2293],[17.9205,50.2332],[17.9252,50.235],[17.9248,50.247],[17.9228,50.259],[17.9181,50.2646],[17.9236,50.2699],[17.9193,50.2741],[17.9218,50.2768],[17.9307,50.274],[17.9356,50.2887],[17.9177,50.293],[17.9113,50.3037],[17.9257,50.3109],[17.9319,50.3106],[17.9379,50.3158],[17.9383,50.3145],[17.9458,50.3157],[17.9501,50.32],[17.9499,50.3229],[17.9541,50.3261],[17.9626,50.3176],[17.9735,50.3206],[17.9912,50.3211],[18.0082,50.324],[18.029,50.3229],[18.031,50.3461],[18.0498,50.3433],[18.0534,50.3541],[18.0601,50.3626],[18.0557,50.3676],[18.0505,50.3691],[18.0491,50.3721],[18.0476,50.3713],[18.0409,50.3743],[18.0352,50.3746],[18.0345,50.3758],[18.0361,50.3773],[18.0385,50.3766],[18.0394,50.3785],[18.0358,50.3791],[18.034,50.383],[18.0346,50.3859],[18.0418,50.3925],[18.0437,50.3914],[18.0588,50.3955],[18.0582,50.3968],[18.0506,50.3987],[18.0506,50.4009],[18.0488,50.402],[18.0498,50.4039],[18.0485,50.404],[18.0625,50.4099],[18.0688,50.4174],[18.0749,50.4163],[18.0812,50.4205],[18.0847,50.4186],[18.0759,50.4142],[18.0757,50.412],[18.0783,50.4107],[18.0815,50.4111],[18.0828,50.4159],[18.0859,50.4175],[18.0832,50.4121],[18.0857,50.4096],[18.0895,50.4102],[18.0946,50.4157],[18.1064,50.4118],[18.1003,50.4079],[18.1019,50.4062],[18.1102,50.4077],[18.1063,50.4021],[18.108,50.3943],[18.1126,50.3889],[18.1087,50.3767],[18.1096,50.3752],[18.1255,50.3705],[18.1325,50.3751],[18.144,50.3743],[18.1407,50.3792],[18.1495,50.3822],[18.1496,50.3856],[18.1582,50.3889],[18.1639,50.3852],[18.177,50.3846],[18.1804,50.3817],[18.1857,50.3804],[18.1873,50.3773],[18.1906,50.3765],[18.1915,50.3779],[18.199,50.3776],[18.2297,50.3831],[18.2276,50.3857],[18.23,50.3862],[18.2279,50.3882],[18.2302,50.3917],[18.2275,50.3934],[18.2293,50.3953],[18.2495,50.3902],[18.265,50.3892],[18.2749,50.3869],[18.2865,50.3986],[18.2984,50.405],[18.3043,50.3969],[18.3175,50.3852],[18.3228,50.3824],[18.3286,50.3829],[18.3352,50.3744],[18.3414,50.3714],[18.366,50.3505],[18.3733,50.3463],[18.3868,50.3424],[18.3939,50.3385],[18.3988,50.3333],[18.401,50.3272],[18.3981,50.3232],[18.4057,50.3243],[18.409,50.3172],[18.392,50.314],[18.394,50.3092],[18.3932,50.3054],[18.4043,50.2963],[18.4075,50.2885],[18.3994,50.2834],[18.3937,50.2759],[18.4061,50.2771],[18.4221,50.2728],[18.4276,50.2673],[18.4266,50.2614],[18.4203,50.2615],[18.4259,50.249],[18.4208,50.2491],[18.4059,50.2547],[18.3998,50.2538],[18.3837,50.2555],[18.3766,50.2539],[18.3533,50.2582],[18.3621,50.2473],[18.345,50.247],[18.3339,50.2453],[18.3249,50.2409],[18.313,50.2407],[18.3132,50.2358],[18.3084,50.2308],[18.3052,50.2302],[18.3053,50.2318],[18.2964,50.2303],[18.2976,50.229],[18.2752,50.2249],[18.2712,50.2204],[18.2598,50.2225]]]]}},{"type":"Feature","properties":{"GID_2":"POL.8.4_1","GID_0":"POL","COUNTRY":"Poland","GID_1":"POL.8_1","NAME_1":"Opolskie","NL_NAME_1":"NA","NAME_2":"Kluczbork","VARNAME_2":"NA","NL_NAME_2":"NA","TYPE_2":"Powiat","ENGTYPE_2":"County","CC_2":"1604","HASC_2":"NA"},"geometry":{"type":"MultiPolygon","coordinates":[[[[18.3327,50.9412],[18.3307,50.9396],[18.3329,50.9337],[18.3353,50.9318],[18.3367,50.9326],[18.3442,50.9268],[18.3361,50.92],[18.3313,50.9094],[18.335,50.9065],[18.3331,50.9051],[18.3331,50.9025],[18.3395,50.8914],[18.3357,50.8843],[18.3368,50.8775],[18.3397,50.8773],[18.3421,50.875],[18.3435,50.8681],[18.3454,50.8683],[18.3416,50.8673],[18.3417,50.8647],[18.3464,50.8645],[18.3471,50.8612],[18.3532,50.8587],[18.3491,50.8574],[18.3601,50.8507],[18.3538,50.8463],[18.3392,50.8439],[18.3371,50.8399],[18.3298,50.8398],[18.3299,50.8335],[18.3357,50.8297],[18.3419,50.8195],[18.351,50.8114],[18.3236,50.8045],[18.3151,50.8118],[18.3108,50.8106],[18.305,50.8116],[18.2936,50.8204],[18.2886,50.8217],[18.2965,50.8109],[18.2746,50.8252],[18.2739,50.8278],[18.2701,50.8243],[18.2648,50.8148],[18.2402,50.8039],[18.2302,50.7968],[18.2021,50.8046],[18.2053,50.818],[18.2042,50.8261],[18.2033,50.8279],[18.1992,50.8264],[18.1939,50.8337],[18.1888,50.8364],[18.1805,50.8333],[18.166,50.8362],[18.1661,50.8332],[18.1644,50.8315],[18.1553,50.8337],[18.1366,50.8282],[18.1302,50.8295],[18.1292,50.8269],[18.1232,50.8272],[18.1278,50.8241],[18.1288,50.8212],[18.1268,50.8161],[18.1063,50.8145],[18.0993,50.8122],[18.0982,50.821],[18.0941,50.827],[18.0959,50.8335],[18.0991,50.835],[18.0944,50.8385],[18.0933,50.8413],[18.0923,50.8477],[18.0936,50.8572],[18.0973,50.8604],[18.0999,50.8675],[18.0989,50.8681],[18.1015,50.8808],[18.106,50.8945],[18.1089,50.8982],[18.1193,50.904],[18.1007,50.9088],[18.0937,50.9076],[18.0901,50.9089],[18.0845,50.9127],[18.0825,50.9171],[18.0686,50.9233],[18.0704,50.9246],[18.0663,50.925],[18.0597,50.9405],[18.0413,50.945],[18.0369,50.9488],[18.0218,50.953],[18.0227,50.956],[18.019,50.9554],[18.0119,50.9579],[18.0101,50.9603],[18.013,50.9623],[18.0109,50.9644],[18.0035,50.9677],[18.0042,50.97],[17.9961,50.9718],[17.9976,50.9769],[18.0034,50.9758],[18.0033,50.9791],[17.998,50.9798],[17.9888,50.9849],[17.9738,50.9818],[17.9528,50.9809],[17.9379,50.9807],[17.9341,50.9829],[17.9345,50.9872],[17.9398,50.9953],[17.9359,51.0],[17.9355,51.0038],[17.9276,51.0064],[17.9242,51.0124],[17.9295,51.0216],[17.9329,51.0235],[17.9331,51.0286],[17.9303,51.0381],[17.9358,51.0479],[17.9481,51.05],[17.9472,51.0517],[17.9534,51.0571],[17.9524,51.0608],[17.9475,51.0649],[17.9496,51.0668],[17.9469,51.0756],[17.9385,51.0844],[17.9349,51.0939],[17.9431,51.107],[17.9395,51.1089],[17.9952,51.1216],[18.0037,51.1219],[18.0144,51.1269],[18.0394,51.131],[18.0503,51.1351],[18.0596,51.1416],[18.0731,51.1447],[18.0755,51.1469],[18.0679,51.1495],[18.0734,51.1512],[18.0728,51.1527],[18.0797,51.1529],[18.0818,51.1545],[18.0772,51.157],[18.0735,51.1546],[18.07,51.1564],[18.0705,51.1593],[18.0728,51.1588],[18.0756,51.1627],[18.0747,51.1636],[18.0782,51.1662],[18.0819,51.1661],[18.0938,51.1566],[18.1021,51.1588],[18.1045,51.1534],[18.1243,51.1685],[18.1372,51.172],[18.1514,51.1713],[18.1534,51.1731],[18.1615,51.1747],[18.1644,51.1715],[18.1625,51.1699],[18.1637,51.1696],[18.1635,51.1677],[18.1662,51.1673],[18.1656,51.1652],[18.1744,51.1613],[18.1833,51.1606],[18.187,51.1571],[18.1962,51.1581],[18.2215,51.1545],[18.2236,51.157],[18.2309,51.1558],[18.2326,51.1577],[18.2377,51.1588],[18.2435,51.1561],[18.2464,51.1576],[18.2526,51.1558],[18.259,51.1577],[18.265,51.156],[18.27,51.1508],[18.2776,51.1478],[18.289,51.1465],[18.2926,51.1434],[18.2973,51.1424],[18.2988,51.1401],[18.303,51.1402],[18.3043,51.1388],[18.303,51.1372],[18.3051,51.1354],[18.315,51.134],[18.3129,51.11],[18.3147,51.0985],[18.3481,51.0936],[18.3405,51.0783],[18.3404,51.0743],[18.342,51.0743],[18.3459,51.0614],[18.3434,51.0592],[18.345,51.0582],[18.3376,51.0534],[18.3312,51.0535],[18.3191,51.049],[18.3073,51.041],[18.3058,51.0391],[18.3059,51.0328],[18.2919,51.0277],[18.2926,51.0246],[18.2937,51.023],[18.2998,51.0234],[18.2998,51.0152],[18.3122,51.0128],[18.315,51.0194],[18.3368,51.0112],[18.3451,51.0111],[18.3529,51.0088],[18.351,51.0038],[18.3562,50.9917],[18.3542,50.9886],[18.3596,50.9818],[18.3583,50.9796],[18.3616,50.9765],[18.3611,50.9714],[18.3673,50.9683],[18.381,50.9523],[18.3809,50.9463],[18.3677,50.9388],[18.3575,50.9387],[18.3519,50.9403],[18.3509,50.9374],[18.348,50.9382],[18.3435,50.9426],[18.3361,50.9423],[18.333,50.9398],[18.3327,50.9412]]]]}},{"type":"Feature","properties":{"GID_2":"POL.8.5_1","GID_0":"POL","COUNTRY":"Poland","GID_1":"POL.8_1","NAME_1":"Opolskie","NL_NAME_1":"NA","NAME_2":"Krapkowice","VARNAME_2":"NA","NL_NAME_2":"NA","TYPE_2":"Powiat","ENGTYPE_2":"County","CC_2":"1605","HASC_2":"NA"},"geometry":{"type":"MultiPolygon","coordinates":[[[[18.0793,50.4201],[18.0749,50.4163],[18.0688,50.4174],[18.0625,50.4099],[18.0491,50.4048],[18.0506,50.3987],[18.0582,50.3968],[18.0586,50.3953],[18.0437,50.3914],[18.0418,50.3925],[18.0346,50.3859],[18.034,50.383],[18.0358,50.3791],[18.0394,50.3785],[18.0385,50.3766],[18.0361,50.3773],[18.0345,50.3758],[18.0354,50.3744],[18.0409,50.3743],[18.0476,50.3713],[18.0491,50.3721],[18.0505,50.3691],[18.0557,50.3676],[18.0596,50.3642],[18.06,50.3616],[18.0534,50.3541],[18.0498,50.3433],[18.045,50.343],[18.0323,50.346],[18.0266,50.355],[18.0217,50.3579],[18.017,50.3509],[18.008,50.3541],[18.0095,50.3548],[18.0052,50.3571],[17.9926,50.3541],[17.9893,50.356],[17.9775,50.3563],[17.974,50.3581],[17.9696,50.3556],[17.9656,50.3592],[17.9464,50.3547],[17.9435,50.3554],[17.9458,50.3591],[17.9278,50.3623],[17.92,50.3499],[17.917,50.3506],[17.9164,50.3531],[17.9181,50.3646],[17.9248,50.3725],[17.9136,50.3758],[17.8959,50.378],[17.8867,50.3813],[17.8886,50.3885],[17.8763,50.3885],[17.8775,50.39],[17.8715,50.3971],[17.8902,50.4062],[17.8869,50.4079],[17.8848,50.406],[17.88,50.4057],[17.8573,50.4123],[17.8481,50.4073],[17.8343,50.3966],[17.8314,50.3968],[17.8291,50.3975],[17.8306,50.4006],[17.8464,50.4196],[17.8291,50.4263],[17.8234,50.4266],[17.8188,50.425],[17.8191,50.421],[17.8247,50.4197],[17.8165,50.4099],[17.8064,50.4129],[17.8055,50.4085],[17.8003,50.4101],[17.7999,50.4081],[17.795,50.4089],[17.7928,50.4141],[17.7945,50.4168],[17.7837,50.4202],[17.7807,50.4231],[17.7748,50.4229],[17.7703,50.4186],[17.7692,50.4154],[17.7716,50.4124],[17.7686,50.4115],[17.7698,50.4097],[17.7659,50.4083],[17.762,50.4096],[17.7609,50.4167],[17.7573,50.4188],[17.757,50.421],[17.7535,50.4212],[17.7546,50.4259],[17.7515,50.4337],[17.7563,50.4346],[17.7559,50.4376],[17.7616,50.4393],[17.7551,50.4425],[17.7624,50.4429],[17.7625,50.4549],[17.7665,50.4569],[17.7626,50.4589],[17.7612,50.4617],[17.7642,50.4626],[17.7585,50.4704],[17.7581,50.4725],[17.7609,50.4739],[17.7611,50.4754],[17.7575,50.4826],[17.7599,50.4846],[17.7575,50.4858],[17.767,50.494],[17.7695,50.4927],[17.8138,50.5302],[17.8732,50.5017],[17.8785,50.5078],[17.8844,50.5267],[17.8971,50.5462],[17.904,50.5454],[17.914,50.5476],[17.9393,50.5448],[17.9435,50.5474],[17.9464,50.5518],[17.9496,50.5516],[17.952,50.5472],[17.9686,50.548],[17.971,50.5467],[17.9872,50.5466],[17.991,50.547],[17.9968,50.5526],[18.0076,50.5479],[18.0081,50.5496],[18.0134,50.5494],[18.0222,50.5527],[18.0424,50.5623],[18.0489,50.5564],[18.0624,50.5549],[18.0753,50.5559],[18.0952,50.5604],[18.1048,50.5539],[18.118,50.5543],[18.1069,50.5327],[18.0915,50.5124],[18.0824,50.5106],[18.083,50.5087],[18.0758,50.5079],[18.0941,50.4952],[18.096,50.49],[18.1052,50.4859],[18.1292,50.4803],[18.1358,50.4768],[18.1419,50.4708],[18.1595,50.4619],[18.1466,50.4564],[18.1483,50.4522],[18.1464,50.4489],[18.1513,50.4458],[18.1502,50.4436],[18.1538,50.4423],[18.1574,50.4432],[18.155,50.4453],[18.1596,50.4475],[18.1604,50.4507],[18.162,50.4509],[18.1634,50.4486],[18.1609,50.4448],[18.1618,50.4424],[18.1568,50.434],[18.1556,50.4341],[18.1562,50.4326],[18.1525,50.4348],[18.1479,50.4297],[18.1487,50.4246],[18.1524,50.4196],[18.1538,50.4145],[18.1433,50.4069],[18.1555,50.4037],[18.1604,50.3999],[18.1481,50.3913],[18.1431,50.3901],[18.1435,50.389],[18.1464,50.3905],[18.1537,50.3904],[18.151,50.3894],[18.1512,50.3876],[18.1535,50.3866],[18.1496,50.3856],[18.1495,50.3822],[18.1407,50.3792],[18.144,50.3743],[18.1325,50.3751],[18.1255,50.3705],[18.1096,50.3752],[18.1087,50.3767],[18.1126,50.3889],[18.108,50.3943],[18.1063,50.4021],[18.1102,50.4077],[18.1019,50.4062],[18.1003,50.4079],[18.1064,50.4118],[18.0946,50.4157],[18.0895,50.4102],[18.0857,50.4096],[18.0832,50.4121],[18.0859,50.4175],[18.0828,50.4159],[18.0815,50.4111],[18.0774,50.4109],[18.0755,50.4123],[18.0759,50.4142],[18.0847,50.4186],[18.0793,50.4201]]]]}},{"type":"Feature","properties":{"GID_2":"POL.8.6_1","GID_0":"POL","COUNTRY":"Poland","GID_1":"POL.8_1","NAME_1":"Opolskie","NL_NAME_1":"NA","NAME_2":"Namyslow","VARNAME_2":"NA","NL_NAME_2":"NA","TYPE_2":"Powiat","ENGTYPE_2":"County","CC_2":"1606","HASC_2":"NA"},"geometry":{"type":"MultiPolygon","coordinates":[[[[17.9357,50.9886],[17.9341,50.9829],[17.9379,50.9807],[17.9738,50.9818],[17.9894,50.9847],[17.998,50.9798],[18.0039,50.9788],[18.0034,50.9758],[17.9976,50.9769],[17.9961,50.9718],[18.0042,50.97],[18.0035,50.9677],[18.0117,50.9636],[17.9713,50.9682],[17.9638,50.9412],[17.9593,50.9417],[17.9602,50.9386],[17.9576,50.9389],[17.9638,50.9339],[17.9527,50.933],[17.9564,50.9301],[17.9494,50.9053],[17.9328,50.9088],[17.9324,50.9071],[17.9051,50.9101],[17.8977,50.8839],[17.8912,50.8846],[17.8952,50.8826],[17.8933,50.8778],[17.8857,50.8743],[17.886,50.8722],[17.8901,50.87],[17.8892,50.8614],[17.9056,50.8606],[17.903,50.8567],[17.9044,50.8394],[17.8741,50.8379],[17.8722,50.8405],[17.8672,50.8415],[17.8664,50.8441],[17.8609,50.8462],[17.8606,50.8539],[17.8501,50.8618],[17.8414,50.8615],[17.8302,50.8654],[17.8302,50.8666],[17.8205,50.8667],[17.8183,50.8653],[17.8141,50.8689],[17.8099,50.8693],[17.8025,50.8733],[17.786,50.8759],[17.7871,50.8771],[17.7915,50.8765],[17.7929,50.8791],[17.7964,50.8794],[17.8036,50.8771],[17.8043,50.8792],[17.8082,50.8786],[17.807,50.8762],[17.8085,50.876],[17.8161,50.8768],[17.8075,50.8861],[17.8072,50.8907],[17.8033,50.8955],[17.7847,50.9007],[17.783,50.9047],[17.7727,50.9098],[17.7672,50.9049],[17.7649,50.9059],[17.7641,50.9039],[17.7471,50.9131],[17.7433,50.9094],[17.7361,50.9082],[17.7354,50.9099],[17.7327,50.907],[17.7211,50.9106],[17.6963,50.915],[17.6858,50.9245],[17.6744,50.9289],[17.6675,50.9272],[17.6666,50.9282],[17.6681,50.9308],[17.6763,50.9389],[17.6768,50.9424],[17.6733,50.9423],[17.6686,50.9523],[17.6604,50.9553],[17.6542,50.9632],[17.6659,50.9745],[17.6626,50.9758],[17.6648,50.9789],[17.6525,50.9847],[17.6472,50.9826],[17.6459,50.9801],[17.6402,50.9829],[17.6372,50.9778],[17.6344,50.9781],[17.6217,50.9824],[17.6089,50.9829],[17.6018,50.9848],[17.5918,50.9915],[17.5883,50.9784],[17.5812,50.9743],[17.5753,50.9735],[17.5716,50.9753],[17.5752,50.9749],[17.575,50.978],[17.5683,50.9769],[17.5581,50.982],[17.5562,50.9867],[17.5621,50.9878],[17.56,50.9925],[17.5565,50.9919],[17.549,50.9944],[17.5478,50.9985],[17.5445,50.9986],[17.5417,51.0027],[17.5285,51.0023],[17.5213,51.0057],[17.522,51.0091],[17.5143,51.0116],[17.5185,51.0175],[17.5189,51.0254],[17.527,51.0314],[17.5349,51.0432],[17.5255,51.0491],[17.5212,51.0484],[17.5191,51.0503],[17.5184,51.0515],[17.5213,51.0536],[17.5239,51.0534],[17.5245,51.0585],[17.5187,51.0588],[17.522,51.0629],[17.5269,51.0668],[17.5343,51.0692],[17.5582,51.0678],[17.5644,51.0731],[17.5821,51.0818],[17.5786,51.0851],[17.5677,51.0884],[17.5624,51.0926],[17.5677,51.098],[17.5719,51.1062],[17.5782,51.1108],[17.5715,51.1176],[17.5755,51.1236],[17.5764,51.1294],[17.5655,51.1335],[17.5677,51.1378],[17.5455,51.1436],[17.5447,51.1545],[17.5586,51.1568],[17.5664,51.1614],[17.5679,51.1659],[17.5782,51.1622],[17.5892,51.1713],[17.5989,51.1678],[17.5971,51.1711],[17.6027,51.1759],[17.5966,51.1785],[17.6066,51.1896],[17.6115,51.1905],[17.6131,51.1873],[17.6195,51.1844],[17.6206,51.1754],[17.6404,51.1731],[17.6387,51.1706],[17.6394,51.1681],[17.6559,51.1666],[17.6588,51.1635],[17.6693,51.1608],[17.6742,51.1641],[17.6828,51.1657],[17.6822,51.1671],[17.7003,51.1633],[17.6982,51.1717],[17.7044,51.1739],[17.739,51.1743],[17.7502,51.1797],[17.7538,51.1868],[17.7798,51.1832],[17.783,51.1883],[17.7891,51.1879],[17.7951,51.1898],[17.7953,51.1941],[17.7965,51.1946],[17.7984,51.1923],[17.8107,51.1901],[17.812,51.1867],[17.8257,51.1946],[17.8368,51.1914],[17.8422,51.1889],[17.848,51.1835],[17.8512,51.1724],[17.8421,51.1605],[17.8377,51.1515],[17.8382,51.1495],[17.8329,51.143],[17.8315,51.1373],[17.8238,51.14],[17.8131,51.1379],[17.8122,51.1325],[17.8171,51.1323],[17.8191,51.1222],[17.8225,51.1183],[17.8291,51.1193],[17.8391,51.1165],[17.8487,51.1169],[17.8517,51.1128],[17.8635,51.1146],[17.8687,51.1106],[17.8753,51.1119],[17.8801,51.1054],[17.8858,51.1036],[17.9086,51.1077],[17.9223,51.114],[17.925,51.1115],[17.9316,51.1134],[17.9431,51.107],[17.9349,51.0939],[17.9385,51.0844],[17.9469,51.0756],[17.9496,51.0668],[17.9475,51.0649],[17.9524,51.0608],[17.9534,51.0571],[17.9472,51.0517],[17.9481,51.05],[17.9358,51.0479],[17.9303,51.0381],[17.9331,51.0286],[17.9329,51.0235],[17.9295,51.0216],[17.9242,51.0124],[17.9276,51.0064],[17.9355,51.0038],[17.9359,51.0],[17.9398,50.9953],[17.9357,50.9886]]]]}},{"type":"Feature","properties":{"GID_2":"POL.8.7_1","GID_0":"POL","COUNTRY":"Poland","GID_1":"POL.8_1","NAME_1":"Opolskie","NL_NAME_1":"NA","NAME_2":"Nysa","VARNAME_2":"NA","NL_NAME_2":"NA","TYPE_2":"Powiat","ENGTYPE_2":"County","CC_2":"1607","HASC_2":"NA"},"geometry":{"type":"MultiPolygon","coordinates":[[[[17.5035,50.2747],[17.4877,50.2738],[17.4718,50.2692],[17.4687,50.2696],[17.4635,50.2671],[17.4562,50.2697],[17.4569,50.2608],[17.4513,50.2606],[17.4516,50.2558],[17.4395,50.2516],[17.4297,50.2542],[17.4277,50.2586],[17.4312,50.2631],[17.4207,50.2774],[17.4069,50.2739],[17.4008,50.2796],[17.3891,50.2827],[17.3661,50.2821],[17.3631,50.2796],[17.3625,50.2764],[17.3625,50.2643],[17.3579,50.2653],[17.353,50.264],[17.3528,50.2672],[17.3464,50.2674],[17.3448,50.274],[17.3427,50.2762],[17.3439,50.2792],[17.3379,50.2833],[17.3482,50.2874],[17.3447,50.2913],[17.346,50.2978],[17.3505,50.3021],[17.3514,50.3064],[17.3537,50.308],[17.3502,50.3123],[17.3375,50.3131],[17.34,50.321],[17.3497,50.3213],[17.3487,50.3284],[17.3278,50.3271],[17.3116,50.3203],[17.2804,50.3195],[17.2644,50.328],[17.2581,50.3288],[17.2579,50.3324],[17.2472,50.3322],[17.2468,50.3341],[17.2363,50.3409],[17.2246,50.3452],[17.2131,50.3575],[17.2011,50.364],[17.1991,50.3751],[17.2027,50.3816],[17.2033,50.3864],[17.184,50.39],[17.1795,50.3862],[17.1564,50.3839],[17.1566,50.3802],[17.1521,50.3815],[17.1433,50.3804],[17.1296,50.3912],[17.1235,50.3941],[17.1111,50.3937],[17.1108,50.405],[17.0851,50.4058],[17.0835,50.4055],[17.0823,50.402],[17.0684,50.4057],[17.0525,50.407],[17.0379,50.4148],[17.0298,50.4154],[17.0243,50.4215],[17.0183,50.4214],[17.0135,50.4186],[17.0062,50.4245],[16.9983,50.4277],[16.9834,50.4201],[16.974,50.4178],[16.9712,50.4214],[16.964,50.4257],[16.9638,50.4281],[16.9577,50.428],[16.9422,50.4349],[16.9421,50.4365],[16.9354,50.4363],[16.9269,50.4385],[16.9216,50.4408],[16.9205,50.4449],[16.9171,50.4448],[16.9079,50.4494],[16.9144,50.4497],[16.9184,50.4529],[16.9406,50.4613],[16.945,50.468],[16.9418,50.4681],[16.9468,50.4793],[16.9492,50.4822],[16.959,50.4879],[16.9655,50.4879],[16.9688,50.4844],[16.9709,50.4849],[16.9703,50.4883],[16.9747,50.4887],[16.975,50.4856],[16.9774,50.4841],[16.9763,50.4821],[16.9786,50.4833],[16.9805,50.4824],[16.9772,50.4801],[16.9789,50.4793],[16.976,50.4756],[16.9823,50.4738],[16.9859,50.4765],[16.9928,50.4749],[16.9969,50.4783],[17.006,50.4744],[17.0073,50.4794],[17.0201,50.4803],[17.0173,50.4735],[17.0251,50.4707],[17.0166,50.4685],[17.0192,50.4651],[17.0263,50.4663],[17.0399,50.4632],[17.0516,50.4654],[17.055,50.4692],[17.0536,50.4712],[17.0509,50.4715],[17.0532,50.4724],[17.0546,50.4757],[17.0624,50.4761],[17.0627,50.4797],[17.0602,50.4808],[17.0624,50.4811],[17.0623,50.4839],[17.0587,50.485],[17.0623,50.486],[17.0643,50.4889],[17.0588,50.4917],[17.0626,50.4969],[17.0577,50.5],[17.0568,50.505],[17.0679,50.5136],[17.0743,50.5149],[17.0748,50.5171],[17.0734,50.5208],[17.0743,50.5226],[17.0687,50.5245],[17.0625,50.5308],[17.0613,50.5369],[17.0636,50.5421],[17.0687,50.5445],[17.0756,50.5559],[17.0941,50.5644],[17.0991,50.5723],[17.0992,50.5759],[17.1121,50.586],[17.1113,50.5868],[17.1149,50.5874],[17.1165,50.5961],[17.1225,50.6079],[17.1513,50.6104],[17.1555,50.6123],[17.1864,50.6163],[17.231,50.6148],[17.2322,50.6145],[17.2299,50.6136],[17.2308,50.613],[17.229,50.609],[17.2248,50.6095],[17.2165,50.6046],[17.2131,50.5934],[17.2065,50.5861],[17.2199,50.5861],[17.2175,50.5832],[17.2148,50.5829],[17.2419,50.5788],[17.2432,50.5799],[17.2431,50.5839],[17.2451,50.5838],[17.246,50.5816],[17.2505,50.5822],[17.2493,50.5835],[17.2511,50.5834],[17.248,50.5858],[17.2602,50.5836],[17.2768,50.5846],[17.2779,50.5835],[17.2795,50.5917],[17.2756,50.5913],[17.274,50.5957],[17.2705,50.5973],[17.2703,50.5996],[17.2739,50.6023],[17.2845,50.6027],[17.2844,50.6038],[17.2948,50.6021],[17.3028,50.6039],[17.3059,50.6082],[17.3184,50.6112],[17.321,50.6141],[17.3295,50.6157],[17.3353,50.6146],[17.3295,50.6247],[17.3318,50.6312],[17.3385,50.6367],[17.3472,50.6386],[17.3464,50.6397],[17.3486,50.6406],[17.3483,50.6421],[17.3515,50.6434],[17.3596,50.6414],[17.3601,50.6461],[17.3624,50.6464],[17.3628,50.6513],[17.3615,50.6521],[17.3667,50.6551],[17.3697,50.6675],[17.3723,50.6672],[17.374,50.6695],[17.4055,50.6656],[17.4091,50.6678],[17.4187,50.6674],[17.4215,50.6639],[17.4261,50.662],[17.4271,50.6612],[17.427,50.6594],[17.4242,50.6578],[17.4261,50.6619],[17.4247,50.6624],[17.424,50.6605],[17.4054,50.6639],[17.4042,50.6614],[17.4056,50.6611],[17.3987,50.6568],[17.4145,50.6539],[17.4162,50.656],[17.4209,50.6551],[17.4035,50.6467],[17.3951,50.645],[17.3984,50.6446],[17.3998,50.64],[17.4095,50.6393],[17.4092,50.6372],[17.4121,50.6374],[17.4155,50.6333],[17.4105,50.6207],[17.4109,50.6132],[17.4092,50.6072],[17.4194,50.611],[17.4373,50.6115],[17.4573,50.6164],[17.4641,50.6161],[17.4684,50.6138],[17.4713,50.6086],[17.4671,50.6004],[17.483,50.6006],[17.491,50.5972],[17.4908,50.5932],[17.4938,50.5937],[17.4959,50.5911],[17.5089,50.5933],[17.52,50.5888],[17.5192,50.5865],[17.5208,50.5859],[17.5371,50.5846],[17.539,50.5818],[17.5435,50.5825],[17.542,50.5852],[17.5441,50.5906],[17.5583,50.5859],[17.5636,50.588],[17.5657,50.5961],[17.5734,50.5929],[17.5778,50.5924],[17.5792,50.594],[17.588,50.5882],[17.5817,50.586],[17.5922,50.5777],[17.5877,50.5771],[17.5858,50.5729],[17.5905,50.5721],[17.6065,50.5741],[17.6076,50.5719],[17.604,50.5661],[17.6038,50.5622],[17.6089,50.5593],[17.6072,50.5579],[17.613,50.5561],[17.6236,50.5567],[17.6255,50.5584],[17.6239,50.5671],[17.6255,50.568],[17.6437,50.5598],[17.6543,50.5615],[17.6585,50.5502],[17.6698,50.5543],[17.6925,50.5575],[17.7214,50.5757],[17.7458,50.5602],[17.7481,50.5616],[17.763,50.5546],[17.701,50.5018],[17.712,50.4961],[17.7227,50.4928],[17.7194,50.486],[17.7106,50.4881],[17.6995,50.4868],[17.6925,50.4905],[17.6872,50.4851],[17.682,50.4864],[17.6819,50.4853],[17.6745,50.4841],[17.6671,50.4862],[17.6653,50.4828],[17.67,50.4797],[17.667,50.4754],[17.6713,50.467],[17.6701,50.4574],[17.6665,50.4554],[17.6564,50.4557],[17.6518,50.4485],[17.6419,50.4482],[17.6376,50.4497],[17.6339,50.4486],[17.6323,50.4447],[17.6277,50.4421],[17.6286,50.4403],[17.6192,50.4384],[17.6173,50.4364],[17.6078,50.4332],[17.6047,50.4276],[17.59,50.4222],[17.5884,50.4192],[17.5781,50.4151],[17.5773,50.4125],[17.5623,50.4092],[17.5538,50.4034],[17.5552,50.3983],[17.5512,50.3943],[17.5454,50.3953],[17.5378,50.4013],[17.5382,50.4024],[17.5328,50.4045],[17.5316,50.4083],[17.5346,50.4101],[17.5324,50.4137],[17.5303,50.4121],[17.5243,50.4125],[17.5218,50.4099],[17.512,50.4076],[17.5093,50.4046],[17.5034,50.4029],[17.5025,50.4014],[17.4951,50.4025],[17.4904,50.401],[17.4899,50.3995],[17.4793,50.397],[17.4748,50.3889],[17.4774,50.384],[17.4731,50.3818],[17.4713,50.3826],[17.4699,50.3811],[17.4477,50.3848],[17.448,50.3811],[17.4508,50.3777],[17.4536,50.3758],[17.4588,50.3754],[17.4578,50.3727],[17.4638,50.372],[17.464,50.3708],[17.4633,50.3694],[17.455,50.3678],[17.4525,50.3641],[17.4526,50.3592],[17.4559,50.3541],[17.4567,50.3385],[17.4598,50.3371],[17.4642,50.3295],[17.4608,50.3276],[17.4598,50.3248],[17.4549,50.3234],[17.4516,50.3205],[17.4525,50.3078],[17.4486,50.3036],[17.4498,50.2999],[17.4512,50.3001],[17.4518,50.2977],[17.4628,50.2983],[17.4614,50.2966],[17.4703,50.2928],[17.4695,50.2915],[17.4737,50.2905],[17.4765,50.2854],[17.4858,50.2784],[17.5048,50.2747],[17.5035,50.2747]]]]}},{"type":"Feature","properties":{"GID_2":"POL.8.8_1","GID_0":"POL","COUNTRY":"Poland","GID_1":"POL.8_1","NAME_1":"Opolskie","NL_NAME_1":"NA","NAME_2":"Olesno","VARNAME_2":"NA","NL_NAME_2":"NA","TYPE_2":"Powiat","ENGTYPE_2":"County","CC_2":"1608","HASC_2":"NA"},"geometry":{"type":"MultiPolygon","coordinates":[[[[18.506,50.8014],[18.5046,50.801],[18.5036,50.7969],[18.5124,50.798],[18.516,50.7974],[18.5159,50.796],[18.521,50.7969],[18.5222,50.7917],[18.5168,50.792],[18.5161,50.7889],[18.5252,50.7862],[18.5272,50.7801],[18.5251,50.7764],[18.5343,50.7788],[18.538,50.7742],[18.5349,50.7714],[18.55,50.7596],[18.5571,50.7568],[18.5717,50.7564],[18.5766,50.7535],[18.5819,50.7528],[18.5774,50.7481],[18.5722,50.749],[18.5705,50.7447],[18.5549,50.749],[18.5555,50.7511],[18.5517,50.7523],[18.552,50.7496],[18.5492,50.749],[18.5471,50.7424],[18.5485,50.7387],[18.5483,50.732],[18.5233,50.7267],[18.509,50.7261],[18.5068,50.721],[18.5069,50.7132],[18.5005,50.7098],[18.4957,50.7105],[18.4839,50.7083],[18.4841,50.703],[18.4787,50.7038],[18.4795,50.7023],[18.4937,50.7005],[18.4925,50.6967],[18.5009,50.6938],[18.4993,50.6895],[18.4948,50.6906],[18.4934,50.687],[18.4841,50.6857],[18.4877,50.6815],[18.4855,50.6805],[18.487,50.6786],[18.4894,50.6776],[18.4975,50.679],[18.4996,50.6759],[18.5025,50.6763],[18.5039,50.6737],[18.5089,50.6737],[18.4968,50.6707],[18.4941,50.6643],[18.5228,50.6594],[18.5133,50.6581],[18.5064,50.6413],[18.5168,50.6396],[18.5094,50.6213],[18.4995,50.6188],[18.4886,50.6195],[18.4833,50.6165],[18.4636,50.6215],[18.4681,50.6251],[18.4643,50.6324],[18.4606,50.6354],[18.4626,50.6384],[18.4615,50.6442],[18.4593,50.6552],[18.4553,50.6621],[18.4604,50.6687],[18.4612,50.6753],[18.4588,50.6793],[18.4504,50.6835],[18.4473,50.6842],[18.4462,50.6817],[18.4429,50.6823],[18.4403,50.6804],[18.4292,50.6822],[18.4292,50.6857],[18.4259,50.6858],[18.4276,50.6901],[18.4064,50.6964],[18.399,50.6974],[18.3959,50.6964],[18.3785,50.7041],[18.3776,50.7024],[18.3718,50.7045],[18.3704,50.7032],[18.3731,50.6915],[18.3621,50.6925],[18.3612,50.6903],[18.3562,50.6917],[18.3579,50.6941],[18.3545,50.695],[18.353,50.6937],[18.346,50.6961],[18.3438,50.6951],[18.3425,50.6963],[18.3456,50.6973],[18.3401,50.6989],[18.3411,50.7018],[18.3478,50.7017],[18.3542,50.7048],[18.3543,50.7063],[18.3432,50.7031],[18.3234,50.7041],[18.3178,50.7112],[18.2974,50.7294],[18.2848,50.7231],[18.2762,50.7226],[18.2628,50.7265],[18.2386,50.7394],[18.2301,50.7393],[18.2347,50.744],[18.2508,50.7477],[18.2496,50.752],[18.2639,50.7606],[18.2599,50.768],[18.2605,50.7695],[18.246,50.7666],[18.2497,50.7753],[18.2541,50.7811],[18.2284,50.7827],[18.2253,50.7884],[18.2257,50.7911],[18.2361,50.8016],[18.2648,50.8148],[18.2717,50.8265],[18.2739,50.8278],[18.2746,50.8252],[18.2965,50.8109],[18.2886,50.8217],[18.2936,50.8204],[18.305,50.8116],[18.3108,50.8106],[18.3151,50.8118],[18.3236,50.8045],[18.351,50.8114],[18.3419,50.8195],[18.3357,50.8297],[18.3299,50.8335],[18.3298,50.8398],[18.3371,50.8399],[18.3392,50.8439],[18.3538,50.8463],[18.3601,50.8507],[18.3491,50.8574],[18.3532,50.8587],[18.3471,50.8612],[18.3464,50.8645],[18.3417,50.8647],[18.3416,50.8673],[18.3454,50.8683],[18.3435,50.8681],[18.3421,50.875],[18.3397,50.8773],[18.3368,50.8775],[18.3357,50.8843],[18.3395,50.8914],[18.3331,50.9025],[18.3331,50.9051],[18.335,50.9065],[18.3313,50.9094],[18.3361,50.92],[18.3442,50.9268],[18.3367,50.9326],[18.3335,50.9331],[18.3307,50.9396],[18.3327,50.9413],[18.3341,50.9402],[18.3361,50.9423],[18.3435,50.9426],[18.348,50.9382],[18.3509,50.9374],[18.3519,50.9403],[18.3575,50.9387],[18.3676,50.9388],[18.3814,50.9473],[18.3805,50.954],[18.3757,50.9575],[18.3673,50.9683],[18.3611,50.9714],[18.3616,50.9765],[18.3583,50.9796],[18.3596,50.9818],[18.3542,50.9886],[18.3562,50.9917],[18.351,51.0038],[18.3529,51.0088],[18.3451,51.0111],[18.3368,51.0112],[18.315,51.0194],[18.3122,51.0128],[18.299,51.0154],[18.2998,51.0234],[18.2937,51.023],[18.2916,51.0272],[18.3059,51.0328],[18.3058,51.0391],[18.3073,51.041],[18.3191,51.049],[18.3312,51.0535],[18.3376,51.0534],[18.345,51.0582],[18.3434,51.0592],[18.3459,51.0614],[18.342,51.0743],[18.3404,51.0743],[18.3405,51.0783],[18.3481,51.0936],[18.3147,51.0985],[18.3129,51.11],[18.3149,51.1334],[18.3168,51.1361],[18.3326,51.1392],[18.3446,51.137],[18.3475,51.1381],[18.353,51.1362],[18.3606,51.1375],[18.3631,51.1363],[18.3633,51.1377],[18.3672,51.1388],[18.3703,51.1352],[18.3751,51.1343],[18.3756,51.1311],[18.3786,51.1309],[18.3817,51.1282],[18.3877,51.13],[18.3927,51.1264],[18.4065,51.1241],[18.4189,51.1259],[18.4219,51.1171],[18.4291,51.1176],[18.4298,51.1157],[18.4369,51.1141],[18.4541,51.1151],[18.4645,51.1202],[18.4697,51.1044],[18.4814,51.0997],[18.4783,51.0923],[18.4895,51.0907],[18.4965,51.0952],[18.4964,51.0978],[18.4987,51.0996],[18.5129,51.1032],[18.5197,51.108],[18.5166,51.1112],[18.5201,51.1162],[18.5165,51.1208],[18.5155,51.1327],[18.5208,51.1403],[18.5367,51.1379],[18.543,51.1411],[18.5481,51.1411],[18.5537,51.1388],[18.5676,51.119],[18.5641,51.1123],[18.5614,51.1111],[18.5623,51.1065],[18.5789,51.0935],[18.5808,51.0898],[18.5774,51.0844],[18.5776,51.0821],[18.5924,51.0809],[18.605,51.082],[18.6168,51.0794],[18.6236,51.0772],[18.625,51.0717],[18.6375,51.0634],[18.6484,51.0611],[18.6607,51.0546],[18.673,51.0569],[18.6754,51.0533],[18.672,51.0491],[18.6955,51.0158],[18.6798,51.0083],[18.667,51.0078],[18.6562,51.005],[18.6682,50.989],[18.6636,50.9821],[18.6636,50.9705],[18.6446,50.969],[18.6429,50.9655],[18.6382,50.9645],[18.6301,50.9638],[18.6222,50.9656],[18.6197,50.9613],[18.6124,50.9551],[18.6303,50.9312],[18.6493,50.9312],[18.6491,50.9268],[18.6542,50.9206],[18.655,50.9166],[18.6497,50.9077],[18.6504,50.906],[18.6466,50.9042],[18.6464,50.9023],[18.6423,50.8995],[18.6423,50.8957],[18.6371,50.8928],[18.6359,50.8888],[18.6339,50.8879],[18.634,50.8834],[18.6321,50.8832],[18.6327,50.8816],[18.6294,50.8793],[18.6285,50.8724],[18.6235,50.8702],[18.6245,50.8694],[18.623,50.8653],[18.6191,50.8626],[18.6175,50.8594],[18.6165,50.8557],[18.618,50.8549],[18.6163,50.8535],[18.603,50.854],[18.5882,50.8516],[18.5785,50.8443],[18.558,50.8341],[18.5575,50.8302],[18.5629,50.8197],[18.5611,50.8156],[18.5624,50.8091],[18.5606,50.8081],[18.5219,50.8024],[18.513,50.8034],[18.506,50.8014]]]]}},{"type":"Feature","properties":{"GID_2":"POL.8.10_1","GID_0":"POL","COUNTRY":"Poland","GID_1":"POL.8_1","NAME_1":"Opolskie","NL_NAME_1":"NA","NAME_2":"Opole","VARNAME_2":"NA","NL_NAME_2":"NA","TYPE_2":"Powiat","ENGTYPE_2":"County","CC_2":"1609","HASC_2":"NA"},"geometry":{"type":"MultiPolygon","coordinates":[[[[17.9484,50.5517],[17.9463,50.5518],[17.9435,50.5474],[17.9393,50.5448],[17.914,50.5476],[17.904,50.5454],[17.8971,50.5462],[17.8844,50.5267],[17.8785,50.5078],[17.8732,50.5017],[17.7481,50.5616],[17.7458,50.5602],[17.7214,50.5757],[17.6925,50.5575],[17.6698,50.5543],[17.6585,50.5502],[17.6543,50.5615],[17.6437,50.5598],[17.6255,50.568],[17.6239,50.5671],[17.6255,50.5584],[17.6236,50.5567],[17.613,50.5561],[17.6072,50.5579],[17.6089,50.5593],[17.6038,50.5622],[17.604,50.5661],[17.6076,50.5719],[17.6065,50.5741],[17.5905,50.5721],[17.5858,50.5729],[17.5877,50.5771],[17.5922,50.5777],[17.5817,50.586],[17.588,50.5882],[17.5792,50.594],[17.5778,50.5924],[17.5734,50.5929],[17.5657,50.5961],[17.5636,50.588],[17.5583,50.5859],[17.5441,50.5906],[17.542,50.5852],[17.5435,50.5825],[17.539,50.5818],[17.5371,50.5846],[17.5208,50.5859],[17.5192,50.5865],[17.52,50.5888],[17.5089,50.5933],[17.4959,50.5911],[17.4938,50.5937],[17.4908,50.5932],[17.491,50.5972],[17.483,50.6006],[17.4671,50.6004],[17.4713,50.6086],[17.4663,50.6171],[17.472,50.6192],[17.4743,50.6238],[17.4786,50.6276],[17.4795,50.6331],[17.4763,50.6364],[17.4825,50.6373],[17.4836,50.6399],[17.4824,50.6432],[17.4782,50.6451],[17.4832,50.6499],[17.4828,50.6543],[17.4858,50.6607],[17.4916,50.666],[17.4907,50.6718],[17.4993,50.6857],[17.4984,50.6912],[17.5038,50.6962],[17.5035,50.7016],[17.5017,50.704],[17.5042,50.7136],[17.513,50.722],[17.512,50.7259],[17.5161,50.7291],[17.538,50.7321],[17.5367,50.7278],[17.5397,50.7207],[17.5813,50.7126],[17.6146,50.72],[17.6152,50.716],[17.6093,50.714],[17.6066,50.7108],[17.6153,50.7079],[17.6139,50.7046],[17.6308,50.6905],[17.6448,50.6816],[17.6471,50.6861],[17.6504,50.6855],[17.655,50.6873],[17.665,50.6842],[17.6688,50.6876],[17.6698,50.6911],[17.6575,50.6953],[17.6603,50.698],[17.6589,50.6986],[17.6606,50.7009],[17.6645,50.7012],[17.6623,50.7031],[17.6617,50.7091],[17.6676,50.7084],[17.6623,50.7108],[17.6642,50.7112],[17.6632,50.7122],[17.6692,50.7228],[17.6767,50.7286],[17.695,50.7198],[17.6953,50.7182],[17.702,50.7143],[17.7037,50.7156],[17.7059,50.7145],[17.7123,50.7221],[17.7244,50.7206],[17.727,50.7243],[17.7306,50.7235],[17.7321,50.7216],[17.7313,50.72],[17.7355,50.7189],[17.7352,50.7219],[17.7396,50.7201],[17.7434,50.7232],[17.745,50.7263],[17.7318,50.7325],[17.7329,50.7333],[17.7311,50.7355],[17.727,50.7371],[17.732,50.7388],[17.738,50.7368],[17.7396,50.7414],[17.7378,50.7441],[17.738,50.7482],[17.7351,50.7519],[17.7405,50.7549],[17.7333,50.7571],[17.7356,50.761],[17.7325,50.7615],[17.7332,50.7631],[17.7415,50.7617],[17.7429,50.7667],[17.7447,50.7673],[17.7468,50.7653],[17.7543,50.7645],[17.7524,50.7666],[17.7554,50.7689],[17.7543,50.7723],[17.7559,50.7716],[17.7531,50.7761],[17.7604,50.7739],[17.7616,50.7762],[17.7635,50.776],[17.763,50.7787],[17.7582,50.7806],[17.7506,50.78],[17.7426,50.7843],[17.7229,50.7883],[17.713,50.7968],[17.7004,50.7952],[17.6919,50.7963],[17.6856,50.8016],[17.6755,50.8054],[17.6708,50.8099],[17.6595,50.8115],[17.6587,50.8197],[17.6562,50.8206],[17.6428,50.8183],[17.6126,50.8245],[17.6036,50.8305],[17.6018,50.8338],[17.6069,50.8437],[17.6067,50.8474],[17.5927,50.8541],[17.6025,50.8574],[17.6072,50.855],[17.6112,50.8551],[17.601,50.86],[17.6029,50.8618],[17.6101,50.8629],[17.6104,50.8661],[17.6126,50.867],[17.6242,50.8649],[17.6215,50.8622],[17.6282,50.8634],[17.6434,50.8614],[17.6364,50.8777],[17.6499,50.8802],[17.6468,50.8829],[17.6529,50.8914],[17.6507,50.891],[17.6501,50.8923],[17.6539,50.8921],[17.6578,50.8976],[17.661,50.8967],[17.6597,50.8993],[17.6658,50.8976],[17.6681,50.9008],[17.674,50.8975],[17.6781,50.9023],[17.6868,50.8975],[17.6925,50.9017],[17.6898,50.9029],[17.6937,50.908],[17.687,50.9091],[17.6835,50.9129],[17.6869,50.9149],[17.6835,50.9176],[17.692,50.919],[17.6988,50.9142],[17.7127,50.9125],[17.7327,50.907],[17.7354,50.9099],[17.7361,50.9082],[17.7433,50.9094],[17.7471,50.9131],[17.7641,50.9039],[17.7649,50.9059],[17.7672,50.9049],[17.7727,50.9098],[17.783,50.9047],[17.7847,50.9007],[17.8033,50.8955],[17.8072,50.8907],[17.8075,50.8861],[17.8161,50.8768],[17.8085,50.876],[17.807,50.8762],[17.8082,50.8786],[17.8043,50.8792],[17.8036,50.8771],[17.7964,50.8794],[17.7929,50.8791],[17.7915,50.8765],[17.7871,50.8771],[17.7854,50.8766],[17.786,50.8759],[17.8025,50.8733],[17.8099,50.8693],[17.8141,50.8689],[17.8183,50.8653],[17.8205,50.8667],[17.8302,50.8666],[17.8302,50.8654],[17.8414,50.8615],[17.8501,50.8618],[17.8606,50.8539],[17.8609,50.8462],[17.8664,50.8441],[17.8672,50.8415],[17.8722,50.8405],[17.8741,50.8379],[17.9044,50.8394],[17.903,50.8567],[17.9056,50.8606],[17.8892,50.8614],[17.8901,50.87],[17.886,50.8722],[17.8857,50.8743],[17.8933,50.8778],[17.8952,50.8826],[17.8912,50.8846],[17.8977,50.8839],[17.9051,50.9101],[17.9324,50.9071],[17.9328,50.9088],[17.9494,50.9053],[17.9564,50.9301],[17.9527,50.933],[17.9638,50.9339],[17.9576,50.9389],[17.9602,50.9386],[17.9593,50.9417],[17.9638,50.9412],[17.9713,50.9682],[18.0117,50.9636],[18.0128,50.9614],[18.0101,50.9603],[18.0106,50.9589],[18.019,50.9554],[18.0227,50.956],[18.0218,50.953],[18.0369,50.9488],[18.0413,50.945],[18.0597,50.9405],[18.0663,50.925],[18.0704,50.9246],[18.0686,50.9233],[18.0825,50.9171],[18.0845,50.9127],[18.0901,50.9089],[18.0937,50.9076],[18.1007,50.9088],[18.1193,50.904],[18.1089,50.8982],[18.106,50.8945],[18.1015,50.8808],[18.0989,50.8681],[18.0999,50.8675],[18.0973,50.8604],[18.0936,50.8572],[18.0923,50.8477],[18.0933,50.8413],[18.0944,50.8385],[18.0991,50.835],[18.0959,50.8335],[18.0941,50.827],[18.0982,50.821],[18.0993,50.8122],[18.1063,50.8145],[18.1268,50.8161],[18.1288,50.8212],[18.1278,50.8241],[18.1232,50.8272],[18.1292,50.8269],[18.1302,50.8295],[18.1366,50.8282],[18.1553,50.8337],[18.1644,50.8315],[18.1661,50.8332],[18.166,50.8362],[18.1805,50.8333],[18.1888,50.8364],[18.1939,50.8337],[18.1992,50.8264],[18.2033,50.8279],[18.2042,50.8261],[18.2053,50.818],[18.2021,50.8046],[18.2302,50.7968],[18.2252,50.7901],[18.2284,50.7827],[18.2541,50.7811],[18.2497,50.7753],[18.246,50.7666],[18.2605,50.7695],[18.2606,50.7663],[18.2633,50.7637],[18.2632,50.7594],[18.2496,50.752],[18.2508,50.7477],[18.2347,50.744],[18.2301,50.7393],[18.2386,50.7394],[18.2628,50.7265],[18.2762,50.7226],[18.2848,50.7231],[18.2974,50.7294],[18.3178,50.7112],[18.3234,50.7041],[18.3432,50.7031],[18.3543,50.7063],[18.3542,50.7048],[18.3478,50.7017],[18.3411,50.7018],[18.3401,50.6989],[18.3451,50.6966],[18.3425,50.6963],[18.339,50.6924],[18.3317,50.6899],[18.3282,50.6825],[18.3183,50.6789],[18.3178,50.6764],[18.3147,50.6754],[18.3117,50.6714],[18.3033,50.6723],[18.3001,50.6709],[18.3,50.6723],[18.2931,50.6731],[18.2895,50.6697],[18.2845,50.6741],[18.2817,50.6711],[18.2774,50.671],[18.2757,50.6684],[18.2773,50.6664],[18.276,50.6592],[18.2775,50.6579],[18.2779,50.6423],[18.2628,50.639],[18.2619,50.637],[18.2431,50.6372],[18.2268,50.6451],[18.2212,50.6454],[18.208,50.6497],[18.2031,50.6471],[18.1947,50.6393],[18.1926,50.6349],[18.1888,50.6337],[18.1802,50.6261],[18.1755,50.6201],[18.1719,50.6119],[18.1563,50.6086],[18.1597,50.6026],[18.1581,50.5978],[18.1537,50.5965],[18.1504,50.5927],[18.1436,50.5908],[18.1262,50.5937],[18.1218,50.5907],[18.1289,50.5785],[18.128,50.5594],[18.1216,50.5571],[18.1186,50.554],[18.1136,50.5551],[18.1048,50.5539],[18.0952,50.5604],[18.0713,50.5554],[18.0537,50.5554],[18.0489,50.5564],[18.0424,50.5623],[18.0222,50.5527],[18.0134,50.5494],[18.0081,50.5496],[18.0076,50.5479],[17.9968,50.5526],[17.991,50.547],[17.952,50.5472],[17.9484,50.5517]],[[17.8419,50.6523],[17.8512,50.6437],[17.8529,50.6445],[17.862,50.641],[17.8653,50.6427],[17.8713,50.6414],[17.8704,50.6409],[17.872,50.6396],[17.8674,50.6351],[17.8807,50.6414],[17.896,50.6396],[17.9,50.6427],[17.9033,50.6419],[17.9001,50.6377],[17.8984,50.6376],[17.8981,50.6362],[17.9,50.6361],[17.8983,50.6314],[17.9055,50.6296],[17.9183,50.6317],[17.921,50.6287],[17.9357,50.6368],[17.9399,50.6307],[17.9387,50.6247],[17.9402,50.6222],[17.9453,50.6212],[17.9548,50.6236],[17.9602,50.6212],[17.9598,50.6167],[17.9538,50.6023],[17.9618,50.5964],[17.9649,50.5877],[17.9711,50.5899],[17.9728,50.5879],[17.9787,50.5876],[17.9867,50.5897],[17.977,50.6076],[17.9809,50.6071],[17.9869,50.6103],[17.9935,50.6086],[17.9962,50.6129],[18.0007,50.6122],[18.0005,50.6145],[18.0071,50.617],[18.0157,50.6152],[18.0147,50.622],[18.0327,50.6221],[18.0324,50.6496],[18.0263,50.6496],[18.0263,50.6575],[18.0016,50.6577],[18.0013,50.6606],[17.9972,50.6661],[17.9943,50.6673],[17.9916,50.6728],[18.0044,50.6721],[18.0063,50.6766],[18.0139,50.6787],[18.0171,50.6781],[18.0186,50.6809],[18.0071,50.6871],[17.9999,50.6933],[17.9978,50.688],[17.9813,50.6822],[17.9666,50.6913],[17.9584,50.7005],[17.9453,50.7018],[17.9402,50.7053],[17.9349,50.7038],[17.9363,50.7059],[17.932,50.7073],[17.9297,50.712],[17.9269,50.7133],[17.9395,50.7264],[17.944,50.7292],[17.9433,50.7314],[17.941,50.7318],[17.9387,50.7297],[17.937,50.7305],[17.9351,50.7293],[17.9323,50.7296],[17.9316,50.7316],[17.9268,50.7313],[17.9281,50.7362],[17.9369,50.7374],[17.9254,50.7408],[17.9268,50.7504],[17.9336,50.7502],[17.9348,50.749],[17.9332,50.7472],[17.9353,50.7471],[17.9393,50.7504],[17.9436,50.7515],[17.9472,50.7571],[17.9397,50.7627],[17.9219,50.7682],[17.9196,50.7667],[17.9011,50.7661],[17.8863,50.7597],[17.8869,50.7635],[17.8715,50.77],[17.8625,50.7663],[17.8581,50.7665],[17.8596,50.7657],[17.8583,50.7651],[17.8593,50.763],[17.8618,50.7615],[17.8575,50.7582],[17.8603,50.7565],[17.8642,50.7583],[17.8675,50.7566],[17.8735,50.7506],[17.8684,50.7458],[17.8789,50.7411],[17.8774,50.7373],[17.8712,50.7406],[17.8612,50.7426],[17.8585,50.7348],[17.8596,50.7315],[17.8679,50.7244],[17.8806,50.7167],[17.8785,50.7091],[17.8687,50.7093],[17.8536,50.7183],[17.8512,50.7152],[17.8276,50.7097],[17.8256,50.7145],[17.8141,50.7094],[17.8094,50.7132],[17.8031,50.7106],[17.8036,50.7065],[17.7986,50.6999],[17.7905,50.6978],[17.7796,50.6902],[17.7807,50.6863],[17.7839,50.6835],[17.8097,50.6778],[17.8142,50.6798],[17.8294,50.6778],[17.831,50.6809],[17.8327,50.6813],[17.8346,50.6791],[17.8414,50.6813],[17.8411,50.6795],[17.845,50.6775],[17.8476,50.6732],[17.8558,50.6707],[17.8493,50.6685],[17.8531,50.6651],[17.8506,50.6611],[17.8413,50.6572],[17.8331,50.6592],[17.8307,50.6562],[17.8419,50.6523]]]]}},{"type":"Feature","properties":{"GID_2":"POL.8.9_1","GID_0":"POL","COUNTRY":"Poland","GID_1":"POL.8_1","NAME_1":"Opolskie","NL_NAME_1":"NA","NAME_2":"Opole","VARNAME_2":"NA","NL_NAME_2":"NA","TYPE_2":"Miastonaprawachpowiatu","ENGTYPE_2":"Citywithpowiatrights","CC_2":"1661","HASC_2":"NA"},"geometry":{"type":"MultiPolygon","coordinates":[[[[17.9999,50.6933],[18.0071,50.6871],[18.0186,50.6809],[18.0171,50.6781],[18.0139,50.6787],[18.0063,50.6766],[18.0044,50.6721],[17.9916,50.6728],[17.9943,50.6673],[17.9972,50.6661],[18.0013,50.6606],[18.0016,50.6577],[18.0263,50.6575],[18.0263,50.6496],[18.0324,50.6496],[18.0327,50.6221],[18.0147,50.622],[18.0157,50.6152],[18.0071,50.617],[18.0005,50.6145],[18.0007,50.6122],[17.9962,50.6129],[17.9935,50.6086],[17.9869,50.6103],[17.9809,50.6071],[17.977,50.6076],[17.9867,50.5897],[17.9787,50.5876],[17.9728,50.5879],[17.9711,50.5899],[17.9649,50.5877],[17.9618,50.5964],[17.9538,50.6023],[17.9598,50.6167],[17.9602,50.6212],[17.9548,50.6236],[17.9453,50.6212],[17.9402,50.6222],[17.9387,50.6247],[17.9399,50.6307],[17.9357,50.6368],[17.921,50.6287],[17.9183,50.6317],[17.9055,50.6296],[17.8983,50.6314],[17.9,50.6361],[17.8981,50.6362],[17.8984,50.6376],[17.9001,50.6377],[17.9033,50.6419],[17.9,50.6427],[17.896,50.6396],[17.8807,50.6414],[17.8691,50.635],[17.8672,50.6352],[17.872,50.6396],[17.8704,50.6409],[17.8713,50.6414],[17.8653,50.6427],[17.862,50.641],[17.8529,50.6445],[17.8512,50.6437],[17.8437,50.6518],[17.8306,50.6558],[17.8331,50.6592],[17.8413,50.6572],[17.8506,50.6611],[17.8531,50.6651],[17.8493,50.6685],[17.8558,50.6707],[17.8476,50.6732],[17.845,50.6775],[17.8411,50.6795],[17.8414,50.6813],[17.8346,50.6791],[17.8327,50.6813],[17.831,50.6809],[17.8294,50.6778],[17.8142,50.6798],[17.8097,50.6778],[17.7839,50.6835],[17.7807,50.6863],[17.7796,50.6902],[17.7905,50.6978],[17.7986,50.6999],[17.8036,50.7065],[17.8031,50.7106],[17.8094,50.7132],[17.8141,50.7094],[17.8256,50.7145],[17.8276,50.7097],[17.8512,50.7152],[17.8536,50.7183],[17.8687,50.7093],[17.8785,50.7091],[17.8806,50.7167],[17.8679,50.7244],[17.8596,50.7315],[17.8585,50.7348],[17.8612,50.7426],[17.8712,50.7406],[17.874,50.7394],[17.877,50.7375],[17.8775,50.7374],[17.8787,50.7413],[17.8684,50.7458],[17.8735,50.7506],[17.8642,50.7583],[17.8603,50.7565],[17.8575,50.7583],[17.8618,50.7615],[17.8593,50.763],[17.8583,50.7651],[17.8596,50.7657],[17.8581,50.7665],[17.8625,50.7663],[17.8715,50.77],[17.8869,50.7635],[17.8863,50.7597],[17.9011,50.7661],[17.9196,50.7667],[17.9218,50.7682],[17.9404,50.7624],[17.9424,50.7595],[17.9472,50.7571],[17.946,50.7544],[17.9436,50.7515],[17.9393,50.7504],[17.9353,50.7471],[17.9332,50.7472],[17.9348,50.749],[17.9336,50.7502],[17.9268,50.7504],[17.9254,50.7408],[17.9369,50.7374],[17.9281,50.7362],[17.9268,50.7313],[17.9316,50.7316],[17.9323,50.7296],[17.9351,50.7293],[17.937,50.7305],[17.9387,50.7297],[17.941,50.7318],[17.9433,50.7314],[17.944,50.7292],[17.9395,50.7264],[17.9269,50.7133],[17.9297,50.712],[17.932,50.7073],[17.9363,50.7059],[17.9345,50.7042],[17.9402,50.7053],[17.9453,50.7018],[17.9584,50.7005],[17.9666,50.6913],[17.9813,50.6822],[17.9978,50.688],[17.9999,50.6933]]]]}},{"type":"Feature","properties":{"GID_2":"POL.8.11_1","GID_0":"POL","COUNTRY":"Poland","GID_1":"POL.8_1","NAME_1":"Opolskie","NL_NAME_1":"NA","NAME_2":"Prudnik","VARNAME_2":"NA","NL_NAME_2":"NA","TYPE_2":"Powiat","ENGTYPE_2":"County","CC_2":"1610","HASC_2":"NA"},"geometry":{"type":"MultiPolygon","coordinates":[[[[17.7173,50.3208],[17.6869,50.328],[17.6873,50.3247],[17.6792,50.3245],[17.6797,50.3155],[17.6867,50.3157],[17.6874,50.3007],[17.686,50.2991],[17.6806,50.2975],[17.6762,50.2929],[17.6686,50.2912],[17.6641,50.287],[17.6578,50.2849],[17.6508,50.2778],[17.6417,50.2761],[17.639,50.274],[17.6327,50.2739],[17.6318,50.2718],[17.6165,50.2668],[17.6059,50.267],[17.6026,50.2699],[17.598,50.2707],[17.5976,50.2748],[17.5919,50.279],[17.5807,50.2779],[17.5638,50.2703],[17.5598,50.2714],[17.549,50.27],[17.5258,50.2736],[17.5245,50.275],[17.5061,50.2746],[17.4885,50.2775],[17.4765,50.2854],[17.4737,50.2905],[17.4695,50.2915],[17.4703,50.2928],[17.4614,50.2966],[17.4628,50.2983],[17.4518,50.2977],[17.4512,50.3001],[17.4498,50.2999],[17.4486,50.3036],[17.4525,50.3078],[17.4516,50.3205],[17.4549,50.3234],[17.4598,50.3248],[17.4608,50.3276],[17.4642,50.3295],[17.4598,50.3371],[17.4567,50.3385],[17.4559,50.3541],[17.4526,50.3592],[17.4525,50.3641],[17.455,50.3678],[17.4633,50.3694],[17.464,50.3708],[17.4638,50.372],[17.4578,50.3727],[17.4588,50.3754],[17.4536,50.3758],[17.4508,50.3777],[17.448,50.3811],[17.4477,50.3848],[17.4699,50.3811],[17.4713,50.3826],[17.4731,50.3818],[17.4774,50.384],[17.4748,50.3889],[17.4793,50.397],[17.4899,50.3995],[17.4904,50.401],[17.4951,50.4025],[17.5025,50.4014],[17.5034,50.4029],[17.5093,50.4046],[17.512,50.4076],[17.5218,50.4099],[17.5243,50.4125],[17.5303,50.4121],[17.5324,50.4137],[17.5346,50.4101],[17.5316,50.4083],[17.5328,50.4045],[17.5382,50.4024],[17.5378,50.4013],[17.5454,50.3953],[17.5512,50.3943],[17.5552,50.3983],[17.5538,50.4034],[17.5623,50.4092],[17.5773,50.4125],[17.5781,50.4151],[17.5884,50.4192],[17.59,50.4222],[17.6047,50.4276],[17.6078,50.4332],[17.6173,50.4364],[17.6192,50.4384],[17.6286,50.4403],[17.6277,50.4421],[17.6323,50.4447],[17.6339,50.4486],[17.6376,50.4497],[17.6419,50.4482],[17.6518,50.4485],[17.6564,50.4557],[17.6665,50.4554],[17.6701,50.4574],[17.6713,50.467],[17.667,50.4754],[17.67,50.4797],[17.6653,50.4828],[17.6671,50.4862],[17.6745,50.4841],[17.6819,50.4853],[17.682,50.4864],[17.6872,50.4851],[17.6925,50.4905],[17.6995,50.4868],[17.7106,50.4881],[17.7194,50.486],[17.7227,50.4928],[17.712,50.4961],[17.701,50.5018],[17.763,50.5546],[17.8138,50.5302],[17.7695,50.4927],[17.767,50.494],[17.7575,50.4858],[17.7599,50.4846],[17.7575,50.4826],[17.7611,50.4754],[17.7609,50.4739],[17.7581,50.4725],[17.7585,50.4704],[17.7642,50.4626],[17.7612,50.4617],[17.7626,50.4589],[17.7665,50.4569],[17.7625,50.4549],[17.7624,50.4429],[17.7551,50.4425],[17.7616,50.4393],[17.7559,50.4376],[17.7563,50.4346],[17.7515,50.4337],[17.7546,50.4259],[17.7535,50.4212],[17.757,50.421],[17.7573,50.4188],[17.7609,50.4167],[17.762,50.4096],[17.7659,50.4083],[17.7698,50.4097],[17.7686,50.4115],[17.7716,50.4124],[17.7692,50.4154],[17.7703,50.4186],[17.7748,50.4229],[17.7807,50.4231],[17.7837,50.4202],[17.7945,50.4168],[17.7928,50.4141],[17.795,50.4089],[17.7999,50.4081],[17.8003,50.4101],[17.8055,50.4085],[17.8064,50.4129],[17.8165,50.4099],[17.8247,50.4197],[17.8191,50.421],[17.8188,50.425],[17.8234,50.4266],[17.8291,50.4263],[17.8464,50.4196],[17.8353,50.4075],[17.8293,50.3974],[17.8343,50.3966],[17.8481,50.4073],[17.8573,50.4123],[17.88,50.4057],[17.8848,50.406],[17.8869,50.4079],[17.8902,50.4062],[17.8715,50.3971],[17.8775,50.39],[17.8763,50.3885],[17.8886,50.3885],[17.8867,50.3813],[17.8973,50.3776],[17.9136,50.3758],[17.9248,50.3725],[17.9182,50.3648],[17.917,50.3506],[17.92,50.3499],[17.9278,50.3623],[17.9458,50.3591],[17.9435,50.3554],[17.9464,50.3547],[17.9656,50.3592],[17.9696,50.3556],[17.974,50.3581],[17.9775,50.3563],[17.9893,50.356],[17.9926,50.3541],[18.0052,50.3571],[18.0095,50.3548],[18.008,50.3541],[18.017,50.3509],[18.0217,50.3579],[18.0266,50.355],[18.0323,50.346],[18.0308,50.3456],[18.029,50.3229],[18.0082,50.324],[17.9912,50.3211],[17.9735,50.3206],[17.9626,50.3176],[17.9541,50.3261],[17.9499,50.3229],[17.9501,50.32],[17.9458,50.3157],[17.9383,50.3145],[17.9379,50.3158],[17.9319,50.3106],[17.9257,50.3109],[17.9116,50.304],[17.9134,50.2983],[17.9177,50.293],[17.9356,50.2887],[17.9324,50.2759],[17.9302,50.2735],[17.9218,50.2768],[17.9198,50.2755],[17.9195,50.2733],[17.9236,50.2699],[17.9191,50.2667],[17.9191,50.2651],[17.9134,50.2689],[17.9119,50.2774],[17.9045,50.2744],[17.9008,50.2811],[17.895,50.2799],[17.8929,50.284],[17.8978,50.2865],[17.895,50.2879],[17.8906,50.2832],[17.8857,50.2839],[17.8847,50.2865],[17.8813,50.2864],[17.8709,50.2833],[17.8697,50.2794],[17.8618,50.2777],[17.8601,50.2792],[17.849,50.2777],[17.824,50.2833],[17.8366,50.2893],[17.8257,50.2992],[17.8259,50.3015],[17.8202,50.3085],[17.8224,50.3096],[17.8176,50.314],[17.8162,50.3175],[17.8175,50.3193],[17.8257,50.3204],[17.8259,50.3233],[17.8231,50.3243],[17.8154,50.3244],[17.8114,50.3223],[17.8094,50.3171],[17.8008,50.3153],[17.792,50.316],[17.7968,50.3081],[17.7881,50.3055],[17.7869,50.3034],[17.7803,50.3074],[17.7693,50.3013],[17.7614,50.2998],[17.7567,50.302],[17.7509,50.2995],[17.7504,50.3035],[17.7294,50.3036],[17.7292,50.3076],[17.7261,50.3075],[17.7225,50.3177],[17.7173,50.3208]]]]}},{"type":"Feature","properties":{"GID_2":"POL.8.12_1","GID_0":"POL","COUNTRY":"Poland","GID_1":"POL.8_1","NAME_1":"Opolskie","NL_NAME_1":"NA","NAME_2":"Strzelce","VARNAME_2":"NA","NL_NAME_2":"NA","TYPE_2":"Powiat","ENGTYPE_2":"County","CC_2":"1611","HASC_2":"NA"},"geometry":{"type":"MultiPolygon","coordinates":[[[[18.2977,50.4043],[18.2865,50.3986],[18.2749,50.3869],[18.265,50.3892],[18.2495,50.3902],[18.2293,50.3953],[18.2275,50.3934],[18.2302,50.3917],[18.2279,50.3882],[18.23,50.3862],[18.2276,50.3857],[18.2297,50.3831],[18.199,50.3776],[18.1915,50.3779],[18.1906,50.3765],[18.1873,50.3773],[18.1857,50.3804],[18.1804,50.3817],[18.177,50.3846],[18.1639,50.3852],[18.1582,50.3889],[18.1535,50.3866],[18.1512,50.3876],[18.151,50.3894],[18.1537,50.3905],[18.1464,50.3905],[18.1434,50.3891],[18.1431,50.3901],[18.1481,50.3913],[18.1604,50.3999],[18.1555,50.4037],[18.1433,50.4069],[18.1538,50.4145],[18.1524,50.4196],[18.1487,50.4246],[18.1479,50.4297],[18.1525,50.4348],[18.1544,50.4344],[18.154,50.4331],[18.1562,50.4326],[18.1556,50.4341],[18.1568,50.434],[18.1618,50.4424],[18.1609,50.4448],[18.1634,50.4486],[18.162,50.4509],[18.1604,50.4507],[18.1596,50.4475],[18.155,50.4453],[18.1574,50.4432],[18.1538,50.4423],[18.1502,50.4436],[18.1513,50.4458],[18.1464,50.4489],[18.1483,50.4522],[18.1466,50.4564],[18.1595,50.4619],[18.1419,50.4708],[18.1358,50.4768],[18.1292,50.4803],[18.1052,50.4859],[18.096,50.49],[18.0941,50.4952],[18.0758,50.5079],[18.083,50.5087],[18.0824,50.5106],[18.0915,50.5124],[18.1069,50.5327],[18.118,50.5543],[18.1278,50.559],[18.1289,50.5785],[18.1218,50.5907],[18.1262,50.5937],[18.1436,50.5908],[18.1504,50.5927],[18.1537,50.5965],[18.1581,50.5978],[18.1597,50.6026],[18.1563,50.6086],[18.1719,50.6119],[18.1755,50.6201],[18.1802,50.6261],[18.1888,50.6337],[18.1926,50.6349],[18.1947,50.6393],[18.2071,50.6495],[18.2285,50.6447],[18.2431,50.6372],[18.2619,50.637],[18.2628,50.639],[18.2746,50.6412],[18.2788,50.6429],[18.2775,50.6579],[18.276,50.6592],[18.2773,50.6664],[18.2757,50.6684],[18.2774,50.671],[18.2817,50.6711],[18.2845,50.6741],[18.2895,50.6697],[18.2931,50.6731],[18.3,50.6723],[18.3001,50.6709],[18.3033,50.6723],[18.3117,50.6714],[18.3147,50.6754],[18.3178,50.6764],[18.3183,50.6789],[18.3282,50.6825],[18.3317,50.6899],[18.339,50.6924],[18.3427,50.6958],[18.3579,50.6941],[18.3562,50.6917],[18.3612,50.6903],[18.3621,50.6925],[18.3731,50.6915],[18.3704,50.7032],[18.3715,50.7045],[18.3839,50.7024],[18.3959,50.6964],[18.405,50.6966],[18.4275,50.6901],[18.4259,50.6858],[18.4292,50.6857],[18.4292,50.6822],[18.4403,50.6804],[18.4429,50.6823],[18.4462,50.6817],[18.4483,50.6844],[18.4588,50.6793],[18.4612,50.6753],[18.4608,50.67],[18.4553,50.6621],[18.4593,50.6552],[18.4615,50.6442],[18.4626,50.6384],[18.4606,50.6354],[18.4643,50.6324],[18.4681,50.6251],[18.4647,50.623],[18.4656,50.6222],[18.4636,50.6215],[18.4647,50.6208],[18.4699,50.6208],[18.475,50.6178],[18.4834,50.6164],[18.4886,50.6195],[18.4995,50.6188],[18.5094,50.6213],[18.5132,50.6307],[18.5175,50.6255],[18.5872,50.6138],[18.5901,50.6064],[18.6017,50.6045],[18.5908,50.5778],[18.5955,50.5776],[18.5909,50.5758],[18.5954,50.5727],[18.6004,50.5744],[18.598,50.5686],[18.6034,50.5676],[18.6163,50.5693],[18.6054,50.5527],[18.6075,50.55],[18.6041,50.549],[18.5978,50.5506],[18.5883,50.5472],[18.5814,50.5484],[18.5799,50.5456],[18.5727,50.5481],[18.5569,50.5398],[18.5341,50.5424],[18.506,50.5492],[18.4779,50.5527],[18.4518,50.5475],[18.4438,50.5479],[18.4359,50.5449],[18.4356,50.5417],[18.4314,50.537],[18.4299,50.5316],[18.4382,50.5272],[18.4429,50.513],[18.4465,50.5096],[18.4475,50.4989],[18.4665,50.4995],[18.4672,50.4887],[18.4687,50.4884],[18.4704,50.4796],[18.4744,50.4793],[18.4733,50.477],[18.4736,50.4754],[18.4757,50.4749],[18.4749,50.473],[18.4795,50.4735],[18.4793,50.4715],[18.486,50.4699],[18.4845,50.4663],[18.4832,50.4666],[18.4813,50.4583],[18.4688,50.4616],[18.452,50.4626],[18.4516,50.468],[18.4533,50.471],[18.4504,50.474],[18.4527,50.4769],[18.44,50.4807],[18.4348,50.4784],[18.4099,50.4746],[18.3838,50.4836],[18.3818,50.4813],[18.3796,50.4817],[18.3838,50.4612],[18.3869,50.4588],[18.383,50.4572],[18.3858,50.4545],[18.3862,50.4517],[18.3825,50.4524],[18.3816,50.4491],[18.3875,50.4452],[18.3891,50.4396],[18.3861,50.4339],[18.3872,50.4323],[18.3856,50.4313],[18.376,50.4265],[18.3669,50.4269],[18.3656,50.4243],[18.3671,50.4203],[18.3649,50.4191],[18.3705,50.4154],[18.3781,50.4135],[18.3856,50.4042],[18.3847,50.4002],[18.3937,50.3914],[18.3936,50.3896],[18.3963,50.389],[18.3912,50.3854],[18.3849,50.3846],[18.385,50.3802],[18.3823,50.3815],[18.3772,50.381],[18.377,50.3791],[18.3739,50.3799],[18.3765,50.3761],[18.3882,50.3745],[18.3886,50.3704],[18.3725,50.3716],[18.3728,50.3611],[18.3631,50.3571],[18.3577,50.3566],[18.3414,50.3714],[18.3352,50.3744],[18.3286,50.3829],[18.3228,50.3824],[18.3175,50.3852],[18.2977,50.4043]]]]}}]}